{
"type": "FeatureCollection",
"name": "pangyo_1st_technovalley_candidate_parcels_4326",
"crs": { "type": "name", "properties": { "name": "urn:ogc:def:crs:OGC:1.3:CRS84" } },
"features": [
{ "type": "Feature", "properties": { "zoneCode": "41135MX2001001", "zoneName": "성남판교지구 택지개발사업", "blockName": "지원", "blockType": "도시지원시설용지", "lotName": "지원", "analysis_category": "제1판교테크노밸리 후보: 도시지원시설용지", "parcel_id": "지원", "area_sqm": 11037.656652018051 }, "geometry": { "type": "Polygon", "coordinates": [ [ [ 127.111589825799044, 37.40531906139536 ], [ 127.111632198183813, 37.405253878709551 ], [ 127.111705781951073, 37.405137759695982 ], [ 127.111725612373249, 37.405104944343883 ], [ 127.111810669149307, 37.404956648405928 ], [ 127.111899652639352, 37.404790598781894 ], [ 127.111981968938451, 37.404622482985545 ], [ 127.112058182678183, 37.404452210401345 ], [ 127.112059759138873, 37.40444896528053 ], [ 127.111897731747518, 37.404405058010859 ], [ 127.11189581882374, 37.40440992436605 ], [ 127.11189165229284, 37.404418397777967 ], [ 127.111886807829421, 37.404426691619918 ], [ 127.11188128529966, 37.404434715790622 ], [ 127.111875084571523, 37.404442380188819 ], [ 127.111868205777938, 37.404449774915598 ], [ 127.11186076159818, 37.404456719663152 ], [ 127.111852752164296, 37.404463304532378 ], [ 127.111844290158317, 37.404469349215745 ], [ 127.111835262899064, 37.404475034921354 ], [ 127.111825782932968, 37.404480088537603 ], [ 127.111815850526767, 37.404484692969724 ], [ 127.111805578624768, 37.404488847211105 ], [ 127.111794966830814, 37.404492280958145 ], [ 127.111784128486235, 37.404495264409029 ], [ 127.111773063326922, 37.404497617361244 ], [ 127.111761771352903, 37.404499339814741 ], [ 127.111750478586515, 37.404500521660125 ], [ 127.111738958875193, 37.404500982905724 ], [ 127.111727551315838, 37.404500903437615 ], [ 127.111716142832989, 37.404500193260368 ], [ 127.111704733558724, 37.40449894247476 ], [ 127.111693549119309, 37.404496970668241 ], [ 127.11168134699021, 37.404494188897161 ], [ 127.111670725297728, 37.404490865044494 ], [ 127.111660441780472, 37.4044870903695 ], [ 127.11165038323108, 37.404482684774919 ], [ 127.111640775671844, 37.404477738151641 ], [ 127.111631506419968, 37.404472430807445 ], [ 127.11162280110257, 37.404466582329384 ], [ 127.111614546905642, 37.404460282924035 ], [ 127.111606856775225, 37.404453532486599 ], [ 127.111599843655654, 37.404446330911753 ], [ 127.111593282052709, 37.404438948713555 ], [ 127.111587397329387, 37.404431025277034 ], [ 127.111582415768723, 37.404422830695587 ], [ 127.111577208846754, 37.40441499672901 ], [ 127.111570873138675, 37.40440761431924 ], [ 127.111563634532061, 37.404400683255936 ], [ 127.111555719314396, 37.404394473632372 ], [ 127.111546788649235, 37.404388985763518 ], [ 127.11153718137119, 37.40438421933414 ], [ 127.11152712336974, 37.404380174133749 ], [ 127.110911444893162, 37.404213517324159 ], [ 127.110867238957084, 37.404338258422086 ], [ 127.110799499387426, 37.404512576970617 ], [ 127.110726336047023, 37.40468545886403 ], [ 127.110647861719301, 37.404856814788253 ], [ 127.110563850215712, 37.405026462035586 ], [ 127.110535690699521, 37.405079557664749 ], [ 127.110598247725719, 37.405069228422661 ], [ 127.110760585274818, 37.405170712808385 ], [ 127.110887906732174, 37.405269976831491 ], [ 127.111481856675951, 37.405478731239036 ], [ 127.111589825799044, 37.40531906139536 ] ] ] } },
{ "type": "Feature", "properties": { "zoneCode": "41135MX2001001", "zoneName": "성남판교지구 택지개발사업", "blockName": "지원", "blockType": "도시지원시설용지", "lotName": "지원", "analysis_category": "제1판교테크노밸리 후보: 도시지원시설용지", "parcel_id": "지원", "area_sqm": 7391.2198233540939 }, "geometry": { "type": "Polygon", "coordinates": [ [ [ 127.100122794361809, 37.405191325298816 ], [ 127.100137271092606, 37.40512013319767 ], [ 127.099639024875302, 37.404568406916198 ], [ 127.098802948967673, 37.405048977336456 ], [ 127.09933738983942, 37.405642754463322 ], [ 127.100122794361809, 37.405191325298816 ] ] ] } },
{ "type": "Feature", "properties": { "zoneCode": "41135MX2001001", "zoneName": "성남판교지구 택지개발사업", "blockName": "지원", "blockType": "도시지원시설용지", "lotName": "지원", "analysis_category": "제1판교테크노밸리 후보: 도시지원시설용지", "parcel_id": "지원", "area_sqm": 5148.8431525239057 }, "geometry": { "type": "Polygon", "coordinates": [ [ [ 127.098231835109274, 37.405266049388572 ], [ 127.097701033803247, 37.404677858650004 ], [ 127.097291568035189, 37.405007322991501 ], [ 127.097318791125943, 37.405187233240838 ], [ 127.097395226094676, 37.405518654867969 ], [ 127.097470119434035, 37.405703481072123 ], [ 127.098231835109274, 37.405266049388572 ] ] ] } },
{ "type": "Feature", "properties": { "zoneCode": "41135MX2001001", "zoneName": "성남판교지구 택지개발사업", "blockName": "지원", "blockType": "도시지원시설용지", "lotName": "지원", "analysis_category": "제1판교테크노밸리 후보: 도시지원시설용지", "parcel_id": "지원", "area_sqm": 2471.2509561603406 }, "geometry": { "type": "Polygon", "coordinates": [ [ [ 127.10103238408665, 37.40547429223902 ], [ 127.10066906990501, 37.40507193475699 ], [ 127.100539506039794, 37.405146376906842 ], [ 127.100248178573509, 37.405288169667031 ], [ 127.100626874727254, 37.405707544679792 ], [ 127.10103238408665, 37.40547429223902 ] ] ] } },
{ "type": "Feature", "properties": { "zoneCode": "41135MX2001001", "zoneName": "성남판교지구 택지개발사업", "blockName": "지원", "blockType": "도시지원시설용지", "lotName": "지원", "analysis_category": "제1판교테크노밸리 후보: 도시지원시설용지", "parcel_id": "지원", "area_sqm": 1316.9252024505859 }, "geometry": { "type": "Polygon", "coordinates": [ [ [ 127.108972308493435, 37.400581058054108 ], [ 127.108509256614269, 37.400579947122104 ], [ 127.108509713867491, 37.400822138271025 ], [ 127.108573597125059, 37.400873077820016 ], [ 127.108972726727472, 37.400873977202679 ], [ 127.108972308493435, 37.400581058054108 ] ] ] } },
{ "type": "Feature", "properties": { "zoneCode": "41135MX2001001", "zoneName": "성남판교지구 택지개발사업", "blockName": "지원", "blockType": "도시지원시설용지", "lotName": "지원", "analysis_category": "제1판교테크노밸리 후보: 도시지원시설용지", "parcel_id": "지원", "area_sqm": 3557.8196385655342 }, "geometry": { "type": "Polygon", "coordinates": [ [ [ 127.09882378929926, 37.406491481874468 ], [ 127.09911508771313, 37.406408709012659 ], [ 127.099233977443106, 37.406374552533038 ], [ 127.09893310546677, 37.406041786451112 ], [ 127.09879285026085, 37.405886657401304 ], [ 127.098087545839874, 37.406292612959369 ], [ 127.098132657134073, 37.406312837182412 ], [ 127.098198654647604, 37.406340894836674 ], [ 127.098226341178318, 37.406352044753902 ], [ 127.098544859576563, 37.40644404841867 ], [ 127.098771495207203, 37.406505224799034 ], [ 127.09882378929926, 37.406491481874468 ] ] ] } },
{ "type": "Feature", "properties": { "zoneCode": "41135MX2001001", "zoneName": "성남판교지구 택지개발사업", "blockName": "지원", "blockType": "도시지원시설용지", "lotName": "지원", "analysis_category": "제1판교테크노밸리 후보: 도시지원시설용지", "parcel_id": "지원", "area_sqm": 9934.9512821586759 }, "geometry": { "type": "Polygon", "coordinates": [ [ [ 127.102016200983584, 37.403822894282833 ], [ 127.102040782178506, 37.403792509242741 ], [ 127.102064007426648, 37.403761674843786 ], [ 127.10208621543967, 37.403730300697504 ], [ 127.10210706738826, 37.40369838709249 ], [ 127.10212678916011, 37.403665933837466 ], [ 127.102145267933096, 37.403633031130028 ], [ 127.102162729717108, 37.403599768880028 ], [ 127.102178609794208, 37.403566147568583 ], [ 127.102192342968806, 37.403531807272103 ], [ 127.102204946215451, 37.403497107530562 ], [ 127.102215968002284, 37.4034622289319 ], [ 127.102225521276324, 37.403427171380017 ], [ 127.10223349249226, 37.40339148446548 ], [ 127.102238763799164, 37.403363818868094 ], [ 127.102160142712805, 37.403354425174001 ], [ 127.102104113282053, 37.403347264744575 ], [ 127.102048422330228, 37.403339833696862 ], [ 127.101992505021826, 37.403332042409872 ], [ 127.101936813370173, 37.40332407070207 ], [ 127.101881234072636, 37.403315648366068 ], [ 127.101825541364605, 37.403306865694823 ], [ 127.101770074075304, 37.403297722400964 ], [ 127.101714832444614, 37.403288398687032 ], [ 127.101604122381048, 37.403269030563216 ], [ 127.10154899229866, 37.403258625461419 ], [ 127.101494087039427, 37.403247409231909 ], [ 127.101439407323795, 37.403235922482317 ], [ 127.101341005199259, 37.403214291177001 ], [ 127.101231870690853, 37.403190506409018 ], [ 127.101177640799435, 37.403177487436153 ], [ 127.101123636097697, 37.403163928541836 ], [ 127.101069743997954, 37.403150097421864 ], [ 127.101015964386136, 37.403135906678372 ], [ 127.100908743218369, 37.403106894124299 ], [ 127.100855075658814, 37.403091982402728 ], [ 127.100801746710246, 37.403076890169679 ], [ 127.100748755899218, 37.40306125702071 ], [ 127.100695990520407, 37.403045263253524 ], [ 127.100643450693312, 37.403028999870799 ], [ 127.100591023237371, 37.403012284061788 ], [ 127.100538708391511, 37.402995298732073 ], [ 127.100486618981478, 37.402977952785122 ], [ 127.100434529121401, 37.402960246410331 ], [ 127.100382777640519, 37.402942180225168 ], [ 127.100331364537027, 37.40292375152724 ], [ 127.100281194063172, 37.402905502872578 ], [ 127.100219497457744, 37.4028826686503 ], [ 127.100168309138837, 37.402863339581266 ], [ 127.100117346141587, 37.402843559795336 ], [ 127.100029092262332, 37.402808583935624 ], [ 127.099642555776299, 37.403118673728827 ], [ 127.101990602310963, 37.403852559371714 ], [ 127.102016200983584, 37.403822894282833 ] ] ] } },
{ "type": "Feature", "properties": { "zoneCode": "41135MX2001001", "zoneName": "성남판교지구 택지개발사업", "blockName": "지원", "blockType": "도시지원시설용지", "lotName": "지원", "analysis_category": "제1판교테크노밸리 후보: 도시지원시설용지", "parcel_id": "지원", "area_sqm": 2852.4915876852542 }, "geometry": { "type": "Polygon", "coordinates": [ [ [ 127.107641321552649, 37.403384411890471 ], [ 127.107561696622298, 37.403384483328168 ], [ 127.107273765118393, 37.403356719694713 ], [ 127.107093168180185, 37.403356250374365 ], [ 127.107093926650236, 37.403896857611933 ], [ 127.107642159038519, 37.403898168857012 ], [ 127.107641321552649, 37.403384411890471 ] ] ] } },
{ "type": "Feature", "properties": { "zoneCode": "41135MX2001001", "zoneName": "성남판교지구 택지개발사업", "blockName": "지원", "blockType": "도시지원시설용지", "lotName": "지원", "analysis_category": "제1판교테크노밸리 후보: 도시지원시설용지", "parcel_id": "지원", "area_sqm": 8802.8103350020301 }, "geometry": { "type": "Polygon", "coordinates": [ [ [ 127.102364355446241, 37.406565281384374 ], [ 127.102352833426238, 37.406564300097124 ], [ 127.102341537061235, 37.406563138413581 ], [ 127.10233046562719, 37.406561255727119 ], [ 127.102319732433116, 37.406558922244741 ], [ 127.102308885327247, 37.406555868048422 ], [ 127.102298489409236, 37.406552362960035 ], [ 127.102288205716846, 37.406548317167456 ], [ 127.102278485921232, 37.406543640184438 ], [ 127.102269104366442, 37.406538512406051 ], [ 127.102260061053457, 37.406532933832317 ], [ 127.102251920360416, 37.406526633678688 ], [ 127.102244005323314, 37.406520153129726 ], [ 127.102236541354571, 37.40651313158827 ], [ 127.102229754713761, 37.406505839165582 ], [ 127.102223645399093, 37.406498275861821 ], [ 127.102217987515658, 37.406490441869245 ], [ 127.102213345801104, 37.406482336707384 ], [ 127.102209381172855, 37.406473780462171 ], [ 127.102205981042275, 37.406465043533593 ], [ 127.102203371427407, 37.406456215830474 ], [ 127.102201552446758, 37.406447387454143 ], [ 127.102200523860461, 37.406438378202026 ], [ 127.10220006001272, 37.406429368469077 ], [ 127.10220061245505, 37.406420178569128 ], [ 127.102201729874821, 37.406411166588583 ], [ 127.102203750877607, 37.406402155640656 ], [ 127.102206449926058, 37.406393412617085 ], [ 127.102209826661777, 37.406384669917237 ], [ 127.102213881443177, 37.406376196943803 ], [ 127.102218727461548, 37.406368173802719 ], [ 127.102224477300112, 37.406360330094088 ], [ 127.1022306792904, 37.406352756303932 ], [ 127.10223755944763, 37.406345542340887 ], [ 127.102244891755703, 37.406338598296024 ], [ 127.102252902473239, 37.406332195181591 ], [ 127.102261252511454, 37.406326150380508 ], [ 127.10227039378664, 37.40632055631189 ], [ 127.102272538222422, 37.406319383167911 ], [ 127.102030359966776, 37.406051988475973 ], [ 127.101995032764222, 37.406070939771695 ], [ 127.101939051590065, 37.406101441564651 ], [ 127.101883070851585, 37.406132303735852 ], [ 127.101827655284623, 37.406163525806008 ], [ 127.101763776899546, 37.406200972013906 ], [ 127.101294743700336, 37.406485098580667 ], [ 127.101268223055314, 37.40650178879315 ], [ 127.101259759967718, 37.406507832718368 ], [ 127.101251523133428, 37.406514146755995 ], [ 127.101243625260452, 37.406520550608349 ], [ 127.101205945548898, 37.406554460463553 ], [ 127.101169848269151, 37.40658926998546 ], [ 127.10113476844289, 37.406624799449297 ], [ 127.101100366867982, 37.406660778837583 ], [ 127.101066417172618, 37.406696847936651 ], [ 127.101033032900261, 37.406733457157387 ], [ 127.101000439590919, 37.406770336006808 ], [ 127.100969315649564, 37.406808024522718 ], [ 127.100938982911117, 37.406846162871219 ], [ 127.100908876158243, 37.406884391122993 ], [ 127.100887453438077, 37.406912791030294 ], [ 127.101038492968357, 37.406933387289421 ], [ 127.101474212822552, 37.406991315263696 ], [ 127.101903353708494, 37.40702780311485 ], [ 127.102335530497641, 37.407053744970924 ], [ 127.102370883946264, 37.407054094147163 ], [ 127.102364355446241, 37.406565281384374 ] ] ] } },
{ "type": "Feature", "properties": { "zoneCode": "41135MX2001001", "zoneName": "성남판교지구 택지개발사업", "blockName": "지원", "blockType": "도시지원시설용지", "lotName": "지원", "analysis_category": "제1판교테크노밸리 후보: 도시지원시설용지", "parcel_id": "지원", "area_sqm": 14287.109694656365 }, "geometry": { "type": "Polygon", "coordinates": [ [ [ 127.103942653067335, 37.4064537308412 ], [ 127.103956160714475, 37.406170981321999 ], [ 127.103820760347517, 37.405773031071881 ], [ 127.103816220305205, 37.405756726666652 ], [ 127.103813485206487, 37.405738798876534 ], [ 127.103813008921477, 37.40572077903078 ], [ 127.103816353350169, 37.405605356384413 ], [ 127.103776081037864, 37.405641882243337 ], [ 127.103739306848809, 37.405676062430551 ], [ 127.103702985514857, 37.405711053126375 ], [ 127.103667680789954, 37.405746133033873 ], [ 127.103633167637113, 37.405781933057405 ], [ 127.103599784531639, 37.405818182601465 ], [ 127.103566628019948, 37.405854972548042 ], [ 127.103527947581597, 37.405899515961657 ], [ 127.103307603812283, 37.406161810495341 ], [ 127.103282230994097, 37.406191655860155 ], [ 127.103262156086416, 37.406213657849356 ], [ 127.103241515699153, 37.406235119713784 ], [ 127.103218953731997, 37.406255502912948 ], [ 127.103196052299481, 37.406275434091391 ], [ 127.103172246301298, 37.406294646133581 ], [ 127.103147535979829, 37.406313318340615 ], [ 127.103121921092637, 37.40633127050949 ], [ 127.103095627412358, 37.406348412344407 ], [ 127.103068655304597, 37.406365014148406 ], [ 127.103040891092107, 37.406380535411174 ], [ 127.103012335262576, 37.406395336536548 ], [ 127.102983213589667, 37.406409327228936 ], [ 127.102953413004187, 37.406422417483924 ], [ 127.102923046333672, 37.406434517102774 ], [ 127.102892113701159, 37.406445716186184 ], [ 127.102864454481931, 37.406455380734073 ], [ 127.102823244552141, 37.406467309418403 ], [ 127.102711798269823, 37.406492092602356 ], [ 127.102587575126122, 37.40650670515921 ], [ 127.102565101767851, 37.406509157101738 ], [ 127.102542404205323, 37.406512870649486 ], [ 127.102520725107794, 37.406518024943345 ], [ 127.10248877270601, 37.40652688215917 ], [ 127.102478725662181, 37.406530855194632 ], [ 127.102469696841695, 37.406536088778033 ], [ 127.102461007950865, 37.406542132981819 ], [ 127.102451640042418, 37.406547186650762 ], [ 127.102441706789108, 37.40655179119603 ], [ 127.102431433722018, 37.406555673418197 ], [ 127.102420708018045, 37.406558926217841 ], [ 127.10240975532875, 37.406561368298718 ], [ 127.102398463070827, 37.406563270060666 ], [ 127.102387282914563, 37.406564541016905 ], [ 127.102375876017263, 37.406565181456578 ], [ 127.102364355446241, 37.406565281384374 ], [ 127.102370883946264, 37.407054094147163 ], [ 127.104296800125681, 37.407073049982678 ], [ 127.103942653067335, 37.4064537308412 ] ] ] } },
{ "type": "Feature", "properties": { "zoneCode": "41135MX2001001", "zoneName": "성남판교지구 택지개발사업", "blockName": "지원", "blockType": "도시지원시설용지", "lotName": "지원", "analysis_category": "제1판교테크노밸리 후보: 도시지원시설용지", "parcel_id": "지원", "area_sqm": 2913.446930964702 }, "geometry": { "type": "Polygon", "coordinates": [ [ [ 127.111725289742409, 37.402493988797104 ], [ 127.111242573809037, 37.402492635697492 ], [ 127.111240269031185, 37.402538589516091 ], [ 127.111237285284133, 37.402583642951001 ], [ 127.11123075293844, 37.402673660242328 ], [ 127.111223768545145, 37.40276349774863 ], [ 127.111214412478304, 37.402853427554746 ], [ 127.111204604619033, 37.402943357777893 ], [ 127.111199474794972, 37.402988323098214 ], [ 127.111193667309749, 37.40303328904664 ], [ 127.111187181768031, 37.403077985319186 ], [ 127.111726146782814, 37.403079196127145 ], [ 127.111725289742409, 37.402493988797104 ] ] ] } },
{ "type": "Feature", "properties": { "zoneCode": "41135MX2001001", "zoneName": "성남판교지구 택지개발사업", "blockName": "지원", "blockType": "도시지원시설용지", "lotName": "지원", "analysis_category": "제1판교테크노밸리 후보: 도시지원시설용지", "parcel_id": "지원", "area_sqm": 10455.888237417554 }, "geometry": { "type": "Polygon", "coordinates": [ [ [ 127.112273655669753, 37.403053366078623 ], [ 127.11251445045788, 37.403053861094982 ], [ 127.112518163344959, 37.403044216767874 ], [ 127.112545611435863, 37.402816595049032 ], [ 127.112561124012203, 37.402690258419561 ], [ 127.112560681414934, 37.40254339366647 ], [ 127.11258874958952, 37.402430019827833 ], [ 127.112588281578951, 37.402189449702647 ], [ 127.11258794826982, 37.401810573881335 ], [ 127.112562503022289, 37.401711306099358 ], [ 127.112562040491426, 37.401704008324955 ], [ 127.111836845177237, 37.401702254405421 ], [ 127.111838006329677, 37.402494334193335 ], [ 127.111725289742409, 37.402493988797104 ], [ 127.111726146782814, 37.403079196127145 ], [ 127.112138728276634, 37.403080072276808 ], [ 127.112273655669753, 37.403053366078623 ] ] ] } },
{ "type": "Feature", "properties": { "zoneCode": "41135MX2001001", "zoneName": "성남판교지구 택지개발사업", "blockName": "지원", "blockType": "도시지원시설용지", "lotName": "지원", "analysis_category": "제1판교테크노밸리 후보: 도시지원시설용지", "parcel_id": "지원", "area_sqm": 2880.3468404603236 }, "geometry": { "type": "Polygon", "coordinates": [ [ [ 127.107093168180185, 37.403356250374365 ], [ 127.106608978618951, 37.403354969779855 ], [ 127.106545010794051, 37.403405843762485 ], [ 127.106545736292333, 37.403844726645737 ], [ 127.106609620793137, 37.403895667227516 ], [ 127.107093926650236, 37.403896857611933 ], [ 127.107093168180185, 37.403356250374365 ] ] ] } },
{ "type": "Feature", "properties": { "zoneCode": "41135MX2001001", "zoneName": "성남판교지구 택지개발사업", "blockName": "지원", "blockType": "도시지원시설용지", "lotName": "지원", "analysis_category": "제1판교테크노밸리 후보: 도시지원시설용지", "parcel_id": "지원", "area_sqm": 1818.8908567578781 }, "geometry": { "type": "Polygon", "coordinates": [ [ [ 127.101562714989001, 37.402281735163491 ], [ 127.101520122742428, 37.402271769943894 ], [ 127.101455385956001, 37.402255786637234 ], [ 127.101390760942479, 37.402238902187364 ], [ 127.101326474304528, 37.402221657011061 ], [ 127.101251679606463, 37.402200996812269 ], [ 127.101225241408827, 37.402193540697354 ], [ 127.101014091221813, 37.402658821687275 ], [ 127.101088660902661, 37.402679842629318 ], [ 127.101195994473017, 37.402708854927752 ], [ 127.101249886636552, 37.402722955394289 ], [ 127.101303890925976, 37.40273642503228 ], [ 127.101387269182851, 37.402756627439722 ], [ 127.101562714989001, 37.402281735163491 ] ] ] } },
{ "type": "Feature", "properties": { "zoneCode": "41135MX2001001", "zoneName": "성남판교지구 택지개발사업", "blockName": "지원", "blockType": "도시지원시설용지", "lotName": "지원", "analysis_category": "제1판교테크노밸리 후보: 도시지원시설용지", "parcel_id": "지원", "area_sqm": 4723.1510320057505 }, "geometry": { "type": "Polygon", "coordinates": [ [ [ 127.108709053072559, 37.403360202625365 ], [ 127.108119261017023, 37.403358573394584 ], [ 127.107896008000651, 37.403383912727712 ], [ 127.107810737059012, 37.403384800324346 ], [ 127.107811575828563, 37.403898647389049 ], [ 127.108709823279085, 37.403900899935607 ], [ 127.108709053072559, 37.403360202625365 ] ] ] } },
{ "type": "Feature", "properties": { "zoneCode": "41135MX2001001", "zoneName": "성남판교지구 택지개발사업", "blockName": "지원", "blockType": "도시지원시설용지", "lotName": "지원", "analysis_category": "제1판교테크노밸리 후보: 도시지원시설용지", "parcel_id": "지원", "area_sqm": 1349.3179714688065 }, "geometry": { "type": "Polygon", "coordinates": [ [ [ 127.10833935811705, 37.400234831387557 ], [ 127.107806257925162, 37.40023350975644 ], [ 127.1078067629077, 37.400491109115663 ], [ 127.108339723750206, 37.400492430869306 ], [ 127.10833935811705, 37.400234831387557 ] ] ] } },
{ "type": "Feature", "properties": { "zoneCode": "41135MX2001001", "zoneName": "성남판교지구 택지개발사업", "blockName": "지원", "blockType": "도시지원시설용지", "lotName": "지원", "analysis_category": "제1판교테크노밸리 후보: 도시지원시설용지", "parcel_id": "지원", "area_sqm": 16863.253794827306 }, "geometry": { "type": "Polygon", "coordinates": [ [ [ 127.105349826697775, 37.399955026504074 ], [ 127.105282947883978, 37.399940939295725 ], [ 127.103840158721383, 37.399937691532656 ], [ 127.103776531224057, 37.399988924157597 ], [ 127.103777814127881, 37.400996256361168 ], [ 127.103778229120806, 37.40132161201123 ], [ 127.104680060463963, 37.401324342596453 ], [ 127.105349826697775, 37.399955026504074 ] ] ] } },
{ "type": "Feature", "properties": { "zoneCode": "41135MX2001001", "zoneName": "성남판교지구 택지개발사업", "blockName": "지원", "blockType": "도시지원시설용지", "lotName": "지원", "analysis_category": "제1판교테크노밸리 후보: 도시지원시설용지", "parcel_id": "지원", "area_sqm": 5459.4126002523672 }, "geometry": { "type": "Polygon", "coordinates": [ [ [ 127.106375126386865, 37.402987924385016 ], [ 127.106374469977126, 37.402435783994079 ], [ 127.10556930466187, 37.402433882328452 ], [ 127.105355933145034, 37.402907372212532 ], [ 127.105461374478068, 37.403036845281896 ], [ 127.106311045772145, 37.403038798344163 ], [ 127.106375126386865, 37.402987924385016 ] ] ] } },
{ "type": "Feature", "properties": { "zoneCode": "41135MX2001001", "zoneName": "성남판교지구 택지개발사업", "blockName": "지원", "blockType": "도시지원시설용지", "lotName": "지원", "analysis_category": "제1판교테크노밸리 후보: 도시지원시설용지", "parcel_id": "지원", "area_sqm": 3073.1351249856348 }, "geometry": { "type": "Polygon", "coordinates": [ [ [ 127.110451750801545, 37.402490303461022 ], [ 127.109963162057468, 37.40248904065011 ], [ 127.109883290856686, 37.402552725418168 ], [ 127.109883799409133, 37.402984310323887 ], [ 127.10996351596944, 37.403048119079187 ], [ 127.110452446909676, 37.403049201368212 ], [ 127.110451750801545, 37.402490303461022 ] ] ] } },
{ "type": "Feature", "properties": { "zoneCode": "41135MX2001001", "zoneName": "성남판교지구 택지개발사업", "blockName": "지원", "blockType": "도시지원시설용지", "lotName": "지원", "analysis_category": "제1판교테크노밸리 후보: 도시지원시설용지", "parcel_id": "지원", "area_sqm": 10243.946675300478 }, "geometry": { "type": "Polygon", "coordinates": [ [ [ 127.112066625206936, 37.404432920829485 ], [ 127.112152260192616, 37.404217949122859 ], [ 127.112174464110211, 37.404032950360715 ], [ 127.112242313803435, 37.403859171517531 ], [ 127.112248606705904, 37.40383745120819 ], [ 127.112309348886399, 37.403592589039171 ], [ 127.112373027469971, 37.403424580500818 ], [ 127.112343281077173, 37.403395866064621 ], [ 127.111871515369955, 37.403394866578978 ], [ 127.111735378607278, 37.403367511751959 ], [ 127.111138923216373, 37.403366174097712 ], [ 127.111121997807473, 37.403454759384907 ], [ 127.111112462061371, 37.403499007971021 ], [ 127.111090579412732, 37.40359606737011 ], [ 127.111080365706314, 37.403640136378293 ], [ 127.111058356785094, 37.4037280956533 ], [ 127.111035782830768, 37.403815875243744 ], [ 127.111023874513691, 37.403859676412054 ], [ 127.110984422055978, 37.403990899551978 ], [ 127.110955302940567, 37.404082649640117 ], [ 127.111555613936616, 37.404245175867906 ], [ 127.111574143940558, 37.404250024092541 ], [ 127.111585103242376, 37.40425253672781 ], [ 127.111596286721493, 37.404253878737514 ], [ 127.111607581824359, 37.404254317827061 ], [ 127.111618762798045, 37.40425394701122 ], [ 127.111630055529389, 37.404252765178327 ], [ 127.111641008240312, 37.404250772749315 ], [ 127.11165173387414, 37.404247969619135 ], [ 127.111662006148052, 37.404244085694515 ], [ 127.111672618044423, 37.404240742060473 ], [ 127.111683343413262, 37.404237758724989 ], [ 127.111694295065064, 37.404235045481599 ], [ 127.111705473792099, 37.404233142937322 ], [ 127.111716766254801, 37.404231780893817 ], [ 127.111728059508962, 37.40423095945642 ], [ 127.111739579708058, 37.404230858616785 ], [ 127.111750987886367, 37.404231388589558 ], [ 127.111762283911816, 37.404232459273707 ], [ 127.111773580862533, 37.404234160665119 ], [ 127.111784652716068, 37.404236402873067 ], [ 127.111795386662052, 37.404239276104278 ], [ 127.111806008324905, 37.404242599945874 ], [ 127.111816292211316, 37.4042466449119 ], [ 127.111826125113836, 37.404251230905679 ], [ 127.111835619976702, 37.4042563578219 ], [ 127.111844550779324, 37.404261935770087 ], [ 127.111853143410244, 37.404267964539848 ], [ 127.111861171981843, 37.404274445242812 ], [ 127.11186874917064, 37.404281194868481 ], [ 127.111875536543593, 37.40428848673946 ], [ 127.111881646912011, 37.404296229748539 ], [ 127.111887080009993, 37.404304243693581 ], [ 127.111891948651532, 37.404312438367548 ], [ 127.111896140022694, 37.404320903977656 ], [ 127.111899541047933, 37.404329550528004 ], [ 127.111902377614996, 37.404338377807839 ], [ 127.111904198077852, 37.404347476340114 ], [ 127.111905340741174, 37.404356485403746 ], [ 127.111905692792732, 37.404365495205475 ], [ 127.111905254495724, 37.404374685947658 ], [ 127.111904138268912, 37.404383698021086 ], [ 127.111902118480671, 37.404392709136133 ], [ 127.111897731747518, 37.404405058010859 ], [ 127.112059759138873, 37.40444896528053 ], [ 127.112066625206936, 37.404432920829485 ] ] ] } },
{ "type": "Feature", "properties": { "zoneCode": "41135MX2001001", "zoneName": "성남판교지구 택지개발사업", "blockName": "지원", "blockType": "도시지원시설용지", "lotName": "지원", "analysis_category": "제1판교테크노밸리 후보: 도시지원시설용지", "parcel_id": "지원", "area_sqm": 1818.8333061301087 }, "geometry": { "type": "Polygon", "coordinates": [ [ [ 127.101905927387179, 37.402353435246816 ], [ 127.101847634848696, 37.402342492359011 ], [ 127.1017818854193, 37.402329483435011 ], [ 127.101716135292804, 37.402315933867079 ], [ 127.101650497292255, 37.402301753457962 ], [ 127.101585310363632, 37.402287032022585 ], [ 127.101562714989001, 37.402281735163491 ], [ 127.101387269182851, 37.402756627439722 ], [ 127.101423196299265, 37.402765246817765 ], [ 127.101456072187133, 37.402772517243754 ], [ 127.101510526761601, 37.402784815089269 ], [ 127.10156520651941, 37.402796572111036 ], [ 127.101620111699603, 37.402807968511482 ], [ 127.101675128999418, 37.402818734081848 ], [ 127.101730145834821, 37.402829139221751 ], [ 127.101766973922778, 37.402835775502318 ], [ 127.101905927387179, 37.402353435246816 ] ] ] } },
{ "type": "Feature", "properties": { "zoneCode": "41135MX2001001", "zoneName": "성남판교지구 택지개발사업", "blockName": "지원", "blockType": "도시지원시설용지", "lotName": "지원", "analysis_category": "제1판교테크노밸리 후보: 도시지원시설용지", "parcel_id": "지원", "area_sqm": 1818.8856574940091 }, "geometry": { "type": "Polygon", "coordinates": [ [ [ 127.100894862381409, 37.402089030960227 ], [ 127.100871020835072, 37.402080761671613 ], [ 127.100809099915821, 37.402058738854087 ], [ 127.100747404320089, 37.402036265308261 ], [ 127.100686159694803, 37.402013160642511 ], [ 127.100625027336491, 37.401989515242732 ], [ 127.100573159859721, 37.401968655192 ], [ 127.100293193156887, 37.402409935485565 ], [ 127.100358168968853, 37.402436010578612 ], [ 127.10040901904874, 37.402455970559309 ], [ 127.100460207032597, 37.402475209424573 ], [ 127.100511733513358, 37.402494177680246 ], [ 127.100614898307029, 37.4025312130168 ], [ 127.100649022311472, 37.402542987688719 ], [ 127.100894862381409, 37.402089030960227 ] ] ] } },
{ "type": "Feature", "properties": { "zoneCode": "41135MX2001001", "zoneName": "성남판교지구 택지개발사업", "blockName": "지원", "blockType": "도시지원시설용지", "lotName": "지원", "analysis_category": "제1판교테크노밸리 후보: 도시지원시설용지", "parcel_id": "지원", "area_sqm": 2311.5152570522537 }, "geometry": { "type": "Polygon", "coordinates": [ [ [ 127.099423432836304, 37.406319974633703 ], [ 127.099490947577436, 37.406298474604256 ], [ 127.099524704112525, 37.406287094767748 ], [ 127.099558687352769, 37.40627634364045 ], [ 127.099591538995128, 37.406263972520129 ], [ 127.099701154829802, 37.40622081313365 ], [ 127.099715151259261, 37.406213863711486 ], [ 127.099344716565341, 37.405805110930757 ], [ 127.09893310546677, 37.406041786451112 ], [ 127.099233977443106, 37.406374552533038 ], [ 127.099423432836304, 37.406319974633703 ] ] ] } },
{ "type": "Feature", "properties": { "zoneCode": "41135MX2001001", "zoneName": "성남판교지구 택지개발사업", "blockName": "지원", "blockType": "도시지원시설용지", "lotName": "지원", "analysis_category": "제1판교테크노밸리 후보: 도시지원시설용지", "parcel_id": "지원", "area_sqm": 2437.2209056288361 }, "geometry": { "type": "Polygon", "coordinates": [ [ [ 127.101844523873254, 37.405007151501373 ], [ 127.101481208574114, 37.404605517295344 ], [ 127.10107514055872, 37.404838771776873 ], [ 127.101438229528284, 37.405240857912929 ], [ 127.101844523873254, 37.405007151501373 ] ] ] } },
{ "type": "Feature", "properties": { "zoneCode": "41135MX2001001", "zoneName": "성남판교지구 택지개발사업", "blockName": "지원", "blockType": "도시지원시설용지", "lotName": "지원", "analysis_category": "제1판교테크노밸리 후보: 도시지원시설용지", "parcel_id": "지원", "area_sqm": 17363.735201367326 }, "geometry": { "type": "Polygon", "coordinates": [ [ [ 127.10630589251825, 37.40525889923169 ], [ 127.106532115797052, 37.405172381487468 ], [ 127.106627050293497, 37.404891811793256 ], [ 127.106641280137566, 37.404648345424917 ], [ 127.106760228872503, 37.404499302154854 ], [ 127.106986549788232, 37.404403863415538 ], [ 127.107212689167071, 37.40434041036854 ], [ 127.107438578489948, 37.40434029833235 ], [ 127.107642117107872, 37.404348945754059 ], [ 127.107641784922563, 37.404033321163112 ], [ 127.106211002040169, 37.404029911398595 ], [ 127.106177005980086, 37.404030031595994 ], [ 127.106143239065858, 37.404032494214988 ], [ 127.106109473276277, 37.404035767735046 ], [ 127.106076162014489, 37.404041023072438 ], [ 127.106043417472847, 37.404047720421573 ], [ 127.106011126700821, 37.40405585717955 ], [ 127.105979289451355, 37.404065255847456 ], [ 127.105948245055828, 37.404076276531256 ], [ 127.105918105827072, 37.404088465922584 ], [ 127.10588920997624, 37.404101375920284 ], [ 127.10586110759921, 37.404116357540843 ], [ 127.10583436291526, 37.404133049881821 ], [ 127.105808522898556, 37.40415055233067 ], [ 127.105784039823931, 37.404169224894211 ], [ 127.10576102651261, 37.404188977372755 ], [ 127.105739596157647, 37.404209989869713 ], [ 127.105712981575792, 37.404239116049176 ], [ 127.105687497291967, 37.404268872837029 ], [ 127.105517231162779, 37.404471660562159 ], [ 127.105491520831364, 37.404501415703436 ], [ 127.105464228255954, 37.404530452320543 ], [ 127.105428699139935, 37.404565623058652 ], [ 127.105399032309151, 37.40459294982216 ], [ 127.105368121942277, 37.404619466758504 ], [ 127.105336193929702, 37.404645173668435 ], [ 127.105303361215761, 37.404670070452084 ], [ 127.105260934851188, 37.404699841114727 ], [ 127.10521726481403, 37.404728711839653 ], [ 127.105180926253965, 37.404750368016657 ], [ 127.105143908884656, 37.404771213865658 ], [ 127.105067837720156, 37.404810474576934 ], [ 127.105028670981511, 37.404828889536851 ], [ 127.104986566529135, 37.404846496142845 ], [ 127.104951797562137, 37.404859771454483 ], [ 127.105176821387019, 37.404886154277904 ], [ 127.105401987178922, 37.405097064008977 ], [ 127.105627740157303, 37.405160026458724 ], [ 127.105853339957676, 37.405275157261386 ], [ 127.106079314855876, 37.405334604700215 ], [ 127.10630589251825, 37.40525889923169 ] ] ] } },
{ "type": "Feature", "properties": { "zoneCode": "41135MX2001001", "zoneName": "성남판교지구 택지개발사업", "blockName": "지원", "blockType": "도시지원시설용지", "lotName": "지원", "analysis_category": "제1판교테크노밸리 후보: 도시지원시설용지", "parcel_id": "지원", "area_sqm": 12648.726562517641 }, "geometry": { "type": "Polygon", "coordinates": [ [ [ 127.110262098929752, 37.40513215845305 ], [ 127.110267844710606, 37.405122151924971 ], [ 127.11035480191039, 37.404958267760726 ], [ 127.110378894561009, 37.40490454520878 ], [ 127.110408965979559, 37.404845771472885 ], [ 127.110421127955789, 37.404820802212299 ], [ 127.11043565394931, 37.404790424694902 ], [ 127.110470221819426, 37.404716960288489 ], [ 127.11048756122409, 37.404679552270331 ], [ 127.110519985909789, 37.404608072051758 ], [ 127.110563098776751, 37.40450792975269 ], [ 127.110584597453965, 37.4044570026877 ], [ 127.110650649708148, 37.404287100781836 ], [ 127.110697330682541, 37.40415541967743 ], [ 127.110646486013223, 37.404141861316987 ], [ 127.110592253425054, 37.40412857636403 ], [ 127.110537909087356, 37.404116102401019 ], [ 127.110483114556231, 37.404104710043391 ], [ 127.110428095587366, 37.404094308981477 ], [ 127.110372513085551, 37.404084719324786 ], [ 127.110317157528712, 37.404075850243288 ], [ 127.110261464323855, 37.404067792358347 ], [ 127.110205659749553, 37.404060815765227 ], [ 127.110149517782361, 37.404054830570111 ], [ 127.110093151107023, 37.404049656466476 ], [ 127.110036786387255, 37.404045833853829 ], [ 127.10998031002849, 37.404042912329771 ], [ 127.109923721768368, 37.40404071169192 ], [ 127.109878429221993, 37.404039401688763 ], [ 127.109732956006255, 37.404038724004586 ], [ 127.10924277599635, 37.404037459680119 ], [ 127.109243783659068, 37.40474133016324 ], [ 127.10946813697511, 37.405008095693866 ], [ 127.109693270446542, 37.405109343996422 ], [ 127.109920325528449, 37.405132832690541 ], [ 127.11014614368051, 37.405160016237602 ], [ 127.110262098929752, 37.40513215845305 ] ] ] } },
{ "type": "Feature", "properties": { "zoneCode": "41135MX2001001", "zoneName": "성남판교지구 택지개발사업", "blockName": "지원", "blockType": "도시지원시설용지", "lotName": "지원", "analysis_category": "제1판교테크노밸리 후보: 도시지원시설용지", "parcel_id": "지원", "area_sqm": 2437.1248060049852 }, "geometry": { "type": "Polygon", "coordinates": [ [ [ 127.101438229528284, 37.405240857912929 ], [ 127.10107514055872, 37.404838771776873 ], [ 127.10066906990501, 37.40507193475699 ], [ 127.10103238408665, 37.40547429223902 ], [ 127.101438229528284, 37.405240857912929 ] ] ] } },
{ "type": "Feature", "properties": { "zoneCode": "41135MX2001001", "zoneName": "성남판교지구 택지개발사업", "blockName": "지원", "blockType": "도시지원시설용지", "lotName": "지원", "analysis_category": "제1판교테크노밸리 후보: 도시지원시설용지", "parcel_id": "지원", "area_sqm": 9066.1574300015691 }, "geometry": { "type": "Polygon", "coordinates": [ [ [ 127.10948551492919, 37.40106119122234 ], [ 127.109421630767045, 37.401010162067728 ], [ 127.108340568098271, 37.401007719797981 ], [ 127.107807829868207, 37.401006668154494 ], [ 127.107808513869685, 37.401331032422434 ], [ 127.107809284921558, 37.401557096021854 ], [ 127.109486120187071, 37.401561793786406 ], [ 127.10948551492919, 37.40106119122234 ] ] ] } },
{ "type": "Feature", "properties": { "zoneCode": "41135MX2001001", "zoneName": "성남판교지구 택지개발사업", "blockName": "지원", "blockType": "도시지원시설용지", "lotName": "지원", "analysis_category": "제1판교테크노밸리 후보: 도시지원시설용지", "parcel_id": "지원", "area_sqm": 2812.9230110577992 }, "geometry": { "type": "Polygon", "coordinates": [ [ [ 127.103214857089071, 37.402472241602709 ], [ 127.10312484161534, 37.402471688278887 ], [ 127.103056849309169, 37.402470755571123 ], [ 127.102988856033761, 37.402469102915418 ], [ 127.102920861544661, 37.402466547406149 ], [ 127.102853092095245, 37.402463361856633 ], [ 127.102785096041302, 37.402459635854314 ], [ 127.102716872897773, 37.402455008993847 ], [ 127.102650302631886, 37.402503720673543 ], [ 127.102650503130477, 37.402905031854985 ], [ 127.102727505651202, 37.402970920145044 ], [ 127.102852316642554, 37.402977841150545 ], [ 127.102908903904591, 37.40298004517453 ], [ 127.103022303108204, 37.402983551934845 ], [ 127.10307888904255, 37.402984764763907 ], [ 127.103135587312153, 37.402985526962581 ], [ 127.103215438202952, 37.402985818716694 ], [ 127.103214857089071, 37.402472241602709 ] ] ] } },
{ "type": "Feature", "properties": { "zoneCode": "41135MX2001001", "zoneName": "성남판교지구 택지개발사업", "blockName": "지원", "blockType": "도시지원시설용지", "lotName": "지원", "analysis_category": "제1판교테크노밸리 후보: 도시지원시설용지", "parcel_id": "지원", "area_sqm": 3904.0064027656213 }, "geometry": { "type": "Polygon", "coordinates": [ [ [ 127.103853603225019, 37.403014280749481 ], [ 127.104117605129716, 37.402474525173737 ], [ 127.103925942019799, 37.402474060616328 ], [ 127.103923349262715, 37.402477666915424 ], [ 127.103916921877939, 37.402485240994302 ], [ 127.103910042233636, 37.402492455058983 ], [ 127.103902371382901, 37.402499219301696 ], [ 127.103894361215126, 37.402505623432411 ], [ 127.103885559839043, 37.402511577740881 ], [ 127.103876418778555, 37.402516901633312 ], [ 127.103866825581591, 37.402521955612393 ], [ 127.103856892578023, 37.402526289074117 ], [ 127.10384650719277, 37.40253017241978 ], [ 127.103835895187686, 37.402533515352587 ], [ 127.103824943498182, 37.402536227869028 ], [ 127.103813878130481, 37.402538399874807 ], [ 127.103802698964145, 37.402539941268465 ], [ 127.103791292933707, 37.402540762046677 ], [ 127.103779999232202, 37.402541132219973 ], [ 127.103768478667476, 37.40254078177766 ], [ 127.103757183252014, 37.402539890531514 ], [ 127.103745887103472, 37.402538458676815 ], [ 127.103734815858957, 37.402536305815957 ], [ 127.103723969642473, 37.402533522050248 ], [ 127.103713348576989, 37.402530197480843 ], [ 127.103702952783848, 37.402526422209206 ], [ 127.103682949959691, 37.402517519461355 ], [ 127.103665541011921, 37.402505821327999 ], [ 127.103657174753735, 37.402499521461365 ], [ 127.103649711175777, 37.40249259010524 ], [ 127.103642135268871, 37.402486109352196 ], [ 127.103632867069805, 37.402480981580354 ], [ 127.10362269741583, 37.402477386308938 ], [ 127.103611852067985, 37.402475233241496 ], [ 127.103600782058692, 37.402473981380361 ], [ 127.103589600454342, 37.402473721630372 ], [ 127.103214857089071, 37.402472241602709 ], [ 127.103215438202952, 37.402985818716694 ], [ 127.103328155262759, 37.402985992021073 ], [ 127.103463045931846, 37.40301335670474 ], [ 127.103825593578421, 37.403014395089237 ], [ 127.103853603225019, 37.403014280749481 ] ] ] } },
{ "type": "Feature", "properties": { "zoneCode": "41135MX2001001", "zoneName": "성남판교지구 택지개발사업", "blockName": "지원", "blockType": "도시지원시설용지", "lotName": "지원", "analysis_category": "제1판교테크노밸리 후보: 도시지원시설용지", "parcel_id": "지원", "area_sqm": 6424.7103173079304 }, "geometry": { "type": "Polygon", "coordinates": [ [ [ 127.111038481786721, 37.401014081638124 ], [ 127.109911000223491, 37.401011246204099 ], [ 127.109846923554159, 37.401062031988971 ], [ 127.109847530048128, 37.401561823636264 ], [ 127.111036346637718, 37.401564692978106 ], [ 127.111038481786721, 37.401014081638124 ] ] ] } },
{ "type": "Feature", "properties": { "zoneCode": "41135MX2001001", "zoneName": "성남판교지구 택지개발사업", "blockName": "지원", "blockType": "도시지원시설용지", "lotName": "지원", "analysis_category": "제1판교테크노밸리 후보: 도시지원시설용지", "parcel_id": "지원", "area_sqm": 11060.686668616308 }, "geometry": { "type": "Polygon", "coordinates": [ [ [ 127.104508181623487, 37.404884666242914 ], [ 127.104547236067305, 37.40486661195856 ], [ 127.104586856329391, 37.404849368079681 ], [ 127.104627155603737, 37.404833114709859 ], [ 127.104740155557394, 37.404790488301103 ], [ 127.104953620523219, 37.404706958951031 ], [ 127.1049929006562, 37.404688903420599 ], [ 127.105030936268562, 37.404669318145409 ], [ 127.105104518673059, 37.404627266496917 ], [ 127.105139952271173, 37.404604620021544 ], [ 127.105174142212888, 37.404581073612825 ], [ 127.105239581736967, 37.404531280305569 ], [ 127.105270266099382, 37.404504673499339 ], [ 127.105300046011052, 37.404477436769817 ], [ 127.105328582266239, 37.404449300111587 ], [ 127.105355649472358, 37.404420624128505 ], [ 127.105381359704921, 37.404390778014118 ], [ 127.105582972968151, 37.404150660953725 ], [ 127.105610039845487, 37.404121894810054 ], [ 127.105646699231656, 37.404087533931396 ], [ 127.105678627026805, 37.404061917036984 ], [ 127.10571213826347, 37.404037920562033 ], [ 127.105774994476263, 37.403999121591042 ], [ 127.105803549102916, 37.403984499997073 ], [ 127.105816981329284, 37.40397863156398 ], [ 127.10581615160666, 37.403379999130564 ], [ 127.10535556739687, 37.4033789628836 ], [ 127.105136051005573, 37.403493944541616 ], [ 127.1048660087759, 37.4039914500582 ], [ 127.104842799081155, 37.404032826845956 ], [ 127.104819249910378, 37.404073753418672 ], [ 127.104795249060388, 37.404114770482401 ], [ 127.104770570271612, 37.404155607930335 ], [ 127.104741830153628, 37.404199872768309 ], [ 127.104641758616978, 37.404280330458278 ], [ 127.104623831919838, 37.40430332192588 ], [ 127.104593502166438, 37.404341551325253 ], [ 127.104562268207587, 37.404379330997969 ], [ 127.104530807957659, 37.404416840555427 ], [ 127.1044986697609, 37.404454170492279 ], [ 127.104466192204839, 37.404491140310199 ], [ 127.104433262591385, 37.404527930309918 ], [ 127.104399880795711, 37.404564450389842 ], [ 127.104366159763813, 37.404600700451176 ], [ 127.104331986795771, 37.40463686079444 ], [ 127.104297022317652, 37.404672391106487 ], [ 127.104261831670712, 37.404707741401992 ], [ 127.104228783259558, 37.404740386786727 ], [ 127.104474433625057, 37.404901274273115 ], [ 127.104508181623487, 37.404884666242914 ] ] ] } },
{ "type": "Feature", "properties": { "zoneCode": "41135MX2001001", "zoneName": "성남판교지구 택지개발사업", "blockName": "지원", "blockType": "도시지원시설용지", "lotName": "지원", "analysis_category": "제1판교테크노밸리 후보: 도시지원시설용지", "parcel_id": "지원", "area_sqm": 1349.3690715646712 }, "geometry": { "type": "Polygon", "coordinates": [ [ [ 127.108339723750206, 37.400492430869306 ], [ 127.1078067629077, 37.400491109115663 ], [ 127.107807317716208, 37.400748798520162 ], [ 127.108340089516318, 37.40075012044084 ], [ 127.108339723750206, 37.400492430869306 ] ] ] } },
{ "type": "Feature", "properties": { "zoneCode": "41135MX2001001", "zoneName": "성남판교지구 택지개발사업", "blockName": "지원", "blockType": "도시지원시설용지", "lotName": "지원", "analysis_category": "제1판교테크노밸리 후보: 도시지원시설용지", "parcel_id": "지원", "area_sqm": 6455.008566294925 }, "geometry": { "type": "Polygon", "coordinates": [ [ [ 127.10185755877481, 37.399959483144045 ], [ 127.101821983171007, 37.399959423225901 ], [ 127.101687663259952, 37.399932056168858 ], [ 127.101385778542749, 37.399931230304873 ], [ 127.101299118729344, 37.399989058449059 ], [ 127.101287108528879, 37.400045021539427 ], [ 127.101275760413714, 37.400089270890419 ], [ 127.101265190792972, 37.400124419344237 ], [ 127.101252474616416, 37.400159028999262 ], [ 127.101234461187786, 37.400201842345147 ], [ 127.101216108803271, 37.400244565872455 ], [ 127.101197417344252, 37.400287109479798 ], [ 127.101159469550282, 37.400372107059177 ], [ 127.101140100514527, 37.400414741328781 ], [ 127.101120166286606, 37.400457015665616 ], [ 127.101099441344502, 37.40049920056331 ], [ 127.101078490143749, 37.400541115343529 ], [ 127.101031290259343, 37.400633058473517 ], [ 127.101009321936615, 37.400674523589736 ], [ 127.10098701489153, 37.400716079988833 ], [ 127.100963916887906, 37.400757364942436 ], [ 127.100942617793905, 37.400792522386865 ], [ 127.10099193995444, 37.400853479529545 ], [ 127.101858641245627, 37.400856081882743 ], [ 127.10185755877481, 37.399959483144045 ] ] ] } },
{ "type": "Feature", "properties": { "zoneCode": "41135MX2001001", "zoneName": "성남판교지구 택지개발사업", "blockName": "지원", "blockType": "도시지원시설용지", "lotName": "지원", "analysis_category": "제1판교테크노밸리 후보: 도시지원시설용지", "parcel_id": "지원", "area_sqm": 13294.395622807042 }, "geometry": { "type": "Polygon", "coordinates": [ [ [ 127.101857804985968, 37.400991233737976 ], [ 127.100877823373381, 37.400988457219981 ], [ 127.100800848259311, 37.401026184246888 ], [ 127.100765233951577, 37.401082797801052 ], [ 127.10073931067636, 37.401122914663169 ], [ 127.100713048315839, 37.401162851600908 ], [ 127.100685881933913, 37.401202428885476 ], [ 127.100658263406586, 37.401241736238504 ], [ 127.100630531910681, 37.401281043679482 ], [ 127.100602235329617, 37.401320081283174 ], [ 127.100573712602113, 37.401358938866615 ], [ 127.100544398789438, 37.401397436700037 ], [ 127.100489493009192, 37.401470554870762 ], [ 127.100441235210283, 37.401531954277303 ], [ 127.100410791383482, 37.40157009261646 ], [ 127.100379669410358, 37.401607871109164 ], [ 127.100342457251259, 37.401652232082483 ], [ 127.100362314281568, 37.401722584642087 ], [ 127.100424131091458, 37.401751636588635 ], [ 127.10047351521871, 37.401773669200473 ], [ 127.100563015302029, 37.401812338747739 ], [ 127.100613301495017, 37.401833199227873 ], [ 127.100663587004405, 37.401853519979888 ], [ 127.100714098066405, 37.401873570217248 ], [ 127.100764947384519, 37.401893169642193 ], [ 127.100816135195032, 37.401912498457037 ], [ 127.100867435378476, 37.401931376648264 ], [ 127.100919073933923, 37.401949894127455 ], [ 127.100970711801324, 37.401967870976499 ], [ 127.101033083385559, 37.401989082418211 ], [ 127.101085397762503, 37.402006158535208 ], [ 127.101137824743248, 37.402022962427957 ], [ 127.101190702559649, 37.402039046007694 ], [ 127.101243692622404, 37.402054588860878 ], [ 127.101296908111962, 37.402069771094666 ], [ 127.101396672272955, 37.402097618284273 ], [ 127.101450112988132, 37.402112259650636 ], [ 127.101503891711474, 37.402126270898641 ], [ 127.101557782555361, 37.402139649515789 ], [ 127.101611898343691, 37.402152308008198 ], [ 127.101666352494135, 37.402164605783803 ], [ 127.101720919243903, 37.402176633134772 ], [ 127.101775598471747, 37.402188299959889 ], [ 127.101830164295365, 37.40219960645053 ], [ 127.101859310866885, 37.402205348206181 ], [ 127.101857804985968, 37.400991233737976 ] ] ] } },
{ "type": "Feature", "properties": { "zoneCode": "41135MX2001001", "zoneName": "성남판교지구 택지개발사업", "blockName": "지원", "blockType": "도시지원시설용지", "lotName": "지원", "analysis_category": "제1판교테크노밸리 후보: 도시지원시설용지", "parcel_id": "지원", "area_sqm": 2541.6861746746063 }, "geometry": { "type": "Polygon", "coordinates": [ [ [ 127.099833674487385, 37.406158983636686 ], [ 127.099863697404089, 37.406142830538549 ], [ 127.099923969563548, 37.406110884536027 ], [ 127.099954443640229, 37.406094280532777 ], [ 127.100221927114944, 37.405940434848233 ], [ 127.099841874445843, 37.405519347757817 ], [ 127.099436360911071, 37.405752415917277 ], [ 127.09981346938774, 37.406168551171938 ], [ 127.099833674487385, 37.406158983636686 ] ] ] } },
{ "type": "Feature", "properties": { "zoneCode": "41135MX2001001", "zoneName": "성남판교지구 택지개발사업", "blockName": "지원", "blockType": "도시지원시설용지", "lotName": "지원", "analysis_category": "제1판교테크노밸리 후보: 도시지원시설용지", "parcel_id": "지원", "area_sqm": 1599.8167561168164 }, "geometry": { "type": "Polygon", "coordinates": [ [ [ 127.108338879677888, 37.399977322097897 ], [ 127.108275110023101, 37.399926202108396 ], [ 127.107805624839258, 37.399925183426788 ], [ 127.107806257925162, 37.40023350975644 ], [ 127.10833935811705, 37.400234831387557 ], [ 127.108338879677888, 37.399977322097897 ] ] ] } },
{ "type": "Feature", "properties": { "zoneCode": "41135MX2001001", "zoneName": "성남판교지구 택지개발사업", "blockName": "지원", "blockType": "도시지원시설용지", "lotName": "지원", "analysis_category": "제1판교테크노밸리 후보: 도시지원시설용지", "parcel_id": "지원", "area_sqm": 1500.9450618871656 }, "geometry": { "type": "Polygon", "coordinates": [ [ [ 127.108971301214311, 37.399954674250075 ], [ 127.108572515428619, 37.399953864649518 ], [ 127.108508325814995, 37.400004649820424 ], [ 127.108508840058292, 37.400286936952121 ], [ 127.108971890393235, 37.400288228992075 ], [ 127.108971301214311, 37.399954674250075 ] ] ] } },
{ "type": "Feature", "properties": { "zoneCode": "41135MX2001001", "zoneName": "성남판교지구 택지개발사업", "blockName": "지원", "blockType": "도시지원시설용지", "lotName": "지원", "analysis_category": "제1판교테크노밸리 후보: 도시지원시설용지", "parcel_id": "지원", "area_sqm": 1545.0713061383751 }, "geometry": { "type": "Polygon", "coordinates": [ [ [ 127.109450638028733, 37.400288693979306 ], [ 127.109450138472013, 37.400019111134228 ], [ 127.109370312751125, 37.39995539219845 ], [ 127.108971301214311, 37.399954674250075 ], [ 127.108971890393235, 37.400288228992075 ], [ 127.109450864939575, 37.400289414583185 ], [ 127.109450638028733, 37.400288693979306 ] ] ] } },
{ "type": "Feature", "properties": { "zoneCode": "41135MX2001001", "zoneName": "성남판교지구 택지개발사업", "blockName": "지원", "blockType": "도시지원시설용지", "lotName": "지원", "analysis_category": "제1판교테크노밸리 후보: 도시지원시설용지", "parcel_id": "지원", "area_sqm": 8509.945133207817 }, "geometry": { "type": "Polygon", "coordinates": [ [ [ 127.103608237073914, 37.400809532665455 ], [ 127.103607122636532, 37.399987989324636 ], [ 127.103543243364825, 37.399936956977584 ], [ 127.103212333550758, 37.399936160816836 ], [ 127.103076279002792, 37.399962767554932 ], [ 127.102726960055847, 37.399961895744454 ], [ 127.102646972338178, 37.40002548565262 ], [ 127.102647910325757, 37.400807564756391 ], [ 127.102711902428567, 37.400858417280226 ], [ 127.103544382437605, 37.400860495050495 ], [ 127.103608237073914, 37.400809532665455 ] ] ] } },
{ "type": "Feature", "properties": { "zoneCode": "41135MX2001001", "zoneName": "성남판교지구 택지개발사업", "blockName": "지원", "blockType": "도시지원시설용지", "lotName": "지원", "analysis_category": "제1판교테크노밸리 후보: 도시지원시설용지", "parcel_id": "지원", "area_sqm": 1332.8907487626923 }, "geometry": { "type": "Polygon", "coordinates": [ [ [ 127.108971890393235, 37.400288228992075 ], [ 127.108508840058292, 37.400286936952121 ], [ 127.108509256614269, 37.400579947122104 ], [ 127.108972308493435, 37.400581058054108 ], [ 127.108971890393235, 37.400288228992075 ] ] ] } },
{ "type": "Feature", "properties": { "zoneCode": "41135MX2001001", "zoneName": "성남판교지구 택지개발사업", "blockName": "지원", "blockType": "도시지원시설용지", "lotName": "지원", "analysis_category": "제1판교테크노밸리 후보: 도시지원시설용지", "parcel_id": "지원", "area_sqm": 1456.0073287182965 }, "geometry": { "type": "Polygon", "coordinates": [ [ [ 127.109484800686801, 37.400405884670391 ], [ 127.109450864939575, 37.400289414583185 ], [ 127.108971890393235, 37.400288228992075 ], [ 127.108972308493435, 37.400581058054108 ], [ 127.109484940840133, 37.400582303015966 ], [ 127.109484800686801, 37.400405884670391 ] ] ] } },
{ "type": "Feature", "properties": { "zoneCode": "41135MX2001001", "zoneName": "성남판교지구 택지개발사업", "blockName": "지원", "blockType": "도시지원시설용지", "lotName": "지원", "analysis_category": "제1판교테크노밸리 후보: 도시지원시설용지", "parcel_id": "지원", "area_sqm": 1819.0117529448944 }, "geometry": { "type": "Polygon", "coordinates": [ [ [ 127.101225241408827, 37.402193540697354 ], [ 127.101187843366759, 37.402182669964375 ], [ 127.101124231966381, 37.402163531980428 ], [ 127.101058812107297, 37.402143314268493 ], [ 127.100995876991846, 37.402123094429882 ], [ 127.100933166959251, 37.402102243659016 ], [ 127.100894862381409, 37.402089030960227 ], [ 127.100649022311472, 37.402542987688719 ], [ 127.100718626011144, 37.402566806169396 ], [ 127.100770940955783, 37.402584061724859 ], [ 127.10082336827071, 37.402600866655973 ], [ 127.10087602113731, 37.40261740107016 ], [ 127.100928786611334, 37.402633665062218 ], [ 127.100982003399835, 37.402649568245671 ], [ 127.101014091221813, 37.402658821687275 ], [ 127.101225241408827, 37.402193540697354 ] ] ] } },
{ "type": "Feature", "properties": { "zoneCode": "41135MX2001001", "zoneName": "성남판교지구 택지개발사업", "blockName": "지원", "blockType": "도시지원시설용지", "lotName": "지원", "analysis_category": "제1판교테크노밸리 후보: 도시지원시설용지", "parcel_id": "지원", "area_sqm": 5179.143229759271 }, "geometry": { "type": "Polygon", "coordinates": [ [ [ 127.103608817899428, 37.401320947489147 ], [ 127.103608489717004, 37.400995771965775 ], [ 127.102711971219762, 37.400993569267044 ], [ 127.102648002880102, 37.401044531264134 ], [ 127.102648788173838, 37.401544863434381 ], [ 127.10360810603305, 37.401545480681285 ], [ 127.103608817899428, 37.401320947489147 ] ] ] } },
{ "type": "Feature", "properties": { "zoneCode": "41135MX2001001", "zoneName": "성남판교지구 택지개발사업", "blockName": "지원", "blockType": "도시지원시설용지", "lotName": "지원", "analysis_category": "제1판교테크노밸리 후보: 도시지원시설용지", "parcel_id": "지원", "area_sqm": 1459.0074315690724 }, "geometry": { "type": "Polygon", "coordinates": [ [ [ 127.109485061641095, 37.40082395475924 ], [ 127.109484940840133, 37.400582303015966 ], [ 127.108972308493435, 37.400581058054108 ], [ 127.108972726727472, 37.400873977202679 ], [ 127.109421324048071, 37.400875010309569 ], [ 127.109485061641095, 37.40082395475924 ] ] ] } },
{ "type": "Feature", "properties": { "zoneCode": "41135MX2001001", "zoneName": "성남판교지구 택지개발사업", "blockName": "지원", "blockType": "도시지원시설용지", "lotName": "지원", "analysis_category": "제1판교테크노밸리 후보: 도시지원시설용지", "parcel_id": "지원", "area_sqm": 10563.109669728608 }, "geometry": { "type": "Polygon", "coordinates": [ [ [ 127.111043159281166, 37.399959891342682 ], [ 127.109959288102445, 37.39995737636152 ], [ 127.109879306512198, 37.400020971152536 ], [ 127.109880178842829, 37.400469945474683 ], [ 127.109846347294777, 37.400583233889222 ], [ 127.109846469515091, 37.400825065832713 ], [ 127.109910353808374, 37.400876095660351 ], [ 127.111039527436489, 37.400878928633738 ], [ 127.111043159281166, 37.399959891342682 ] ] ] } },
{ "type": "Feature", "properties": { "zoneCode": "41135MX2001001", "zoneName": "성남판교지구 택지개발사업", "blockName": "지원", "blockType": "도시지원시설용지", "lotName": "지원", "analysis_category": "제1판교테크노밸리 후보: 도시지원시설용지", "parcel_id": "지원", "area_sqm": 13881.763908013632 }, "geometry": { "type": "Polygon", "coordinates": [ [ [ 127.102566594431877, 37.404592881529112 ], [ 127.102605303578585, 37.404569782506812 ], [ 127.102643672775841, 37.404545872850868 ], [ 127.102681815817718, 37.40452178317323 ], [ 127.102757083020606, 37.404471892728296 ], [ 127.102793531088878, 37.404447263857811 ], [ 127.102831106397318, 37.404421012186553 ], [ 127.102866537428923, 37.404396023759467 ], [ 127.102902982997222, 37.40436959283084 ], [ 127.10297293579562, 37.404315472042455 ], [ 127.103040854764217, 37.404260812350593 ], [ 127.103074925939666, 37.404232581380924 ], [ 127.103107868132199, 37.404204711776522 ], [ 127.103141147794844, 37.404175850758293 ], [ 127.103173072100049, 37.404146990895761 ], [ 127.10321221458598, 37.4041105563063 ], [ 127.10323658034244, 37.404088190221742 ], [ 127.103329968824752, 37.403992512349937 ], [ 127.103359857059729, 37.403961491757777 ], [ 127.103388841108981, 37.403930021430384 ], [ 127.103417260536517, 37.403898641683611 ], [ 127.103445227797906, 37.403866992015573 ], [ 127.103472291485318, 37.403835343120136 ], [ 127.103499692638323, 37.40380270281247 ], [ 127.10352596432962, 37.403770063472919 ], [ 127.103545244116887, 37.403745268975463 ], [ 127.10355167127976, 37.403737424614647 ], [ 127.103602066910042, 37.403670886341509 ], [ 127.103650315423053, 37.403603538988932 ], [ 127.103673873768315, 37.403569009831166 ], [ 127.103697205715704, 37.403534120459042 ], [ 127.103719407718955, 37.40349887165349 ], [ 127.10374262570069, 37.403463261559892 ], [ 127.103766178083845, 37.403424407524646 ], [ 127.103783528607863, 37.403392947157279 ], [ 127.103792991099041, 37.403374738505114 ], [ 127.103199020569448, 37.403373448752674 ], [ 127.103090743468002, 37.403399761301287 ], [ 127.103034157586634, 37.403398818782136 ], [ 127.102977457912957, 37.40339724562422 ], [ 127.102920983764065, 37.4033954019418 ], [ 127.102864396189361, 37.403393197924338 ], [ 127.102807695189782, 37.403390633571568 ], [ 127.102714849708491, 37.403386117902329 ], [ 127.102625585618895, 37.403441246175397 ], [ 127.102608284710627, 37.403510008278722 ], [ 127.102600978854355, 37.403536414212617 ], [ 127.102592769323437, 37.403562730817029 ], [ 127.102583656120586, 37.403588958992898 ], [ 127.102573865004118, 37.403615005742694 ], [ 127.102563621867077, 37.403640873576201 ], [ 127.102553152593501, 37.403666561399241 ], [ 127.102541892586927, 37.403692159795526 ], [ 127.102529954547236, 37.403717488465887 ], [ 127.102517451901107, 37.403742907718708 ], [ 127.102504045092587, 37.403767877235587 ], [ 127.102490299323634, 37.403792756939012 ], [ 127.102475649631216, 37.403817367108573 ], [ 127.102460773437585, 37.403841526963042 ], [ 127.102429100853811, 37.40388975820332 ], [ 127.102412530109646, 37.403913649193697 ], [ 127.102394942011756, 37.403936910340356 ], [ 127.10235840985311, 37.403982983275355 ], [ 127.102339917445477, 37.404005704576811 ], [ 127.102320747121524, 37.404028246250576 ], [ 127.102300672387244, 37.404050157982908 ], [ 127.10228014526048, 37.404071619590717 ], [ 127.102258940216473, 37.404092901569797 ], [ 127.102237508788903, 37.404113823332636 ], [ 127.102216301791088, 37.40413366368464 ], [ 127.102193966063695, 37.40415404650259 ], [ 127.102171178303152, 37.40417424769651 ], [ 127.102148164160852, 37.404194089574517 ], [ 127.102124471736644, 37.404213481518354 ], [ 127.102100214217316, 37.404232603634142 ], [ 127.102075504186047, 37.404251185522021 ], [ 127.102050115993194, 37.404269407575924 ], [ 127.102024614482374, 37.404287359416827 ], [ 127.101998886468522, 37.40430486093787 ], [ 127.101972367349731, 37.404322002720264 ], [ 127.101945621608465, 37.404338604081282 ], [ 127.101918310771168, 37.404354935612069 ], [ 127.101890886616786, 37.404370996928812 ], [ 127.101572849960789, 37.40455282061955 ], [ 127.101936278679446, 37.404954634653713 ], [ 127.102566594431877, 37.404592881529112 ] ] ] } },
{ "type": "Feature", "properties": { "zoneCode": "41135MX2001001", "zoneName": "성남판교지구 택지개발사업", "blockName": "지원", "blockType": "도시지원시설용지", "lotName": "지원", "analysis_category": "제1판교테크노밸리 후보: 도시지원시설용지", "parcel_id": "지원", "area_sqm": 7459.9762305560207 }, "geometry": { "type": "Polygon", "coordinates": [ [ [ 127.099572969676416, 37.404495299449174 ], [ 127.099022138276993, 37.403886129458833 ], [ 127.098932001776816, 37.403880617471408 ], [ 127.098245558741979, 37.404431880265498 ], [ 127.098736668498319, 37.404976049796154 ], [ 127.099572969676416, 37.404495299449174 ] ] ] } },
{ "type": "Feature", "properties": { "zoneCode": "41135MX2001001", "zoneName": "성남판교지구 택지개발사업", "blockName": "지원", "blockType": "도시지원시설용지", "lotName": "지원", "analysis_category": "제1판교테크노밸리 후보: 도시지원시설용지", "parcel_id": "지원", "area_sqm": 8627.275317069314 }, "geometry": { "type": "Polygon", "coordinates": [ [ [ 127.101349433259713, 37.404459123899372 ], [ 127.100830595357294, 37.403883633214868 ], [ 127.099822310016592, 37.404463016344359 ], [ 127.100294880960163, 37.404986381404591 ], [ 127.100406377323566, 37.405000794518024 ], [ 127.101349433259713, 37.404459123899372 ] ] ] } },
{ "type": "Feature", "properties": { "zoneCode": "41135MX2001001", "zoneName": "성남판교지구 택지개발사업", "blockName": "지원", "blockType": "도시지원시설용지", "lotName": "지원", "analysis_category": "제1판교테크노밸리 후보: 도시지원시설용지", "parcel_id": "지원", "area_sqm": 4209.8974994453456 }, "geometry": { "type": "Polygon", "coordinates": [ [ [ 127.097701033803247, 37.404677858650004 ], [ 127.098063884366212, 37.404385896874416 ], [ 127.09768272080629, 37.403963722412577 ], [ 127.097297710504904, 37.404331558190513 ], [ 127.09726565703096, 37.404438264107277 ], [ 127.097253982789596, 37.404761196659415 ], [ 127.097291568035189, 37.405007322991501 ], [ 127.097701033803247, 37.404677858650004 ] ] ] } },
{ "type": "Feature", "properties": { "zoneCode": "41135MX2001001", "zoneName": "성남판교지구 택지개발사업", "blockName": "지원", "blockType": "도시지원시설용지", "lotName": "지원", "analysis_category": "제1판교테크노밸리 후보: 도시지원시설용지", "parcel_id": "지원", "area_sqm": 9116.8426742265656 }, "geometry": { "type": "Polygon", "coordinates": [ [ [ 127.104460441702443, 37.401773689244429 ], [ 127.10264908954602, 37.401769125443288 ], [ 127.102649870143381, 37.402265943603403 ], [ 127.10271104285944, 37.40231896185896 ], [ 127.102766840969494, 37.402322607347145 ], [ 127.102823090609647, 37.40232607312057 ], [ 127.102879565410731, 37.402328998066167 ], [ 127.102935926787836, 37.402331562676693 ], [ 127.102992400502885, 37.402333676657143 ], [ 127.103048986191098, 37.402335069703874 ], [ 127.103105684335802, 37.402336102221462 ], [ 127.103162268811332, 37.402336595102582 ], [ 127.103592579501395, 37.402338566146938 ], [ 127.103605339825663, 37.402337023407974 ], [ 127.103616065610453, 37.402334311106884 ], [ 127.103626338284101, 37.402330608081257 ], [ 127.103636045514989, 37.402326364935121 ], [ 127.103645186691381, 37.402321131162381 ], [ 127.103653423355865, 37.402315177359419 ], [ 127.103661433402408, 37.402308683143715 ], [ 127.103669895824325, 37.402302639043221 ], [ 127.103678810623464, 37.402297045057921 ], [ 127.103688290740493, 37.402291901090308 ], [ 127.103698223479029, 37.402287387440246 ], [ 127.103708382710764, 37.402283324100168 ], [ 127.103718881500242, 37.402279801073874 ], [ 127.103729719969664, 37.402276908462312 ], [ 127.10374078493318, 37.402274466160762 ], [ 127.103751963695245, 37.40227265446903 ], [ 127.103763256254084, 37.402271473387458 ], [ 127.103774662611514, 37.402270922915676 ], [ 127.103786069826825, 37.402271003151498 ], [ 127.103797364711383, 37.402271533989975 ], [ 127.103808660699116, 37.402272875738653 ], [ 127.103819844359677, 37.40227466899097 ], [ 127.103830803114448, 37.402277181445641 ], [ 127.103841649665142, 37.402280235505529 ], [ 127.10385215825076, 37.40228392056629 ], [ 127.103862215682682, 37.402288056523304 ], [ 127.103872047968053, 37.40229273328233 ], [ 127.103881429224572, 37.402297951039195 ], [ 127.103890697785658, 37.402303349095369 ], [ 127.103906527501437, 37.402316490185065 ], [ 127.103913765324691, 37.402323511822239 ], [ 127.103920438931397, 37.402330894352716 ], [ 127.103926435626079, 37.402338818077283 ], [ 127.104183604646508, 37.4023393158771 ], [ 127.104460441702443, 37.401773689244429 ] ] ] } },
{ "type": "Feature", "properties": { "zoneCode": "41135MX2001001", "zoneName": "성남판교지구 택지개발사업", "blockName": "지원", "blockType": "도시지원시설용지", "lotName": "지원", "analysis_category": "제1판교테크노밸리 후보: 도시지원시설용지", "parcel_id": "지원", "area_sqm": 10784.823229582489 }, "geometry": { "type": "Polygon", "coordinates": [ [ [ 127.107639739027434, 37.401781690768154 ], [ 127.105832904230027, 37.401777171683186 ], [ 127.105829410435732, 37.401782490744992 ], [ 127.10582028521074, 37.401799077442782 ], [ 127.105627177853279, 37.402222904149482 ], [ 127.105623801452637, 37.402231467650758 ], [ 127.105618743391403, 37.402249040964598 ], [ 127.105615492766589, 37.402266883891919 ], [ 127.105605095636747, 37.402343839589591 ], [ 127.106374796198523, 37.402345682366224 ], [ 127.10764008633592, 37.402348337800746 ], [ 127.107639739027434, 37.401781690768154 ] ] ] } },
{ "type": "Feature", "properties": { "zoneCode": "41135MX2001001", "zoneName": "성남판교지구 택지개발사업", "blockName": "지원", "blockType": "도시지원시설용지", "lotName": "지원", "analysis_category": "제1판교테크노밸리 후보: 도시지원시설용지", "parcel_id": "지원", "area_sqm": 9329.0241160987553 }, "geometry": { "type": "Polygon", "coordinates": [ [ [ 127.109487407498918, 37.402301614741354 ], [ 127.109486555133358, 37.401786235845414 ], [ 127.107809150162609, 37.401781538602521 ], [ 127.107809499510225, 37.402348726239993 ], [ 127.109423442646516, 37.402352580386975 ], [ 127.109487407498918, 37.402301614741354 ] ] ] } },
{ "type": "Feature", "properties": { "zoneCode": "41135MX2001001", "zoneName": "성남판교지구 택지개발사업", "blockName": "지원", "blockType": "도시지원시설용지", "lotName": "지원", "analysis_category": "제1판교테크노밸리 후보: 도시지원시설용지", "parcel_id": "지원", "area_sqm": 3100.1372841098591 }, "geometry": { "type": "Polygon", "coordinates": [ [ [ 127.107556470545617, 37.403042102979406 ], [ 127.107641064589558, 37.403042027085924 ], [ 127.10764016398447, 37.402483489737044 ], [ 127.107092393922244, 37.402482358265907 ], [ 127.107093328383939, 37.403067925989632 ], [ 127.107330622114006, 37.403068524789433 ], [ 127.107556470545617, 37.403042102979406 ] ] ] } },
{ "type": "Feature", "properties": { "zoneCode": "41135MX2001001", "zoneName": "성남판교지구 택지개발사업", "blockName": "지원", "blockType": "도시지원시설용지", "lotName": "지원", "analysis_category": "제1판교테크노밸리 후보: 도시지원시설용지", "parcel_id": "지원", "area_sqm": 2770.2409204561523 }, "geometry": { "type": "Polygon", "coordinates": [ [ [ 127.098512940048579, 37.404025394394878 ], [ 127.098099540756408, 37.403567297261077 ], [ 127.097934729721359, 37.403723036756141 ], [ 127.097757398512243, 37.403892301407318 ], [ 127.09814466969803, 37.404321138139764 ], [ 127.098512940048579, 37.404025394394878 ] ] ] } },
{ "type": "Feature", "properties": { "zoneCode": "41135MX2001001", "zoneName": "성남판교지구 택지개발사업", "blockName": "지원", "blockType": "도시지원시설용지", "lotName": "지원", "analysis_category": "제1판교테크노밸리 후보: 도시지원시설용지", "parcel_id": "지원", "area_sqm": 9928.6895016934941 }, "geometry": { "type": "Polygon", "coordinates": [ [ [ 127.100764088185485, 37.403810797088795 ], [ 127.100847893726041, 37.403640525318842 ], [ 127.099734718292723, 37.403292582880148 ], [ 127.099646303268287, 37.403307523008245 ], [ 127.099184846834788, 37.40367831162505 ], [ 127.099177711639555, 37.40375012827333 ], [ 127.099756254732441, 37.404389908978743 ], [ 127.100764088185485, 37.403810797088795 ] ] ] } },
{ "type": "Feature", "properties": { "zoneCode": "41135MX2001001", "zoneName": "성남판교지구 택지개발사업", "blockName": "지원", "blockType": "도시지원시설용지", "lotName": "지원", "analysis_category": "제1판교테크노밸리 후보: 도시지원시설용지", "parcel_id": "지원", "area_sqm": 2245.9988575302896 }, "geometry": { "type": "Polygon", "coordinates": [ [ [ 127.100573159859721, 37.401968655192 ], [ 127.100504228597572, 37.401940421093727 ], [ 127.10044433645605, 37.401915062636228 ], [ 127.100384669525738, 37.401889163351889 ], [ 127.100325905099552, 37.401862452371063 ], [ 127.100262166823811, 37.40183232166315 ], [ 127.100173866798073, 37.401847442294944 ], [ 127.100143528800913, 37.401880354596827 ], [ 127.100097290176691, 37.401931660823642 ], [ 127.100000178614991, 37.402031574041239 ], [ 127.099951113911587, 37.402081080536341 ], [ 127.09990182302765, 37.402130407897474 ], [ 127.099882084795951, 37.402150696221106 ], [ 127.099903433445533, 37.402239158882551 ], [ 127.099959034828146, 37.402265241094632 ], [ 127.100008081042432, 37.40228781568927 ], [ 127.100057352932396, 37.402310209872731 ], [ 127.100106962850305, 37.402331973044248 ], [ 127.100156798326211, 37.402353465702639 ], [ 127.100206746417598, 37.402374687941915 ], [ 127.100293193156887, 37.402409935485565 ], [ 127.100573159859721, 37.401968655192 ] ] ] } },
{ "type": "Feature", "properties": { "zoneCode": "41135MX2001001", "zoneName": "성남판교지구 택지개발사업", "blockName": "지원", "blockType": "도시지원시설용지", "lotName": "지원", "analysis_category": "제1판교테크노밸리 후보: 도시지원시설용지", "parcel_id": "지원", "area_sqm": 2898.9200826552069 }, "geometry": { "type": "Polygon", "coordinates": [ [ [ 127.105843394125287, 37.40396698519303 ], [ 127.105873759579453, 37.403955065023645 ], [ 127.105904577675034, 37.403943775156044 ], [ 127.105936301063025, 37.403933745899472 ], [ 127.10596825195654, 37.403924887750399 ], [ 127.106000655869607, 37.403916930205689 ], [ 127.106033400359109, 37.403910233769317 ], [ 127.10606682413578, 37.403904708941447 ], [ 127.106099120594166, 37.403900715021493 ], [ 127.106132660186134, 37.40389726240285 ], [ 127.106166540108447, 37.40389488888723 ], [ 127.106312464046695, 37.403895029951734 ], [ 127.106376319375627, 37.403844066097356 ], [ 127.106375632530899, 37.403432213575023 ], [ 127.106311861400215, 37.403381182660461 ], [ 127.10581615160666, 37.403379999130564 ], [ 127.105816981329284, 37.40397863156398 ], [ 127.105843394125287, 37.40396698519303 ] ] ] } },
{ "type": "Feature", "properties": { "zoneCode": "41135MX2001001", "zoneName": "성남판교지구 택지개발사업", "blockName": "지원", "blockType": "도시지원시설용지", "lotName": "지원", "analysis_category": "제1판교테크노밸리 후보: 도시지원시설용지", "parcel_id": "지원", "area_sqm": 2937.4299000688652 }, "geometry": { "type": "Polygon", "coordinates": [ [ [ 127.098839574391249, 37.403763021256317 ], [ 127.09884659685062, 37.403691114619825 ], [ 127.098441792989405, 37.403242292018277 ], [ 127.098099540756408, 37.403567297261077 ], [ 127.098512940048579, 37.404025394394878 ], [ 127.098839574391249, 37.403763021256317 ] ] ] } },
{ "type": "Feature", "properties": { "zoneCode": "41135MX2001001", "zoneName": "성남판교지구 택지개발사업", "blockName": "지원", "blockType": "도시지원시설용지", "lotName": "지원", "analysis_category": "제1판교테크노밸리 후보: 도시지원시설용지", "parcel_id": "지원", "area_sqm": 5852.3439318350138 }, "geometry": { "type": "Polygon", "coordinates": [ [ [ 127.110765809108429, 37.403945510476362 ], [ 127.110794018309505, 37.403849256207984 ], [ 127.110817948533978, 37.403761925916804 ], [ 127.11084074900657, 37.403674416461534 ], [ 127.110862758297884, 37.40358654732691 ], [ 127.1108731978794, 37.403542388026978 ], [ 127.110883298750252, 37.403498319140255 ], [ 127.110892947705622, 37.403454160569162 ], [ 127.110902031803064, 37.403409912418205 ], [ 127.11091043823032, 37.403365664893137 ], [ 127.110376553608873, 37.403364445691494 ], [ 127.110239817889081, 37.403391151387027 ], [ 127.109862924864331, 37.403390326018176 ], [ 127.109782487259594, 37.403453560721374 ], [ 127.109783288063667, 37.403853159327745 ], [ 127.109847174759054, 37.403904098157042 ], [ 127.109874168619513, 37.403904253625633 ], [ 127.109919347750875, 37.403905293430476 ], [ 127.109964753549676, 37.403906873618219 ], [ 127.110009933982724, 37.40390881440041 ], [ 127.110055228142485, 37.403911295668827 ], [ 127.11010041014039, 37.403914317630786 ], [ 127.110145367554964, 37.403918240795036 ], [ 127.110190325624444, 37.403922614448014 ], [ 127.110235284611065, 37.403927618792309 ], [ 127.110280018626341, 37.403933254035607 ], [ 127.110324866374583, 37.403939429765174 ], [ 127.110369376209889, 37.403946236498037 ], [ 127.110413773501577, 37.403953313621635 ], [ 127.110458171714882, 37.40396102233791 ], [ 127.110502344699, 37.403969179949598 ], [ 127.110546292720727, 37.403977969362408 ], [ 127.110590015778271, 37.403987389675635 ], [ 127.110633626685626, 37.403997350683895 ], [ 127.110677125184097, 37.404007672185159 ], [ 127.110709552165886, 37.404015931565084 ], [ 127.110732149746781, 37.404021947482534 ], [ 127.110740624348082, 37.404024552592666 ], [ 127.110765809108429, 37.403945510476362 ] ] ] } },
{ "type": "Feature", "properties": { "zoneCode": "41135MX2001001", "zoneName": "성남판교지구 택지개발사업", "blockName": "지원", "blockType": "도시지원시설용지", "lotName": "지원", "analysis_category": "제1판교테크노밸리 후보: 도시지원시설용지", "parcel_id": "지원", "area_sqm": 4002.6721832026901 }, "geometry": { "type": "Polygon", "coordinates": [ [ [ 127.108996264779805, 37.399720387984971 ], [ 127.109369412351739, 37.399721129443222 ], [ 127.109450298589522, 37.39965825497908 ], [ 127.109448975933446, 37.399208470088631 ], [ 127.109482476542141, 37.39910067824794 ], [ 127.109482255034678, 37.399024993284868 ], [ 127.10886833159401, 37.399025552231663 ], [ 127.108869132832822, 37.399745641756518 ], [ 127.108996264779805, 37.399720387984971 ] ] ] } },
{ "type": "Feature", "properties": { "zoneCode": "41135MX2001001", "zoneName": "성남판교지구 택지개발사업", "blockName": "지원", "blockType": "도시지원시설용지", "lotName": "지원", "analysis_category": "제1판교테크노밸리 후보: 도시지원시설용지", "parcel_id": "지원", "area_sqm": 3767.3542862082136 }, "geometry": { "type": "Polygon", "coordinates": [ [ [ 127.108337416640296, 37.39902609520319 ], [ 127.107804355828776, 37.399026603481417 ], [ 127.107805370345616, 37.399744980901907 ], [ 127.108338325776685, 37.399746212568793 ], [ 127.108337416640296, 37.39902609520319 ] ] ] } },
{ "type": "Feature", "properties": { "zoneCode": "41135MX2001001", "zoneName": "성남판교지구 택지개발사업", "blockName": "지원", "blockType": "도시지원시설용지", "lotName": "지원", "analysis_category": "제1판교테크노밸리 후보: 도시지원시설용지", "parcel_id": "지원", "area_sqm": 3761.1133741671033 }, "geometry": { "type": "Polygon", "coordinates": [ [ [ 127.108869132832822, 37.399745641756518 ], [ 127.10886833159401, 37.399025552231663 ], [ 127.108337416640296, 37.39902609520319 ], [ 127.108338325776685, 37.399746212568793 ], [ 127.108860439071378, 37.399747361575166 ], [ 127.108869132832822, 37.399745641756518 ] ] ] } },
{ "type": "Feature", "properties": { "zoneCode": "41135MX2001001", "zoneName": "성남판교지구 택지개발사업", "blockName": "지원", "blockType": "도시지원시설용지", "lotName": "지원", "analysis_category": "제1판교테크노밸리 후보: 도시지원시설용지", "parcel_id": "지원", "area_sqm": 6565.9780550675187 }, "geometry": { "type": "Polygon", "coordinates": [ [ [ 127.11102899317433, 37.402177118617914 ], [ 127.111032685190878, 37.401997813532304 ], [ 127.111035021377447, 37.401818150192547 ], [ 127.111035206216584, 37.401789947399557 ], [ 127.109847967239304, 37.401787076603256 ], [ 127.109848822340268, 37.402302635695101 ], [ 127.109912595078953, 37.402353754810484 ], [ 127.111023042704247, 37.402356696994531 ], [ 127.11102899317433, 37.402177118617914 ] ] ] } },
{ "type": "Feature", "properties": { "zoneCode": "41135MX2001001", "zoneName": "성남판교지구 택지개발사업", "blockName": "지원", "blockType": "도시지원시설용지", "lotName": "지원", "analysis_category": "제1판교테크노밸리 후보: 도시지원시설용지", "parcel_id": "지원", "area_sqm": 2996.0468747909104 }, "geometry": { "type": "Polygon", "coordinates": [ [ [ 127.108340632279337, 37.402485111528037 ], [ 127.107809577463328, 37.402483878175715 ], [ 127.107810479325167, 37.403042415521256 ], [ 127.107895299635885, 37.403042609546397 ], [ 127.108177695974362, 37.403070377562592 ], [ 127.108341576709634, 37.403070859429192 ], [ 127.108340632279337, 37.402485111528037 ] ] ] } },
{ "type": "Feature", "properties": { "zoneCode": "41135MX2001001", "zoneName": "성남판교지구 택지개발사업", "blockName": "지원", "blockType": "도시지원시설용지", "lotName": "지원", "analysis_category": "제1판교테크노밸리 후보: 도시지원시설용지", "parcel_id": "지원", "area_sqm": 6231.2430813351521 }, "geometry": { "type": "Polygon", "coordinates": [ [ [ 127.109037043020578, 37.403045901718677 ], [ 127.109374630146917, 37.403046675479878 ], [ 127.109454615373551, 37.40298308105745 ], [ 127.10945410915491, 37.402551406044772 ], [ 127.109374393552216, 37.402487596939089 ], [ 127.108340632279337, 37.402485111528037 ], [ 127.108341576709634, 37.403070859429192 ], [ 127.10890154938518, 37.40307233443464 ], [ 127.109037043020578, 37.403045901718677 ] ] ] } },
{ "type": "Feature", "properties": { "zoneCode": "41135MX2001001", "zoneName": "성남판교지구 택지개발사업", "blockName": "지원", "blockType": "도시지원시설용지", "lotName": "지원", "analysis_category": "제1판교테크노밸리 후보: 도시지원시설용지", "parcel_id": "지원", "area_sqm": 3073.3434213212408 }, "geometry": { "type": "Polygon", "coordinates": [ [ [ 127.11096508297274, 37.403041429766148 ], [ 127.110971116611523, 37.402996553721081 ], [ 127.110976698473209, 37.402951678093508 ], [ 127.110982054312473, 37.402906712573234 ], [ 127.110991749359556, 37.402816692371019 ], [ 127.110996201641825, 37.40277172768559 ], [ 127.111000315093094, 37.402726763313545 ], [ 127.111003863566935, 37.402681619261344 ], [ 127.111010721769333, 37.402582501446197 ], [ 127.11101657580258, 37.402491854084346 ], [ 127.110451750801545, 37.402490303461022 ], [ 127.110452446909676, 37.403049201368212 ], [ 127.110527215334699, 37.40304940276561 ], [ 127.110663802855825, 37.403076757668615 ], [ 127.110959940026987, 37.403077475056442 ], [ 127.11096508297274, 37.403041429766148 ] ] ] } },
{ "type": "Feature", "properties": { "zoneCode": "41135MX2001001", "zoneName": "성남판교지구 택지개발사업", "blockName": "지원", "blockType": "도시지원시설용지", "lotName": "지원", "analysis_category": "제1판교테크노밸리 후보: 도시지원시설용지", "parcel_id": "지원", "area_sqm": 6345.9150098565042 }, "geometry": { "type": "Polygon", "coordinates": [ [ [ 127.09879285026085, 37.405886657401304 ], [ 127.098297889684716, 37.405339157595954 ], [ 127.09752007244731, 37.405785836354795 ], [ 127.097560664123279, 37.405850183466285 ], [ 127.097647553070843, 37.405964180189329 ], [ 127.097714393947015, 37.406033864225641 ], [ 127.097724798681114, 37.406044487712194 ], [ 127.097759740159674, 37.406076355132328 ], [ 127.097841258165516, 37.406141161678377 ], [ 127.097885462462202, 37.406173832425964 ], [ 127.097926272140441, 37.406201640455286 ], [ 127.097969566230859, 37.406229086038664 ], [ 127.098004266521627, 37.406248880009869 ], [ 127.098050381465782, 37.406274070729275 ], [ 127.098082705506016, 37.406290442768494 ], [ 127.098087545839874, 37.406292612959369 ], [ 127.09879285026085, 37.405886657401304 ] ] ] } },
{ "type": "Feature", "properties": { "zoneCode": "41135MX2001001", "zoneName": "성남판교지구 택지개발사업", "blockName": "지원", "blockType": "도시지원시설용지", "lotName": "지원", "analysis_category": "제1판교테크노밸리 후보: 도시지원시설용지", "parcel_id": "지원", "area_sqm": 3774.8009573217996 }, "geometry": { "type": "Polygon", "coordinates": [ [ [ 127.102619126549641, 37.406367561809773 ], [ 127.102652779623099, 37.406363568573049 ], [ 127.102686656891777, 37.406358313717114 ], [ 127.1027195159309, 37.406351798304954 ], [ 127.102762873637289, 37.406341219336717 ], [ 127.102789067418612, 37.406333718498367 ], [ 127.102820453388617, 37.406323690369959 ], [ 127.102851386224145, 37.406312671507273 ], [ 127.102881413650451, 37.406300301893737 ], [ 127.102920581680834, 37.406281887647737 ], [ 127.102994167329143, 37.406240197724713 ], [ 127.103011545925526, 37.406228830046956 ], [ 127.10304517192553, 37.406204834237158 ], [ 127.103076875366469, 37.406179038043348 ], [ 127.103095939510467, 37.406161271714289 ], [ 127.102731819145589, 37.405758020305448 ], [ 127.102723464721876, 37.405760730495345 ], [ 127.102147520700342, 37.405993232884484 ], [ 127.102127879109403, 37.406001629018853 ], [ 127.102108351907276, 37.406011106268181 ], [ 127.1020513530964, 37.406040708868588 ], [ 127.102030359966776, 37.406051988475973 ], [ 127.102272538222422, 37.406319383167911 ], [ 127.10227987462774, 37.406315502561029 ], [ 127.102289695032852, 37.406310989127675 ], [ 127.102299967831385, 37.40630692581432 ], [ 127.102310467369165, 37.40630349301572 ], [ 127.102321193524944, 37.406300600630665 ], [ 127.10233225936787, 37.406298338663902 ], [ 127.102343438881803, 37.406296617207111 ], [ 127.102354506292301, 37.406295526553563 ], [ 127.102365913391736, 37.406295066318336 ], [ 127.102388955053911, 37.406295316967196 ], [ 127.1024109851421, 37.406299262627314 ], [ 127.102421944558927, 37.406301866212225 ], [ 127.102432678806736, 37.406305010595979 ], [ 127.102443074816392, 37.406308605773937 ], [ 127.102453245779159, 37.40631283185207 ], [ 127.102462852729346, 37.406317599018472 ], [ 127.102472121443128, 37.406322816979284 ], [ 127.102480826265577, 37.406328666129916 ], [ 127.102488966956784, 37.406334966268041 ], [ 127.102496769410735, 37.406341717200789 ], [ 127.10251079378223, 37.406355761022581 ], [ 127.102519159768264, 37.406361610459648 ], [ 127.102529104605352, 37.406365656521814 ], [ 127.102540289084274, 37.406367629194591 ], [ 127.102551472112452, 37.406368520652137 ], [ 127.102574062854458, 37.406369402359104 ], [ 127.102596878765524, 37.406369743261664 ], [ 127.102619126549641, 37.406367561809773 ] ] ] } },
{ "type": "Feature", "properties": { "zoneCode": "41135MX2001001", "zoneName": "성남판교지구 택지개발사업", "blockName": "지원", "blockType": "도시지원시설용지", "lotName": "지원", "analysis_category": "제1판교테크노밸리 후보: 도시지원시설용지", "parcel_id": "지원", "area_sqm": 2544.330987624091 }, "geometry": { "type": "Polygon", "coordinates": [ [ [ 127.100626874727254, 37.405707544679792 ], [ 127.100248178573509, 37.405288169667031 ], [ 127.100222104583423, 37.40530080561777 ], [ 127.099841874445843, 37.405519347757817 ], [ 127.100221927114944, 37.405940434848233 ], [ 127.100626874727254, 37.405707544679792 ] ] ] } },
{ "type": "Feature", "properties": { "zoneCode": "41135MX2001001", "zoneName": "성남판교지구 택지개발사업", "blockName": "지원", "blockType": "도시지원시설용지", "lotName": "지원", "analysis_category": "제1판교테크노밸리 후보: 도시지원시설용지", "parcel_id": "지원", "area_sqm": 1349.3184828359654 }, "geometry": { "type": "Polygon", "coordinates": [ [ [ 127.108340089516318, 37.40075012044084 ], [ 127.107807317716208, 37.400748798520162 ], [ 127.107807829868207, 37.401006668154494 ], [ 127.108340568098271, 37.401007719797981 ], [ 127.108340089516318, 37.40075012044084 ] ] ] } },
{ "type": "Feature", "properties": { "zoneCode": "41135MX2001001", "zoneName": "성남판교지구 택지개발사업", "blockName": "지원", "blockType": "도시지원시설용지", "lotName": "지원", "analysis_category": "제1판교테크노밸리 후보: 도시지원시설용지", "parcel_id": "지원", "area_sqm": 2072.8607983184288 }, "geometry": { "type": "Polygon", "coordinates": [ [ [ 127.102254990854163, 37.402408280397182 ], [ 127.102246405836468, 37.402407206494793 ], [ 127.102179531926552, 37.402397983006331 ], [ 127.102112770253029, 37.402388218776551 ], [ 127.102046120936294, 37.402378003906783 ], [ 127.101979922080659, 37.402366797501934 ], [ 127.101913609462386, 37.402354960447262 ], [ 127.101905927387179, 37.402353435246816 ], [ 127.101766973922778, 37.402835775502318 ], [ 127.101840742700773, 37.402848777629451 ], [ 127.101951789710697, 37.402867154132522 ], [ 127.102007481988437, 37.402875846644264 ], [ 127.10206306085388, 37.402884178820763 ], [ 127.102118864774255, 37.402891880070392 ], [ 127.102255210063774, 37.402909513950931 ], [ 127.102254990854163, 37.402408280397182 ] ] ] } },
{ "type": "Feature", "properties": { "zoneCode": "41135MX2001001", "zoneName": "성남판교지구 택지개발사업", "blockName": "지원", "blockType": "도시지원시설용지", "lotName": "지원", "analysis_category": "제1판교테크노밸리 후보: 도시지원시설용지", "parcel_id": "지원", "area_sqm": 5287.9479935109166 }, "geometry": { "type": "Polygon", "coordinates": [ [ [ 127.10924277599635, 37.404037459680119 ], [ 127.108339444296007, 37.4040351256752 ], [ 127.108340182703074, 37.404555279858926 ], [ 127.108567023522383, 37.404588412188119 ], [ 127.108792746779145, 37.404629744314285 ], [ 127.109018570356142, 37.404662065787754 ], [ 127.109243783659068, 37.40474133016324 ], [ 127.10924277599635, 37.404037459680119 ] ] ] } },
{ "type": "Feature", "properties": { "zoneCode": "41135MX2001001", "zoneName": "성남판교지구 택지개발사업", "blockName": "지원", "blockType": "도시지원시설용지", "lotName": "지원", "analysis_category": "제1판교테크노밸리 후보: 도시지원시설용지", "parcel_id": "지원", "area_sqm": 17408.11592108793 }, "geometry": { "type": "Polygon", "coordinates": [ [ [ 127.107636217120415, 37.399924794973522 ], [ 127.107276846975836, 37.399924035724929 ], [ 127.10713921301803, 37.399950828752331 ], [ 127.106758383897287, 37.399949636587223 ], [ 127.106665733669288, 37.400001166896899 ], [ 127.106621934510983, 37.400096983597514 ], [ 127.106617880436588, 37.400105366628772 ], [ 127.106465097417356, 37.400445544902865 ], [ 127.106460704490374, 37.400453928228856 ], [ 127.106449432723892, 37.400469796072962 ], [ 127.106437256436607, 37.4004849439075 ], [ 127.10639846751323, 37.400529488394454 ], [ 127.106387082407252, 37.400545086028728 ], [ 127.106376601434931, 37.400561133366942 ], [ 127.106154570739122, 37.401053914206472 ], [ 127.106147592404994, 37.401071129741169 ], [ 127.106139158253058, 37.401097266597965 ], [ 127.106134439458557, 37.401115020740754 ], [ 127.106103113956848, 37.401247947954005 ], [ 127.106067309575508, 37.401327539114327 ], [ 127.107639104129646, 37.40133145488943 ], [ 127.107636217120415, 37.399924794973522 ] ] ] } },
{ "type": "Feature", "properties": { "zoneCode": "41135MX2001001", "zoneName": "성남판교지구 택지개발사업", "blockName": "지원", "blockType": "도시지원시설용지", "lotName": "지원", "analysis_category": "제1판교테크노밸리 후보: 도시지원시설용지", "parcel_id": "지원", "area_sqm": 11625.209535709824 }, "geometry": { "type": "Polygon", "coordinates": [ [ [ 127.112560967063047, 37.40128269543095 ], [ 127.112586632626915, 37.401072194566112 ], [ 127.112585645160124, 37.400403102799352 ], [ 127.112559515453825, 37.400298880060596 ], [ 127.11255902052163, 37.399963433129813 ], [ 127.111898442916797, 37.399961889182457 ], [ 127.111834707825579, 37.400013036138724 ], [ 127.111836647054702, 37.401567102571036 ], [ 127.112561614919954, 37.401568676503608 ], [ 127.112560967063047, 37.40128269543095 ] ] ] } }
]
}
