{
"type": "FeatureCollection",
"name": "pangyo_1st_technovalley_candidate_parcels_5186",
"crs": { "type": "name", "properties": { "name": "urn:ogc:def:crs:EPSG::5186" } },
"features": [
{ "type": "Feature", "properties": { "zoneCode": "41135MX2001001", "zoneName": "성남판교지구 택지개발사업", "blockName": "지원", "blockType": "도시지원시설용지", "lotName": "지원", "analysis_category": "제1판교테크노밸리 후보: 도시지원시설용지", "parcel_id": "지원", "area_sqm": 11037.656652018051 }, "geometry": { "type": "Polygon", "coordinates": [ [ [ 209879.827060906594852, 534001.695363784208894 ], [ 209883.587147479498526, 533994.465482417144813 ], [ 209890.117303124570753, 533981.585691034677438 ], [ 209891.877347806206672, 533977.94574862648733 ], [ 209899.427552794892108, 533961.496002342319116 ], [ 209907.327786888025003, 533943.076277495129034 ], [ 209914.638029270368861, 533924.426544986665249 ], [ 209921.408279899100307, 533905.536805695388466 ], [ 209921.548284518125001, 533905.176810830133036 ], [ 209907.208477581734769, 533900.286718880874105 ], [ 209907.038470247120131, 533900.826611816301011 ], [ 209906.668457989027957, 533901.766598310205154 ], [ 209906.238446620176546, 533902.686583997448906 ], [ 209905.748436168913031, 533903.576568953809328 ], [ 209905.198426820075838, 533904.426553264842369 ], [ 209904.588418492960045, 533905.246536846971139 ], [ 209903.928411333617987, 533906.016520034987479 ], [ 209903.218405175663065, 533906.746502726105973 ], [ 209902.468400395155186, 533907.416485278867185 ], [ 209901.668396573310019, 533908.046567307668738 ], [ 209900.828394281386863, 533908.606449272250757 ], [ 209899.948393058090005, 533909.116431000875309 ], [ 209899.038392891146941, 533909.576412642374635 ], [ 209898.098394249682315, 533909.956394436769187 ], [ 209897.13839658498182, 533910.286376316915266 ], [ 209896.158400200103642, 533910.546358428779058 ], [ 209895.158405072317692, 533910.736340774456039 ], [ 209894.158410920936149, 533910.866323606693186 ], [ 209893.138418296759482, 533910.916306775528938 ], [ 209892.128426479233894, 533910.906290560262278 ], [ 209891.118435801239684, 533910.826274931430817 ], [ 209890.108446091297083, 533910.686259762849659 ], [ 209889.118457530159503, 533910.466245571733452 ], [ 209888.038471157313325, 533910.156230655615218 ], [ 209887.098484617192298, 533909.786218458553776 ], [ 209886.188498581905151, 533909.366207161685452 ], [ 209885.298513545509195, 533908.876196746597998 ], [ 209884.44852924515726, 533908.326187457656488 ], [ 209883.628545275190845, 533907.736178988590837 ], [ 209882.858561904577073, 533907.086171786417253 ], [ 209882.128578950534575, 533906.386165621806867 ], [ 209881.448596445174189, 533905.636160685215145 ], [ 209880.82861427514581, 533904.836157107725739 ], [ 209880.24863210413605, 533904.016154336510226 ], [ 209879.728650494449539, 533903.136153010651469 ], [ 209879.288668653578497, 533902.226153215509839 ], [ 209878.828686314867809, 533901.356152787921019 ], [ 209878.268704033369431, 533900.536150336964056 ], [ 209877.62872147365124, 533899.766146192676388 ], [ 209876.928738237562357, 533899.076140449149534 ], [ 209876.138754349696683, 533898.466132599045523 ], [ 209875.288769633712946, 533897.936123156570829 ], [ 209874.398783960932633, 533897.486112426850013 ], [ 209819.909517052496085, 533878.925382911227643 ], [ 209815.979325267340755, 533892.765208505676128 ], [ 209809.959061499364907, 533912.104956287192181 ], [ 209803.458804092631908, 533931.284697595750913 ], [ 209796.488553185597993, 533950.294532697065733 ], [ 209789.028309205576079, 533969.114161405479535 ], [ 209786.528234180266736, 533975.004073843359947 ], [ 209792.068208499898901, 533973.864172289846465 ], [ 209806.427912309562089, 533985.144313275930472 ], [ 209817.687644806108437, 533996.174406295875087 ], [ 209870.246851705684094, 534019.405067225336097 ], [ 209879.827060906594852, 534001.695363784208894 ] ] ] } },
{ "type": "Feature", "properties": { "zoneCode": "41135MX2001001", "zoneName": "성남판교지구 택지개발사업", "blockName": "지원", "blockType": "도시지원시설용지", "lotName": "지원", "analysis_category": "제1판교테크노밸리 후보: 도시지원시설용지", "parcel_id": "지원", "area_sqm": 7391.2198233540939 }, "geometry": { "type": "Polygon", "coordinates": [ [ [ 208864.585396364738699, 533986.379123215796426 ], [ 208865.875513390579727, 533978.47920744959265 ], [ 208821.826851819787407, 533917.198989790165797 ], [ 208747.746584229258588, 533970.457368425908498 ], [ 208794.995145019958727, 534036.407600077334791 ], [ 208864.585396364738699, 533986.379123215796426 ] ] ] } },
{ "type": "Feature", "properties": { "zoneCode": "41135MX2001001", "zoneName": "성남판교지구 택지개발사업", "blockName": "지원", "blockType": "도시지원시설용지", "lotName": "지원", "analysis_category": "제1판교테크노밸리 후보: 도시지원시설용지", "parcel_id": "지원", "area_sqm": 5148.8431525239057 }, "geometry": { "type": "Polygon", "coordinates": [ [ [ 208697.156600186019205, 533994.496360230026767 ], [ 208650.228626710362732, 533929.167028827709146 ], [ 208613.937727600947255, 533965.69525073945988 ], [ 208616.327386822289554, 533985.665128851309419 ], [ 208623.056740518135484, 534022.45504175266251 ], [ 208629.666357208479894, 534042.97488341992721 ], [ 208697.156600186019205, 533994.496360230026767 ] ] ] } },
{ "type": "Feature", "properties": { "zoneCode": "41135MX2001001", "zoneName": "성남판교지구 택지개발사업", "blockName": "지원", "blockType": "도시지원시설용지", "lotName": "지원", "analysis_category": "제1판교테크노밸리 후보: 도시지원시설용지", "parcel_id": "지원", "area_sqm": 2471.2509561603406 }, "geometry": { "type": "Polygon", "coordinates": [ [ [ 208945.08424741064664, 534017.870167501736432 ], [ 208912.965223432838684, 533973.180008789990097 ], [ 208901.485182048054412, 533981.429757555248216 ], [ 208875.675134668505052, 533997.139215506846085 ], [ 208909.154117243684595, 534043.719380905851722 ], [ 208945.08424741064664, 534017.870167501736432 ] ] ] } },
{ "type": "Feature", "properties": { "zoneCode": "41135MX2001001", "zoneName": "성남판교지구 택지개발사업", "blockName": "지원", "blockType": "도시지원시설용지", "lotName": "지원", "analysis_category": "제1판교테크노밸리 후보: 도시지원시설용지", "parcel_id": "지원", "area_sqm": 1316.9252024505859 }, "geometry": { "type": "Polygon", "coordinates": [ [ [ 209648.687381221883697, 533475.575858899392188 ], [ 209607.687710317957681, 533475.405299498699605 ], [ 209607.697277067025425, 533502.284984022611752 ], [ 209613.34714091339265, 533507.945029672584496 ], [ 209648.686857263615821, 533508.085598110803403 ], [ 209648.687381221883697, 533475.575858899392188 ] ] ] } },
{ "type": "Feature", "properties": { "zoneCode": "41135MX2001001", "zoneName": "성남판교지구 택지개발사업", "blockName": "지원", "blockType": "도시지원시설용지", "lotName": "지원", "analysis_category": "제1판교테크노밸리 후보: 도시지원시설용지", "parcel_id": "지원", "area_sqm": 3557.8196385655342 }, "geometry": { "type": "Polygon", "coordinates": [ [ [ 208749.423991435731295, 534130.556109559140168 ], [ 208775.223933264845982, 534121.39659886865411 ], [ 208785.753910220228136, 534117.616798915783875 ], [ 208759.154717795667239, 534080.656667177681811 ], [ 208746.755094221123727, 534063.426605760352686 ], [ 208684.263167577242712, 534108.416537443175912 ], [ 208688.254799558926607, 534110.665283697890118 ], [ 208694.094702679867623, 534113.78535273950547 ], [ 208696.544663235748885, 534115.025382254389115 ], [ 208724.734273447102169, 534125.265854215831496 ], [ 208744.792503873031819, 534132.076522718765773 ], [ 208749.423991435731295, 534130.556109559140168 ] ] ] } },
{ "type": "Feature", "properties": { "zoneCode": "41135MX2001001", "zoneName": "성남판교지구 택지개발사업", "blockName": "지원", "blockType": "도시지원시설용지", "lotName": "지원", "analysis_category": "제1판교테크노밸리 후보: 도시지원시설용지", "parcel_id": "지원", "area_sqm": 9934.9512821586759 }, "geometry": { "type": "Polygon", "coordinates": [ [ [ 209032.386503314570291, 533834.683045181911439 ], [ 209034.566540240077302, 533831.313107365160249 ], [ 209036.626578928058734, 533827.893168012262322 ], [ 209038.596619274205295, 533824.413227703073062 ], [ 209040.446661594061879, 533820.873285929090343 ], [ 209042.196705656155245, 533817.273343037464656 ], [ 209043.836751371563878, 533813.62339875579346 ], [ 209045.386798514082329, 533809.933453360223211 ], [ 209046.796847325516865, 533806.20350603654515 ], [ 209048.016899000096601, 533802.39355628285557 ], [ 209049.136952142056543, 533798.543605222483166 ], [ 209050.11700664323871, 533794.673652091878466 ], [ 209050.967062567884568, 533790.783697016420774 ], [ 209051.677120701409876, 533786.823740250663832 ], [ 209052.14716646130546, 533783.753772464348003 ], [ 209045.18723879364552, 533782.703668742673472 ], [ 209040.227291213523131, 533781.903595243231393 ], [ 209035.297343885642476, 533781.073522474500351 ], [ 209030.347397354082204, 533780.203449696768075 ], [ 209025.417450941982679, 533779.313377395737916 ], [ 209020.49750526814023, 533778.373305663233623 ], [ 209015.567560372175649, 533777.393234092160128 ], [ 209010.657615946402075, 533776.37316317204386 ], [ 209005.767671598441666, 533775.333092717104591 ], [ 208995.967784497217508, 533773.172952151391655 ], [ 208991.087842102191644, 533772.012882827082649 ], [ 208986.227900941099506, 533770.762814558111131 ], [ 208981.387960128311533, 533769.482746854191646 ], [ 208972.678068360604811, 533767.072625857312232 ], [ 208963.018188061687397, 533764.422491487697698 ], [ 208958.218249682395253, 533762.972425782587379 ], [ 208953.438312076876173, 533761.462460894137621 ], [ 208948.668374853703426, 533759.92229639692232 ], [ 208943.90843825484626, 533758.342232385999523 ], [ 208934.41856593551347, 533755.112105401116423 ], [ 208929.668630541244056, 533753.45204220188316 ], [ 208924.94869517191546, 533751.771979638375342 ], [ 208920.258760615775827, 533750.031918035936542 ], [ 208915.58882653497858, 533748.251857076538727 ], [ 208910.938892678037519, 533746.441896694013849 ], [ 208906.298959670239128, 533744.581736872554757 ], [ 208901.669026951916749, 533742.691677439492196 ], [ 208897.059094815893332, 533740.761618653661571 ], [ 208892.449163298791973, 533738.791560200392269 ], [ 208887.86923213940463, 533736.781602539122105 ], [ 208883.319301450334024, 533734.731445696554147 ], [ 208878.879369529575342, 533732.701390456524678 ], [ 208873.419453983020503, 533730.161322867847048 ], [ 208868.88952467640047, 533728.011267150403 ], [ 208864.379596098209731, 533725.811212147702463 ], [ 208856.569721000472782, 533721.921117545338348 ], [ 208822.309440129349241, 533756.300289526232518 ], [ 209030.116468352818629, 533837.972982193110511 ], [ 209032.386503314570291, 533834.683045181911439 ] ] ] } },
{ "type": "Feature", "properties": { "zoneCode": "41135MX2001001", "zoneName": "성남판교지구 택지개발사업", "blockName": "지원", "blockType": "도시지원시설용지", "lotName": "지원", "analysis_category": "제1판교테크노밸리 후보: 도시지원시설용지", "parcel_id": "지원", "area_sqm": 2852.4915876852542 }, "geometry": { "type": "Polygon", "coordinates": [ [ [ 209530.483310591313057, 533786.571458637481555 ], [ 209523.433366683282657, 533786.571345014031976 ], [ 209497.943619902565842, 533783.460959141142666 ], [ 209481.953748376225121, 533783.390701992204413 ], [ 209481.95278142823372, 533843.390220459084958 ], [ 209530.49239157041302, 533843.591001210617833 ], [ 209530.483310591313057, 533786.571458637481555 ] ] ] } },
{ "type": "Feature", "properties": { "zoneCode": "41135MX2001001", "zoneName": "성남판교지구 택지개발사업", "blockName": "지원", "blockType": "도시지원시설용지", "lotName": "지원", "analysis_category": "제1판교테크노밸리 후보: 도시지원시설용지", "parcel_id": "지원", "area_sqm": 8802.8103350020301 }, "geometry": { "type": "Polygon", "coordinates": [ [ [ 209062.881355360470479, 534139.081092454260215 ], [ 209061.861365234974073, 534138.971076911198907 ], [ 209060.861375296983169, 534138.841061828425154 ], [ 209059.88138652977068, 534138.631047730334103 ], [ 209058.931398252316285, 534138.371034500538372 ], [ 209057.971411436592462, 534138.031021769624203 ], [ 209057.051424988574581, 534137.641010073712096 ], [ 209056.141439493658254, 534137.190999023034237 ], [ 209055.281454786862014, 534136.670989336213097 ], [ 209054.451470567320939, 534136.100980537827127 ], [ 209053.651486914081033, 534135.480972623219714 ], [ 209052.931503950472688, 534134.780966643011197 ], [ 209052.231521151756169, 534134.060961147770286 ], [ 209051.571538926073117, 534133.280956773320213 ], [ 209050.971556805510772, 534132.470953607815318 ], [ 209050.431574643298518, 534131.630951655912213 ], [ 209049.931592680572066, 534130.760950571042486 ], [ 209049.521610391151626, 534129.860951201058924 ], [ 209049.1716285412258, 534128.910953184124082 ], [ 209048.871646515966859, 534127.940956136095338 ], [ 209048.641664178139763, 534126.960960300988518 ], [ 209048.481681206962094, 534125.98096560430713 ], [ 209048.391698061459465, 534124.98097217886243 ], [ 209048.351714476943016, 534123.980979567975737 ], [ 209048.401730516343378, 534122.961088562966324 ], [ 209048.501745859190123, 534121.960998202674091 ], [ 209048.681760488572763, 534120.961109138326719 ], [ 209048.921774217044003, 534119.991020799148828 ], [ 209049.221787517453777, 534119.021033415920101 ], [ 209049.58179974052473, 534118.081046773120761 ], [ 209050.011810717754997, 534117.191060853423551 ], [ 209050.521820632682648, 534116.321076051448472 ], [ 209051.071829796099337, 534115.481091659516096 ], [ 209051.681837837590137, 534114.681107914308086 ], [ 209052.331845062493812, 534113.911124566569924 ], [ 209053.04185085959034, 534113.201241721282713 ], [ 209053.78185569823836, 534112.531159029225819 ], [ 209054.591859237902099, 534111.911177050322294 ], [ 209054.781859824957792, 534111.781181155703962 ], [ 209033.372509060980519, 534082.081074635614641 ], [ 209030.242500169872073, 534084.181007331004366 ], [ 209025.282485204836121, 534087.560900246491656 ], [ 209020.322469628008548, 534090.980792854563333 ], [ 209015.412453028489836, 534094.440685939858668 ], [ 209009.752431301429169, 534098.590561392134987 ], [ 208968.1922551295429, 534130.079738754895516 ], [ 208965.842244068800937, 534131.929586021229625 ], [ 208965.092239230667474, 534132.599568555597216 ], [ 208964.362233804509742, 534133.299551173695363 ], [ 208963.662227941968013, 534134.009534185053781 ], [ 208960.322193934262032, 534137.769450176041573 ], [ 208957.122157245437847, 534141.629367595538497 ], [ 208954.012118561193347, 534145.569285836885683 ], [ 208950.962078558339272, 534149.559204632067122 ], [ 208947.952038127928972, 534153.559124009683728 ], [ 208944.991996285156347, 534157.619043695623986 ], [ 208942.10195342003135, 534161.708964266814291 ], [ 208939.34190805835533, 534165.888886222732253 ], [ 208936.651861342194024, 534170.118808896280825 ], [ 208933.981814341794234, 534174.358731809072196 ], [ 208932.081778719992144, 534177.508675900753587 ], [ 208945.451635048608296, 534179.808872888213955 ], [ 208984.021223397023277, 534186.279442494502291 ], [ 209022.010854594904231, 534190.370021883863956 ], [ 209060.270502576633589, 534193.290615039761178 ], [ 209063.400477003160631, 534193.332765150815248 ], [ 209062.881355360470479, 534139.081092454260215 ] ] ] } },
{ "type": "Feature", "properties": { "zoneCode": "41135MX2001001", "zoneName": "성남판교지구 택지개발사업", "blockName": "지원", "blockType": "도시지원시설용지", "lotName": "지원", "analysis_category": "제1판교테크노밸리 후보: 도시지원시설용지", "parcel_id": "지원", "area_sqm": 14287.109694656365 }, "geometry": { "type": "Polygon", "coordinates": [ [ [ 209202.630438594031148, 534126.853442969964817 ], [ 209203.860934486147016, 534095.473714758409187 ], [ 209191.92174166161567, 534051.293877060874365 ], [ 209191.521774026507046, 534049.48388514528051 ], [ 209191.281807939754799, 534047.493897259701043 ], [ 209191.241840528586181, 534045.493912678561173 ], [ 209191.5520444966387, 534032.684020524378866 ], [ 209187.982007682992844, 534036.733930472866632 ], [ 209184.721972558065318, 534040.523847499513067 ], [ 209181.501935716340085, 534044.403764447197318 ], [ 209178.371897996083135, 534048.293682764167897 ], [ 209175.311858369968832, 534052.263601575396024 ], [ 209172.351817203860264, 534056.283521594712511 ], [ 209169.411774820327992, 534060.363441455177963 ], [ 209165.981722545722732, 534065.303346511442214 ], [ 209146.441409559804015, 534094.392798021086492 ], [ 209144.191374090674799, 534097.70273516420275 ], [ 209142.411348966590595, 534100.142686895793304 ], [ 209140.581325236009434, 534102.522638293914497 ], [ 209138.581304737570463, 534104.78268790745642 ], [ 209136.551285343419295, 534106.99253745842725 ], [ 209134.441267824935494, 534109.122486338135786 ], [ 209132.251251882786164, 534111.192434417782351 ], [ 209129.981237929576309, 534113.182381850550883 ], [ 209127.651225872978102, 534115.082329039927572 ], [ 209125.261215266218642, 534116.922275738441385 ], [ 209122.801207131735282, 534118.642222296330146 ], [ 209120.271200899413088, 534120.28216835425701 ], [ 209117.69119651321671, 534121.832114317454398 ], [ 209115.051194163534092, 534123.282060130964965 ], [ 209112.361193973105401, 534124.622006019228138 ], [ 209109.621195845509646, 534125.861951895989478 ], [ 209107.171198119700421, 534126.931903818738647 ], [ 209103.521205944300164, 534128.251834400813095 ], [ 209093.651240504201269, 534130.991653323289938 ], [ 209082.651302210579161, 534132.601463119266555 ], [ 209080.661313734482974, 534132.871428874786943 ], [ 209078.651323102094466, 534133.28139318828471 ], [ 209076.731329272239236, 534133.851357668754645 ], [ 209073.90133604829316, 534134.83130419999361 ], [ 209073.011336006282363, 534135.271286307368428 ], [ 209072.211333059938625, 534135.851268769358285 ], [ 209071.441328359476756, 534136.52125096868258 ], [ 209070.611325986741576, 534137.081233107019216 ], [ 209069.731324742315337, 534137.591314828721806 ], [ 209068.821325065131532, 534138.021196705754846 ], [ 209067.871326883934671, 534138.381178501294926 ], [ 209066.901330211141612, 534138.651160702109337 ], [ 209065.901334810914705, 534138.861142903100699 ], [ 209064.911340443301015, 534139.001125820330344 ], [ 209063.901347422215622, 534139.071108981152065 ], [ 209062.881355360470479, 534139.081092454260215 ], [ 209063.400477003160631, 534193.332765150815248 ], [ 209233.90908106524148, 534195.623394902911969 ], [ 209202.630438594031148, 534126.853442969964817 ] ] ] } },
{ "type": "Feature", "properties": { "zoneCode": "41135MX2001001", "zoneName": "성남판교지구 택지개발사업", "blockName": "지원", "blockType": "도시지원시설용지", "lotName": "지원", "analysis_category": "제1판교테크노밸리 후보: 도시지원시설용지", "parcel_id": "지원", "area_sqm": 2913.446930964702 }, "geometry": { "type": "Polygon", "coordinates": [ [ [ 209892.192016284359852, 533688.168078497285023 ], [ 209849.452359770686598, 533687.967391145532019 ], [ 209849.242279313592007, 533693.067346850177273 ], [ 209848.972200850956142, 533698.067302389768884 ], [ 209848.382044545782264, 533708.057212741696276 ], [ 209847.751888821774628, 533718.027122601633891 ], [ 209846.911734689521836, 533728.007028992986307 ], [ 209846.031580841896357, 533737.98693474184256 ], [ 209845.571504022518639, 533742.976887297350913 ], [ 209845.051427736558253, 533747.966838895343244 ], [ 209844.471352451335406, 533752.926789746619761 ], [ 209892.190969427436357, 533753.117557476274669 ], [ 209892.192016284359852, 533688.168078497285023 ] ] ] } },
{ "type": "Feature", "properties": { "zoneCode": "41135MX2001001", "zoneName": "성남판교지구 택지개발사업", "blockName": "지원", "blockType": "도시지원시설용지", "lotName": "지원", "analysis_category": "제1판교테크노밸리 후보: 도시지원시설용지", "parcel_id": "지원", "area_sqm": 10455.888237417554 }, "geometry": { "type": "Polygon", "coordinates": [ [ [ 209940.670628717489308, 533750.308361527044326 ], [ 209961.990457664156565, 533750.388704581768252 ], [ 209962.320472318679094, 533749.318718482158147 ], [ 209964.780859916500049, 533724.058960766997188 ], [ 209966.171074768761173, 533710.039095635176636 ], [ 209966.151337667339249, 533693.73922605603002 ], [ 209968.651520556188188, 533681.159367263666354 ], [ 209968.641950975317741, 533654.459581277682446 ], [ 209968.662628641992342, 533612.409918875200674 ], [ 209966.422824056702666, 533601.38997113739606 ], [ 209966.382837485289201, 533600.579977003624663 ], [ 209902.173352988262195, 533600.308944128686562 ], [ 209902.171935998107074, 533688.218238980625756 ], [ 209892.192016284359852, 533688.168078497285023 ], [ 209892.190969427436357, 533753.117557476274669 ], [ 209928.720676271273987, 533753.258145223953761 ], [ 209940.670628717489308, 533750.308361527044326 ] ] ] } },
{ "type": "Feature", "properties": { "zoneCode": "41135MX2001001", "zoneName": "성남판교지구 택지개발사업", "blockName": "지원", "blockType": "도시지원시설용지", "lotName": "지원", "analysis_category": "제1판교테크노밸리 후보: 도시지원시설용지", "parcel_id": "지원", "area_sqm": 2880.3468404603236 }, "geometry": { "type": "Polygon", "coordinates": [ [ [ 209481.953748376225121, 533783.390701992204413 ], [ 209439.084092858189251, 533783.200012577581219 ], [ 209433.414047153695719, 533788.839875937672332 ], [ 209433.423262135998812, 533837.549485169816762 ], [ 209439.073125903087202, 533843.209530787658878 ], [ 209481.95278142823372, 533843.390220459084958 ], [ 209481.953748376225121, 533783.390701992204413 ] ] ] } },
{ "type": "Feature", "properties": { "zoneCode": "41135MX2001001", "zoneName": "성남판교지구 택지개발사업", "blockName": "지원", "blockType": "도시지원시설용지", "lotName": "지원", "analysis_category": "제1판교테크노밸리 후보: 도시지원시설용지", "parcel_id": "지원", "area_sqm": 1818.8908567578781 }, "geometry": { "type": "Polygon", "coordinates": [ [ [ 208992.419578247267054, 533663.593774650827982 ], [ 208988.649626188998809, 533662.483722816454247 ], [ 208982.919700513011776, 533660.703644772176631 ], [ 208977.199776350316824, 533658.823567708721384 ], [ 208971.509852622199105, 533656.903491443488747 ], [ 208964.889942392124794, 533654.603403242886998 ], [ 208962.549974456604104, 533653.773372195078991 ], [ 208943.799292208394036, 533705.392655710107647 ], [ 208950.399201927590184, 533707.732743264525197 ], [ 208959.899074192799162, 533710.962870393530466 ], [ 208964.669010922661982, 533712.532934644375928 ], [ 208969.44894868938718, 533714.032999625895172 ], [ 208976.828853620681912, 533716.283100485685281 ], [ 208992.419578247267054, 533663.593774650827982 ] ] ] } },
{ "type": "Feature", "properties": { "zoneCode": "41135MX2001001", "zoneName": "성남판교지구 택지개발사업", "blockName": "지원", "blockType": "도시지원시설용지", "lotName": "지원", "analysis_category": "제1판교테크노밸리 후보: 도시지원시설용지", "parcel_id": "지원", "area_sqm": 4723.1510320057505 }, "geometry": { "type": "Polygon", "coordinates": [ [ [ 209625.022599224175792, 533783.993003133567981 ], [ 209572.803018973325379, 533783.752163369208574 ], [ 209553.033131488482468, 533786.541822330909781 ], [ 209545.48319012648426, 533786.63169992051553 ], [ 209545.492270918388385, 533843.66124241554644 ], [ 209625.02163202650263, 533844.002521572867408 ], [ 209625.022599224175792, 533783.993003133567981 ] ] ] } },
{ "type": "Feature", "properties": { "zoneCode": "41135MX2001001", "zoneName": "성남판교지구 택지개발사업", "blockName": "지원", "blockType": "도시지원시설용지", "lotName": "지원", "analysis_category": "제1판교테크노밸리 후보: 도시지원시설용지", "parcel_id": "지원", "area_sqm": 1349.3179714688065 }, "geometry": { "type": "Polygon", "coordinates": [ [ [ 209592.688447304914007, 533437.085265147150494 ], [ 209545.486326282902155, 533436.884506064699963 ], [ 209545.498365509120049, 533465.474276908440515 ], [ 209592.687986574310344, 533465.67503581312485 ], [ 209592.688447304914007, 533437.085265147150494 ] ] ] } },
{ "type": "Feature", "properties": { "zoneCode": "41135MX2001001", "zoneName": "성남판교지구 택지개발사업", "blockName": "지원", "blockType": "도시지원시설용지", "lotName": "지원", "analysis_category": "제1판교테크노밸리 후보: 도시지원시설용지", "parcel_id": "지원", "area_sqm": 16863.253794827306 }, "geometry": { "type": "Polygon", "coordinates": [ [ [ 209328.021059751481516, 533405.731251602526754 ], [ 209322.101132220006548, 533404.161168804275803 ], [ 209194.352157576882746, 533403.659114408423193 ], [ 209188.712110971333459, 533409.338977959239855 ], [ 209188.702709865319775, 533521.138080700184219 ], [ 209188.699728046252858, 533557.247790872817859 ], [ 209268.549085834441939, 533557.639074402162805 ], [ 209328.021059751481516, 533405.731251602526754 ] ] ] } },
{ "type": "Feature", "properties": { "zoneCode": "41135MX2001001", "zoneName": "성남판교지구 택지개발사업", "blockName": "지원", "blockType": "도시지원시설용지", "lotName": "지원", "analysis_category": "제1판교테크노밸리 후보: 도시지원시설용지", "parcel_id": "지원", "area_sqm": 5459.4126002523672 }, "geometry": { "type": "Polygon", "coordinates": [ [ [ 209418.424914272967726, 533742.440006723161787 ], [ 209418.435901711374754, 533681.160498657263815 ], [ 209347.146474200329976, 533680.86935210460797 ], [ 209328.195778704190161, 533733.398625134024769 ], [ 209337.515472740255063, 533747.778659922187217 ], [ 209412.744868632289581, 533748.079869925626554 ], [ 209418.424914272967726, 533742.440006723161787 ] ] ] } },
{ "type": "Feature", "properties": { "zoneCode": "41135MX2001001", "zoneName": "성남판교지구 택지개발사업", "blockName": "지원", "blockType": "도시지원시설용지", "lotName": "지원", "analysis_category": "제1판교테크노밸리 후보: 도시지원시설용지", "parcel_id": "지원", "area_sqm": 3073.1351249856348 }, "geometry": { "type": "Polygon", "coordinates": [ [ [ 209779.432922802923713, 533687.626265215221792 ], [ 209736.173270279541612, 533687.435569436987862 ], [ 209729.093212855514139, 533694.495398676721379 ], [ 209729.082441013248172, 533742.395014215144329 ], [ 209736.132270595408045, 533749.485070967115462 ], [ 209779.421923117566621, 533749.65576739970129 ], [ 209779.432922802923713, 533687.626265215221792 ] ] ] } },
{ "type": "Feature", "properties": { "zoneCode": "41135MX2001001", "zoneName": "성남판교지구 택지개발사업", "blockName": "지원", "blockType": "도시지원시설용지", "lotName": "지원", "analysis_category": "제1판교테크노밸리 후보: 도시지원시설용지", "parcel_id": "지원", "area_sqm": 10243.946675300478 }, "geometry": { "type": "Polygon", "coordinates": [ [ [ 209922.158308400132228, 533903.396834952523932 ], [ 209929.768632243416505, 533879.547148983227089 ], [ 209931.758947352995165, 533859.017345775850117 ], [ 209937.78921011579223, 533839.737597675644793 ], [ 209938.349244450830156, 533837.327626018086448 ], [ 209943.759639401221648, 533810.157931218156591 ], [ 209949.419894787773956, 533791.518171988776885 ], [ 209946.789967173477635, 533788.32815518300049 ], [ 209905.020302263495978, 533788.167583112721331 ], [ 209892.97044738943805, 533785.117313327733427 ], [ 209840.16087133102701, 533784.906463700346649 ], [ 209838.650724881037604, 533794.736360493930988 ], [ 209837.800652525766054, 533799.646307399380021 ], [ 209835.850494462385541, 533810.416189555893652 ], [ 209834.940422857034719, 533815.30613566248212 ], [ 209832.980281169322552, 533825.066025751642883 ], [ 209830.970140143297613, 533834.805915202945471 ], [ 209829.910070299287327, 533839.665959125268273 ], [ 209826.399863520171493, 533854.22568571800366 ], [ 209823.809720089921029, 533864.405562287312932 ], [ 209876.939005235413788, 533882.506273564533331 ], [ 209878.578983447077917, 533883.04629567079246 ], [ 209879.548971233016346, 533883.326309051481076 ], [ 209880.538960937527008, 533883.476423810119741 ], [ 209881.538952153932769, 533883.526339523727074 ], [ 209882.528944926423719, 533883.48635581578128 ], [ 209883.528939065232407, 533883.356372973881662 ], [ 209884.49893489445094, 533883.136390373343602 ], [ 209885.448932264698669, 533882.82640818413347 ], [ 209886.358932000177447, 533882.396426299354061 ], [ 209887.298930426622974, 533882.026444421964698 ], [ 209888.24892824809649, 533881.696462384657934 ], [ 209889.218925355060492, 533881.396480428986251 ], [ 209890.208920831442811, 533881.186498073046096 ], [ 209891.208915271563455, 533881.036515392828733 ], [ 209892.208908751548734, 533880.946532242116518 ], [ 209893.228900830610655, 533880.936548767494969 ], [ 209894.238891836634139, 533880.996564561035484 ], [ 209895.238881898694672, 533881.116579722613096 ], [ 209896.238870906963712, 533881.306594329769723 ], [ 209897.218859015410999, 533881.55660811602138 ], [ 209898.168846302782185, 533881.876620857627131 ], [ 209899.108832882455317, 533882.246633050963283 ], [ 209900.018818355805706, 533882.696644099894911 ], [ 209900.888803209090838, 533883.206654031877406 ], [ 209901.728787330270279, 533883.776663002441637 ], [ 209902.51877106615575, 533884.396670757327229 ], [ 209903.278754220693372, 533885.06667764345184 ], [ 209903.988736944505945, 533885.786783311166801 ], [ 209904.658719509898219, 533886.536688107997179 ], [ 209905.258701677288627, 533887.346691269893199 ], [ 209905.798683561559301, 533888.206693073036149 ], [ 209906.278665351157542, 533889.096693687257357 ], [ 209906.708647284598555, 533890.006693299859762 ], [ 209907.078629157884279, 533890.946691726800054 ], [ 209907.378611331747379, 533891.9066888630623 ], [ 209907.628593544417527, 533892.886685034027323 ], [ 209907.788575984595809, 533893.896679515019059 ], [ 209907.888559048966272, 533894.896673098672181 ], [ 209907.91854269587202, 533895.896665556589141 ], [ 209907.87852652798756, 533896.916656726971269 ], [ 209907.778511265118141, 533897.916747082490474 ], [ 209907.598496531805722, 533898.916636167676188 ], [ 209907.208477581734769, 533900.286718880874105 ], [ 209921.548284518125001, 533905.176810830133036 ], [ 209922.158308400132228, 533903.396834952523932 ] ] ] } },
{ "type": "Feature", "properties": { "zoneCode": "41135MX2001001", "zoneName": "성남판교지구 택지개발사업", "blockName": "지원", "blockType": "도시지원시설용지", "lotName": "지원", "analysis_category": "제1판교테크노밸리 후보: 도시지원시설용지", "parcel_id": "지원", "area_sqm": 1818.8333061301087 }, "geometry": { "type": "Polygon", "coordinates": [ [ [ 209022.799207459611353, 533671.584200010402128 ], [ 209017.639268292143242, 533670.364126650267281 ], [ 209011.81933800628758, 533668.914044513832778 ], [ 209005.999408691714052, 533667.403962876880541 ], [ 209000.189480426721275, 533665.823881939519197 ], [ 208994.419552806997672, 533664.183802128070965 ], [ 208992.419578247267054, 533663.593774650827982 ], [ 208976.828853620681912, 533716.283100485685281 ], [ 208980.008812813932309, 533717.243144007166848 ], [ 208982.918776518199593, 533718.053184379823506 ], [ 208987.738716063206084, 533719.423251050524414 ], [ 208992.578656389610842, 533720.733318514889106 ], [ 208997.438597214117181, 533722.003386643598787 ], [ 209002.308539100136841, 533723.203455468639731 ], [ 209007.178481617185753, 533724.36352462740615 ], [ 209010.438443686987739, 533725.103571215411648 ], [ 209022.799207459611353, 533671.584200010402128 ] ] ] } },
{ "type": "Feature", "properties": { "zoneCode": "41135MX2001001", "zoneName": "성남판교지구 택지개발사업", "blockName": "지원", "blockType": "도시지원시설용지", "lotName": "지원", "analysis_category": "제1판교테크노밸리 후보: 도시지원시설용지", "parcel_id": "지원", "area_sqm": 1818.8856574940091 }, "geometry": { "type": "Polygon", "coordinates": [ [ [ 208933.310394799540518, 533642.142994447611272 ], [ 208931.200426397495903, 533641.222967851557769 ], [ 208925.720509575592587, 533638.772899217437953 ], [ 208920.260593312937999, 533636.272831315174699 ], [ 208914.840677884843899, 533633.702764622285031 ], [ 208909.430763368378393, 533631.072698572883382 ], [ 208904.840837312221993, 533628.752643250394613 ], [ 208880.000246632494964, 533677.701850063400343 ], [ 208885.750154140259838, 533680.601919425651431 ], [ 208890.250082549231593, 533682.821974102058448 ], [ 208894.780011943250429, 533684.962029902264476 ], [ 208899.339941650861874, 533687.072086434229277 ], [ 208908.469802505132975, 533691.192200457211584 ], [ 208911.489757349103456, 533692.502238604705781 ], [ 208933.310394799540518, 533642.142994447611272 ] ] ] } },
{ "type": "Feature", "properties": { "zoneCode": "41135MX2001001", "zoneName": "성남판교지구 택지개발사업", "blockName": "지원", "blockType": "도시지원시설용지", "lotName": "지원", "analysis_category": "제1판교테크노밸리 후보: 도시지원시설용지", "parcel_id": "지원", "area_sqm": 2311.5152570522537 }, "geometry": { "type": "Polygon", "coordinates": [ [ [ 208802.533873772481456, 534111.57711781875696 ], [ 208808.513864477514289, 534109.197233297163621 ], [ 208811.503860900265863, 534107.937391595100053 ], [ 208814.513856115168892, 534106.747349641751498 ], [ 208817.423855005152291, 534105.377407547784969 ], [ 208827.133854573301505, 534100.597602410591207 ], [ 208828.373857120925095, 534099.82762857992202 ], [ 208795.624849684798392, 534054.427465504035354 ], [ 208759.154717795667239, 534080.656667177681811 ], [ 208785.753910220228136, 534117.616798915783875 ], [ 208802.533873772481456, 534111.57711781875696 ] ] ] } },
{ "type": "Feature", "properties": { "zoneCode": "41135MX2001001", "zoneName": "성남판교지구 택지개발사업", "blockName": "지원", "blockType": "도시지원시설용지", "lotName": "지원", "analysis_category": "제1판교테크노밸리 후보: 도시지원시설용지", "parcel_id": "지원", "area_sqm": 2437.2209056288361 }, "geometry": { "type": "Polygon", "coordinates": [ [ [ 209017.044508036749903, 533966.101742803119123 ], [ 208984.925482822378399, 533921.49158340820577 ], [ 208948.945353067858377, 533947.340796065051109 ], [ 208981.044377598620486, 533992.000954707502387 ], [ 209017.044508036749903, 533966.101742803119123 ] ] ] } },
{ "type": "Feature", "properties": { "zoneCode": "41135MX2001001", "zoneName": "성남판교지구 택지개발사업", "blockName": "지원", "blockType": "도시지원시설용지", "lotName": "지원", "analysis_category": "제1판교테크노밸리 후보: 도시지원시설용지", "parcel_id": "지원", "area_sqm": 17363.735201367326 }, "geometry": { "type": "Polygon", "coordinates": [ [ [ 209412.010903606831562, 533994.477880469989032 ], [ 209432.050898340268759, 533984.89828036678955 ], [ 209440.491332849342143, 533953.768666298012249 ], [ 209441.781757987977471, 533926.74890396092087 ], [ 209452.331940325675532, 533910.219206682173535 ], [ 209472.381950999522815, 533899.649614684283733 ], [ 209492.411904546373989, 533892.629993867012672 ], [ 209512.411745025980053, 533892.640316138044 ], [ 209530.431585732469102, 533893.620598719106056 ], [ 209530.442150173679693, 533858.590880027040839 ], [ 209403.763167711993447, 533858.068842428503558 ], [ 209400.753191500727553, 533858.078793846420012 ], [ 209397.763210988952778, 533858.348743496113457 ], [ 209394.77322900557192, 533858.708692410844378 ], [ 209391.823243145918241, 533859.288640204817057 ], [ 209388.923254330380587, 533860.028687530546449 ], [ 209386.063262566400226, 533860.928534209611826 ], [ 209383.243268266203813, 533861.968480412033387 ], [ 209380.493270547012798, 533863.188526305602863 ], [ 209377.823270055989269, 533864.538372431299649 ], [ 209375.26326739587239, 533865.968319696141407 ], [ 209372.773260499263415, 533867.628266239655204 ], [ 209370.403249546769075, 533869.478213189868256 ], [ 209368.113236568926368, 533871.418160718516447 ], [ 209365.94322044798173, 533873.488109124242328 ], [ 209363.903201423905557, 533875.678058677120134 ], [ 209362.003178997401847, 533878.00800934957806 ], [ 209359.643145799840568, 533881.237945378292352 ], [ 209357.383110614639008, 533884.537982468958944 ], [ 209342.282868434063857, 533907.027558583300561 ], [ 209340.002833467995515, 533910.327395346597768 ], [ 209337.58280084078433, 533913.54733049729839 ], [ 209334.432763062242884, 533917.44724842091091 ], [ 209331.802735189441592, 533920.477181715075858 ], [ 209329.062709632882616, 533923.417113953502849 ], [ 209326.232686285686214, 533926.267045462038368 ], [ 209323.32266500062542, 533929.026976412045769 ], [ 209319.562641771073686, 533932.326889327028766 ], [ 209315.692621009045979, 533935.526801262400113 ], [ 209312.47260801968514, 533937.926730097038671 ], [ 209309.192596954206238, 533940.236658691545017 ], [ 209302.452580532757565, 533944.586515139322728 ], [ 209298.982575300295139, 533946.626442841719836 ], [ 209295.252573595440481, 533948.576367079047486 ], [ 209292.172574404336046, 533950.046305633732118 ], [ 209312.092368160490878, 533952.996602997765876 ], [ 209332.001831963774748, 533976.426735798129812 ], [ 209351.981559799751267, 533983.437001556623727 ], [ 209371.941194498474943, 533996.237220493960194 ], [ 209391.940928489289945, 534002.857489713001996 ], [ 209412.010903606831562, 533994.477880469989032 ] ] ] } },
{ "type": "Feature", "properties": { "zoneCode": "41135MX2001001", "zoneName": "성남판교지구 택지개발사업", "blockName": "지원", "blockType": "도시지원시설용지", "lotName": "지원", "analysis_category": "제1판교테크노밸리 후보: 도시지원시설용지", "parcel_id": "지원", "area_sqm": 12648.726562517641 }, "geometry": { "type": "Polygon", "coordinates": [ [ [ 209762.298333521757741, 533980.81363660946954 ], [ 209762.808347406971734, 533979.703653741278686 ], [ 209770.528578956407728, 533961.523924089269713 ], [ 209772.668657973612426, 533955.564006409724243 ], [ 209775.338741814513924, 533949.0441017691046 ], [ 209776.418777872400824, 533946.274141403497197 ], [ 209777.708821909676772, 533942.904189245426096 ], [ 209780.778928774350788, 533934.754304134985432 ], [ 209782.318983457167633, 533930.604362265206873 ], [ 209785.199088313966058, 533922.674472317914478 ], [ 209789.029236887552543, 533911.564623203943484 ], [ 209790.939312718372094, 533905.914699347456917 ], [ 209796.809569831268163, 533887.064945229329169 ], [ 209800.959772277419688, 533872.455129351001233 ], [ 209796.459832488006214, 533870.945068916655146 ], [ 209791.659894524636911, 533869.465003419783898 ], [ 209786.849955260026036, 533868.074937046389095 ], [ 209782.000014369143173, 533866.804869044339284 ], [ 209777.130071836290881, 533865.644799838657491 ], [ 209772.210128238686593, 533864.574729132931679 ], [ 209767.31018321873853, 533863.584658073959872 ], [ 209762.380236957775196, 533862.684585829614662 ], [ 209757.440288947342196, 533861.904512457898818 ], [ 209752.470339268445969, 533861.234437717474066 ], [ 209747.480388410505839, 533860.654361935448833 ], [ 209742.490435029380023, 533860.22428494959604 ], [ 209737.490480185660999, 533859.894206993980333 ], [ 209732.480524136481108, 533859.644128247513436 ], [ 209728.470558460481698, 533859.494064813712612 ], [ 209715.590662465809146, 533859.403857908211648 ], [ 209672.191011180402711, 533859.213159847422503 ], [ 209672.189752058591694, 533937.332532953470945 ], [ 209692.01911659486359, 533966.962614815798588 ], [ 209711.938776441325899, 533978.222845560754649 ], [ 209732.038573921192437, 533980.853148488444276 ], [ 209752.028365704783937, 533983.893446324393153 ], [ 209762.298333521757741, 533980.81363660946954 ] ] ] } },
{ "type": "Feature", "properties": { "zoneCode": "41135MX2001001", "zoneName": "성남판교지구 택지개발사업", "blockName": "지원", "blockType": "도시지원시설용지", "lotName": "지원", "analysis_category": "제1판교테크노밸리 후보: 도시지원시설용지", "parcel_id": "지원", "area_sqm": 2437.1248060049852 }, "geometry": { "type": "Polygon", "coordinates": [ [ [ 208981.044377598620486, 533992.000954707502387 ], [ 208948.945353067858377, 533947.340796065051109 ], [ 208912.965223432838684, 533973.180008789990097 ], [ 208945.08424741064664, 534017.870167501736432 ], [ 208981.044377598620486, 533992.000954707502387 ] ] ] } },
{ "type": "Feature", "properties": { "zoneCode": "41135MX2001001", "zoneName": "성남판교지구 택지개발사업", "blockName": "지원", "blockType": "도시지원시설용지", "lotName": "지원", "analysis_category": "제1판교테크노밸리 후보: 도시지원시설용지", "parcel_id": "지원", "area_sqm": 9066.1574300015691 }, "geometry": { "type": "Polygon", "coordinates": [ [ [ 209694.06616029003635, 533528.9161623979453 ], [ 209688.416296662413515, 533523.246116835391149 ], [ 209592.697064890846377, 533522.864577193860896 ], [ 209545.527443251921795, 533522.693818350322545 ], [ 209545.546862957067788, 533558.693529846379533 ], [ 209545.586458318895893, 533583.783329200465232 ], [ 209694.055265002825763, 533584.475716542452574 ], [ 209694.06616029003635, 533528.9161623979453 ] ] ] } },
{ "type": "Feature", "properties": { "zoneCode": "41135MX2001001", "zoneName": "성남판교지구 택지개발사업", "blockName": "지원", "blockType": "도시지원시설용지", "lotName": "지원", "analysis_category": "제1판교테크노밸리 후보: 도시지원시설용지", "parcel_id": "지원", "area_sqm": 2812.9230110577992 }, "geometry": { "type": "Polygon", "coordinates": [ [ [ 209138.67806987039512, 533684.895960363326594 ], [ 209130.708134488988435, 533684.825832499656826 ], [ 209124.688184225989971, 533684.715736376005225 ], [ 209118.668235241348157, 533684.525740898563527 ], [ 209112.648287865886232, 533684.235546216368675 ], [ 209106.648341427120613, 533683.875452426495031 ], [ 209100.628396194602828, 533683.455358799197711 ], [ 209094.588452644122299, 533682.935265652835369 ], [ 209088.688412693823921, 533688.335127234808169 ], [ 209088.657695265079383, 533732.87476922525093 ], [ 209095.467523111816263, 533740.194820192875341 ], [ 209106.517422492441256, 533740.974991988274269 ], [ 209111.527378543454688, 533741.225070721935481 ], [ 209121.56729209565674, 533741.625229290453717 ], [ 209126.577249994326849, 533741.765308900270611 ], [ 209131.597208554070676, 533741.85538906196598 ], [ 209138.667151577741606, 533741.895502674160525 ], [ 209138.67806987039512, 533684.895960363326594 ] ] ] } },
{ "type": "Feature", "properties": { "zoneCode": "41135MX2001001", "zoneName": "성남판교지구 택지개발사업", "blockName": "지원", "blockType": "도시지원시설용지", "lotName": "지원", "analysis_category": "제1판교테크노밸리 후보: 도시지원시설용지", "parcel_id": "지원", "area_sqm": 3904.0064027656213 }, "geometry": { "type": "Polygon", "coordinates": [ [ [ 209195.166649503866211, 533745.116387278772891 ], [ 209218.607427662995178, 533685.237245629657991 ], [ 209201.637563962867716, 533685.166972724953666 ], [ 209201.407559358573053, 533685.566965808626264 ], [ 209200.837550365075003, 533686.406949886819348 ], [ 209200.22754228967824, 533687.206933628651313 ], [ 209199.547535643738229, 533687.956916647148319 ], [ 209198.837529900163645, 533688.666899512521923 ], [ 209198.057525428244844, 533689.326881650136784 ], [ 209197.247522366786143, 533689.916863860096782 ], [ 209196.397520104568684, 533690.476845669327304 ], [ 209195.517519424873171, 533690.956827639485709 ], [ 209194.597519836563151, 533691.38680936046876 ], [ 209193.657521380810067, 533691.75679124169983 ], [ 209192.687524265376851, 533692.0567732071504 ], [ 209191.707528142404044, 533692.2967554962961 ], [ 209190.717533331015147, 533692.466738167917356 ], [ 209189.707539950410137, 533692.556721171247773 ], [ 209188.707547250261996, 533692.596704737399705 ], [ 209187.687556007469539, 533692.556688624201342 ], [ 209186.687565556843765, 533692.456673315609805 ], [ 209185.687576165742939, 533692.296658477978781 ], [ 209184.707587803917704, 533692.056644610245712 ], [ 209183.747600429313025, 533691.746631634887308 ], [ 209182.807613913086243, 533691.37661945389118 ], [ 209181.887627985415747, 533690.956608007312752 ], [ 209180.117658053495688, 533689.966587422182783 ], [ 209178.577691301936284, 533688.66657305159606 ], [ 209177.837708456645487, 533687.966566736227833 ], [ 209177.177726109977812, 533687.196562288678251 ], [ 209176.507743049209239, 533686.476557263289578 ], [ 209175.687758755258983, 533685.90654863032978 ], [ 209174.787772364623379, 533685.506537339184433 ], [ 209173.82778389408486, 533685.266523797530681 ], [ 209172.847793909255415, 533685.126509124180302 ], [ 209171.857802304672077, 533685.096593418158591 ], [ 209138.67806987039512, 533684.895960363326594 ], [ 209138.667151577741606, 533741.895502674160525 ], [ 209148.647071544924984, 533741.925663244910538 ], [ 209160.586927294381894, 533744.975831169751473 ], [ 209192.686669169925153, 533745.126347235054709 ], [ 209195.166649503866211, 533745.116387278772891 ] ] ] } },
{ "type": "Feature", "properties": { "zoneCode": "41135MX2001001", "zoneName": "성남판교지구 택지개발사업", "blockName": "지원", "blockType": "도시지원시설용지", "lotName": "지원", "analysis_category": "제1판교테크노밸리 후보: 도시지원시설용지", "parcel_id": "지원", "area_sqm": 6424.7103173079304 }, "geometry": { "type": "Polygon", "coordinates": [ [ [ 209831.57514728224487, 533523.84841941751074 ], [ 209731.745948943484109, 533523.416813822695985 ], [ 209726.065903468464967, 533529.046677115606144 ], [ 209726.055009563831845, 533584.516231988673098 ], [ 209831.314164479699684, 533584.957925063325092 ], [ 209831.57514728224487, 533523.84841941751074 ] ] ] } },
{ "type": "Feature", "properties": { "zoneCode": "41135MX2001001", "zoneName": "성남판교지구 택지개발사업", "blockName": "지원", "blockType": "도시지원시설용지", "lotName": "지원", "analysis_category": "제1판교테크노밸리 후보: 도시지원시설용지", "parcel_id": "지원", "area_sqm": 11060.686668616308 }, "geometry": { "type": "Polygon", "coordinates": [ [ [ 209252.892843541310867, 533952.765650745597668 ], [ 209256.352848235808779, 533950.765722564654425 ], [ 209259.862851030746242, 533948.855794458184391 ], [ 209263.43285159880179, 533947.055866452283226 ], [ 209273.442847891361453, 533942.336065664887428 ], [ 209292.352846334833885, 533933.086544689256698 ], [ 209295.832850827369839, 533931.086516830488108 ], [ 209299.20285895554116, 533928.916588560212404 ], [ 209305.722882054920774, 533924.256731054279953 ], [ 209308.862897476239596, 533921.746801798930392 ], [ 209311.892915454227477, 533919.13687158736866 ], [ 209317.692958143743454, 533913.617009374662302 ], [ 209320.412984042515745, 533910.667076884885319 ], [ 209323.053011646872619, 533907.647143674897961 ], [ 209325.583041790203424, 533904.527209503576159 ], [ 209327.983073910640087, 533901.347273707855493 ], [ 209330.263109082472511, 533898.037337027024478 ], [ 209348.143395839084405, 533871.407838943530805 ], [ 209350.543428127886727, 533868.217903226846829 ], [ 209353.793463632056955, 533864.407986187725328 ], [ 209356.623486844036961, 533861.568054604809731 ], [ 209359.593505996803287, 533858.908123819506727 ], [ 209365.163530932331923, 533854.60824809432961 ], [ 209367.69353690254502, 533852.988301875302568 ], [ 209368.88353786082007, 533852.338326276629232 ], [ 209368.88460852886783, 533785.898859533597715 ], [ 209328.104935990675585, 533785.738203597487882 ], [ 209308.654885582684074, 533798.477787896292284 ], [ 209284.684187244391069, 533853.666958596790209 ], [ 209282.624129660165636, 533858.256888567237183 ], [ 209280.534073168295436, 533862.796818431466818 ], [ 209278.404016813205089, 533867.346747583476827 ], [ 209276.213961309753358, 533871.876675928360783 ], [ 209273.663902453467017, 533876.786595416953787 ], [ 209264.793829415080836, 533885.706380870658904 ], [ 209263.203800947929267, 533888.256334764068015 ], [ 209260.513754100975348, 533892.496257385588251 ], [ 209257.74370866297977, 533896.686179106822237 ], [ 209254.953663846012205, 533900.846100746653974 ], [ 209252.103619811823592, 533904.986021594842896 ], [ 209249.223576673888601, 533909.085942257428542 ], [ 209246.3035342223302, 533913.165862443274818 ], [ 209243.343492513289675, 533917.215782231418416 ], [ 209240.353451580129331, 533921.235701766214333 ], [ 209237.32341109708068, 533925.24562074278947 ], [ 209234.223372297332389, 533929.185539152589627 ], [ 209231.103334029467078, 533933.105457407538779 ], [ 209228.173299026530003, 533936.725381120224483 ], [ 209249.902837714616908, 533954.60558779083658 ], [ 209252.892843541310867, 533952.765650745597668 ] ] ] } },
{ "type": "Feature", "properties": { "zoneCode": "41135MX2001001", "zoneName": "성남판교지구 택지개발사업", "blockName": "지원", "blockType": "도시지원시설용지", "lotName": "지원", "analysis_category": "제1판교테크노밸리 후보: 도시지원시설용지", "parcel_id": "지원", "area_sqm": 1349.3690715646712 }, "geometry": { "type": "Polygon", "coordinates": [ [ [ 209592.687986574310344, 533465.67503581312485 ], [ 209545.498365509120049, 533465.474276908440515 ], [ 209545.514804523903877, 533494.074047738802619 ], [ 209592.687525715533411, 533494.274806374800391 ], [ 209592.687986574310344, 533465.67503581312485 ] ] ] } },
{ "type": "Feature", "properties": { "zoneCode": "41135MX2001001", "zoneName": "성남판교지구 택지개발사업", "blockName": "지원", "blockType": "도시지원시설용지", "lotName": "지원", "analysis_category": "제1판교테크노밸리 후보: 도시지원시설용지", "parcel_id": "지원", "area_sqm": 6455.008566294925 }, "geometry": { "type": "Polygon", "coordinates": [ [ [ 209018.803519836335909, 533405.88626811793074 ], [ 209015.653545078035677, 533405.876217451528646 ], [ 209003.763688851671759, 533402.826050365925767 ], [ 208977.033903713017935, 533402.705620693741366 ], [ 208969.353861607902218, 533409.115445527015254 ], [ 208968.283770118490793, 533415.32537844334729 ], [ 208967.273699053446762, 533420.235322762862779 ], [ 208966.333643774210941, 533424.135276318760589 ], [ 208965.203590886405436, 533427.97522730124183 ], [ 208963.603527125756955, 533432.725163395283744 ], [ 208961.973463706701295, 533437.465099092223682 ], [ 208960.313400899118278, 533442.185034474823624 ], [ 208956.943275838304544, 533451.61490449460689 ], [ 208955.223213339428185, 533456.344838814460672 ], [ 208953.45315194487921, 533461.03477266151458 ], [ 208951.613091213424923, 533465.714705456746742 ], [ 208949.753031121130334, 533470.364638177212328 ], [ 208945.562900131160859, 533480.564488801639527 ], [ 208943.612841628142633, 533485.164420472458005 ], [ 208941.632783119392116, 533489.7744515723316 ], [ 208939.582725684158504, 533494.354281772160903 ], [ 208937.692677858576644, 533498.254220025264658 ], [ 208942.052534119080519, 533505.024235931574367 ], [ 209018.791916860209312, 533505.395569337299094 ], [ 209018.803519836335909, 533405.88626811793074 ] ] ] } },
{ "type": "Feature", "properties": { "zoneCode": "41135MX2001001", "zoneName": "성남판교지구 택지개발사업", "blockName": "지원", "blockType": "도시지원시설용지", "lotName": "지원", "analysis_category": "제1판교테크노밸리 후보: 도시지원시설용지", "parcel_id": "지원", "area_sqm": 13294.395622807042 }, "geometry": { "type": "Polygon", "coordinates": [ [ [ 209018.701675860764226, 533520.395347493933514 ], [ 208931.932373525720323, 533519.993952732067555 ], [ 208925.112360582570545, 533524.173809292493388 ], [ 208921.952284547500312, 533530.453707976732403 ], [ 208919.652231217449298, 533534.903635209891945 ], [ 208917.322178394562798, 533539.333562102401629 ], [ 208914.912126911949599, 533543.723488044692203 ], [ 208912.46207615188905, 533548.083413576707244 ], [ 208910.00202549630194, 533552.443338942714036 ], [ 208907.491975732904393, 533556.773263744777068 ], [ 208904.961926483636489, 533561.083188388962299 ], [ 208902.361878431343939, 533565.353112227516249 ], [ 208897.491786597238388, 533573.462968662846833 ], [ 208893.211710986681283, 533580.272845041472465 ], [ 208890.511664301768178, 533584.50276758428663 ], [ 208887.751618837210117, 533588.69268948584795 ], [ 208884.451565836672671, 533593.61259682464879 ], [ 208886.201426129729953, 533601.422562325373292 ], [ 208891.671330516779562, 533604.65272452624049 ], [ 208896.041256166237872, 533607.102675260277465 ], [ 208903.961123858229257, 533611.402868336183019 ], [ 208908.411051038448932, 533613.722821417846717 ], [ 208912.860979147139005, 533615.982874965528026 ], [ 208917.330907576339087, 533618.212929086294025 ], [ 208921.830836618144531, 533620.392984082456678 ], [ 208926.360765875258949, 533622.543039819924161 ], [ 208930.900695896154502, 533624.643096097745001 ], [ 208935.47062625689432, 533626.703153194976039 ], [ 208940.040557672968134, 533628.703210774692707 ], [ 208945.560475688194856, 533631.063280762406066 ], [ 208950.190408211725298, 533632.963440112536773 ], [ 208954.830341068271082, 533634.833399854949676 ], [ 208959.510274993430357, 533636.623460895381868 ], [ 208964.200209718284896, 533638.353522567078471 ], [ 208968.910144962952472, 533640.043584885308519 ], [ 208977.740024675498717, 533643.14370227791369 ], [ 208982.46996070939349, 533644.773765400517732 ], [ 208987.22989766029059, 533646.333929574815556 ], [ 208991.999835669295862, 533647.823894468601793 ], [ 208996.789774824574124, 533649.233960332348943 ], [ 209001.609714343619999, 533650.604026995250024 ], [ 209006.439654277230147, 533651.944094051606953 ], [ 209011.279594727209769, 533653.244161604088731 ], [ 209016.109535962488735, 533654.504229318350554 ], [ 209018.689505116140936, 533655.144265747396275 ], [ 209018.701675860764226, 533520.395347493933514 ] ] ] } },
{ "type": "Feature", "properties": { "zoneCode": "41135MX2001001", "zoneName": "성남판교지구 택지개발사업", "blockName": "지원", "blockType": "도시지원시설용지", "lotName": "지원", "analysis_category": "제1판교테크노밸리 후보: 도시지원시설용지", "parcel_id": "지원", "area_sqm": 2541.6861746746063 }, "geometry": { "type": "Polygon", "coordinates": [ [ [ 208838.873871346673695, 534093.747846599319018 ], [ 208841.533879039023304, 534091.957903842558153 ], [ 208846.873893517447868, 534088.418018322554417 ], [ 208849.573901601426769, 534086.578076606150717 ], [ 208873.273987359309103, 534069.528595457784832 ], [ 208839.675008754071314, 534022.758429653593339 ], [ 208803.744879041536478, 534048.587643240694888 ], [ 208837.083868530549807, 534094.807809249381535 ], [ 208838.873871346673695, 534093.747846599319018 ] ] ] } },
{ "type": "Feature", "properties": { "zoneCode": "41135MX2001001", "zoneName": "성남판교지구 택지개발사업", "blockName": "지원", "blockType": "도시지원시설용지", "lotName": "지원", "analysis_category": "제1판교테크노밸리 후보: 도시지원시설용지", "parcel_id": "지원", "area_sqm": 1599.8167561168164 }, "geometry": { "type": "Polygon", "coordinates": [ [ [ 209592.678907907247776, 533408.505494248238392 ], [ 209587.039044302597176, 533402.825448914663866 ], [ 209545.469377852627076, 533402.66478028264828 ], [ 209545.486326282902155, 533436.884506064699963 ], [ 209592.688447304914007, 533437.085265147150494 ], [ 209592.678907907247776, 533408.505494248238392 ] ] ] } },
{ "type": "Feature", "properties": { "zoneCode": "41135MX2001001", "zoneName": "성남판교지구 택지개발사업", "blockName": "지원", "blockType": "도시지원시설용지", "lotName": "지원", "analysis_category": "제1판교테크노밸리 후보: 도시지원시설용지", "parcel_id": "지원", "area_sqm": 1500.9450618871656 }, "geometry": { "type": "Polygon", "coordinates": [ [ [ 209648.678501569491345, 533406.056416380684823 ], [ 209613.368784726626473, 533405.925848375074565 ], [ 209607.678739360300824, 533411.555711512686685 ], [ 209607.688234352273867, 533442.885460362653248 ], [ 209648.687904939404689, 533443.076119589619339 ], [ 209648.678501569491345, 533406.056416380684823 ] ] ] } },
{ "type": "Feature", "properties": { "zoneCode": "41135MX2001001", "zoneName": "성남판교지구 택지개발사업", "blockName": "지원", "blockType": "도시지원시설용지", "lotName": "지원", "analysis_category": "제1판교테크노밸리 후보: 도시지원시설용지", "parcel_id": "지원", "area_sqm": 1545.0713061383751 }, "geometry": { "type": "Polygon", "coordinates": [ [ [ 209691.077565827319631, 533443.176801968715154 ], [ 209691.068048085377086, 533413.257041798438877 ], [ 209684.008218324626796, 533406.176984796184115 ], [ 209648.678501569491345, 533406.056416380684823 ], [ 209648.687904939404689, 533443.076119589619339 ], [ 209691.097564385767328, 533443.256801654119045 ], [ 209691.077565827319631, 533443.176801968715154 ] ] ] } },
{ "type": "Feature", "properties": { "zoneCode": "41135MX2001001", "zoneName": "성남판교지구 택지개발사업", "blockName": "지원", "blockType": "도시지원시설용지", "lotName": "지원", "analysis_category": "제1판교테크노밸리 후보: 도시지원시설용지", "parcel_id": "지원", "area_sqm": 8509.945133207817 }, "geometry": { "type": "Polygon", "coordinates": [ [ [ 209173.710763393697562, 533500.398005552939139 ], [ 209173.712232427729759, 533409.218737225863151 ], [ 209168.062368740706006, 533403.54869169741869 ], [ 209138.762603972980287, 533403.428220580215566 ], [ 209126.71265260889777, 533406.368002832867205 ], [ 209095.782901077007409, 533406.237505548400804 ], [ 209088.692843944299966, 533413.287334742373787 ], [ 209088.681445660593454, 533500.086638005916029 ], [ 209094.341309557581553, 533505.736683856928721 ], [ 209168.050717443285976, 533506.047869022237137 ], [ 209173.710763393697562, 533500.398005552939139 ] ] ] } },
{ "type": "Feature", "properties": { "zoneCode": "41135MX2001001", "zoneName": "성남판교지구 택지개발사업", "blockName": "지원", "blockType": "도시지원시설용지", "lotName": "지원", "analysis_category": "제1판교테크노밸리 후보: 도시지원시설용지", "parcel_id": "지원", "area_sqm": 1332.8907487626923 }, "geometry": { "type": "Polygon", "coordinates": [ [ [ 209648.687904939404689, 533443.076119589619339 ], [ 209607.688234352273867, 533442.885460362653248 ], [ 209607.687710317957681, 533475.405299498699605 ], [ 209648.687381221883697, 533475.575858899392188 ], [ 209648.687904939404689, 533443.076119589619339 ] ] ] } },
{ "type": "Feature", "properties": { "zoneCode": "41135MX2001001", "zoneName": "성남판교지구 택지개발사업", "blockName": "지원", "blockType": "도시지원시설용지", "lotName": "지원", "analysis_category": "제1판교테크노밸리 후보: 도시지원시설용지", "parcel_id": "지원", "area_sqm": 1456.0073287182965 }, "geometry": { "type": "Polygon", "coordinates": [ [ [ 209694.087332209572196, 533456.186746119288728 ], [ 209691.097564385767328, 533443.256801654119045 ], [ 209648.687904939404689, 533443.076119589619339 ], [ 209648.687381221883697, 533475.575858899392188 ], [ 209694.077016793715302, 533475.76658890536055 ], [ 209694.087332209572196, 533456.186746119288728 ] ] ] } },
{ "type": "Feature", "properties": { "zoneCode": "41135MX2001001", "zoneName": "성남판교지구 택지개발사업", "blockName": "지원", "blockType": "도시지원시설용지", "lotName": "지원", "analysis_category": "제1판교테크노밸리 후보: 도시지원시설용지", "parcel_id": "지원", "area_sqm": 1819.0117529448944 }, "geometry": { "type": "Polygon", "coordinates": [ [ [ 208962.549974456604104, 533653.773372195078991 ], [ 208959.240020334284054, 533652.563328583724797 ], [ 208953.610099470242858, 533650.433254969655536 ], [ 208947.820181848015636, 533648.183179744053632 ], [ 208942.250262480898527, 533645.933108064811677 ], [ 208936.700344063719967, 533643.613037270144559 ], [ 208933.310394799540518, 533642.142994447611272 ], [ 208911.489757349103456, 533692.502238604705781 ], [ 208917.649665507342434, 533695.152316573425196 ], [ 208922.279597737826407, 533697.07237576704938 ], [ 208926.91953059102525, 533698.942435516160913 ], [ 208931.579463868169114, 533700.782495819730684 ], [ 208936.249397490319097, 533702.592556533054449 ], [ 208940.959331415157067, 533704.362618212006055 ], [ 208943.799292208394036, 533705.392655710107647 ], [ 208962.549974456604104, 533653.773372195078991 ] ] ] } },
{ "type": "Feature", "properties": { "zoneCode": "41135MX2001001", "zoneName": "성남판교지구 택지개발사업", "blockName": "지원", "blockType": "도시지원시설용지", "lotName": "지원", "analysis_category": "제1판교테크노밸리 후보: 도시지원시설용지", "parcel_id": "지원", "area_sqm": 5179.143229759271 }, "geometry": { "type": "Polygon", "coordinates": [ [ [ 209173.699848977295915, 533557.15754989546258 ], [ 209173.710430370498216, 533521.067839685478248 ], [ 209094.331067966850242, 533520.736563313519582 ], [ 209088.661022118671099, 533526.386426615412347 ], [ 209088.670127382938517, 533581.91598109563347 ], [ 209173.609448209404945, 533582.077348445192911 ], [ 209173.699848977295915, 533557.15754989546258 ] ] ] } },
{ "type": "Feature", "properties": { "zoneCode": "41135MX2001001", "zoneName": "성남판교지구 택지개발사업", "blockName": "지원", "blockType": "도시지원시설용지", "lotName": "지원", "analysis_category": "제1판교테크노밸리 후보: 도시지원시설용지", "parcel_id": "지원", "area_sqm": 1459.0074315690724 }, "geometry": { "type": "Polygon", "coordinates": [ [ [ 209694.056584742793348, 533502.586373455822468 ], [ 209694.077016793715302, 533475.76658890536055 ], [ 209648.687381221883697, 533475.575858899392188 ], [ 209648.686857263615821, 533508.085598110803403 ], [ 209688.406538496958092, 533508.24623698333744 ], [ 209694.056584742793348, 533502.586373455822468 ] ] ] } },
{ "type": "Feature", "properties": { "zoneCode": "41135MX2001001", "zoneName": "성남판교지구 택지개발사업", "blockName": "지원", "blockType": "도시지원시설용지", "lotName": "지원", "analysis_category": "제1판교테크노밸리 후보: 도시지원시설용지", "parcel_id": "지원", "area_sqm": 10563.109669728608 }, "geometry": { "type": "Polygon", "coordinates": [ [ [ 209832.127028471964877, 533406.849366662674583 ], [ 209736.15779872413259, 533406.457823025644757 ], [ 209729.067741550505161, 533413.507652216823772 ], [ 209729.086938344233204, 533463.337252868805081 ], [ 209726.076759792049415, 533475.907103530364111 ], [ 209726.056327372323722, 533502.746887919027358 ], [ 209731.706190979399253, 533508.417033499106765 ], [ 209831.68538814294152, 533508.84854150947649 ], [ 209832.127028471964877, 533406.849366662674583 ] ] ] } },
{ "type": "Feature", "properties": { "zoneCode": "41135MX2001001", "zoneName": "성남판교지구 택지개발사업", "blockName": "지원", "blockType": "도시지원시설용지", "lotName": "지원", "analysis_category": "제1판교테크노밸리 후보: 도시지원시설용지", "parcel_id": "지원", "area_sqm": 13881.763908013632 }, "geometry": { "type": "Polygon", "coordinates": [ [ [ 209081.024737898580497, 533920.193142450763844 ], [ 209084.454751859186217, 533917.63321826653555 ], [ 209087.854767411918147, 533914.983294336823747 ], [ 209091.234783540217904, 533912.313370241550729 ], [ 209097.904819487186614, 533906.783522125566378 ], [ 209101.134837729448918, 533904.053596100653522 ], [ 209104.464858100109268, 533901.143673132639378 ], [ 209107.604877697944175, 533898.373745966120623 ], [ 209110.834899214241887, 533895.44382154091727 ], [ 209117.034946433181176, 533889.44396962178871 ], [ 209123.054996150720399, 533883.384115275577642 ], [ 209126.075022517616162, 533880.254189080325887 ], [ 209128.995049051503884, 533877.164260944118723 ], [ 209131.945077110372949, 533873.964334171381779 ], [ 209134.775106123124715, 533870.76440545974765 ], [ 209138.245143546169857, 533866.724493812536821 ], [ 209140.405166290554916, 533864.244548539165407 ], [ 209148.685271299385931, 533853.634767149225809 ], [ 209151.335305559041444, 533850.194837468443438 ], [ 209153.905341330508236, 533846.704906902741641 ], [ 209156.425377361651044, 533843.224975450430065 ], [ 209158.905414131033467, 533839.715043580858037 ], [ 209161.305451569700381, 533836.205110447946936 ], [ 209163.735490554128774, 533832.585178650566377 ], [ 209166.065530300198589, 533828.965245264349505 ], [ 209167.775560994516127, 533826.215294892550446 ], [ 209168.345570456411224, 533825.345311066950671 ], [ 209172.815653793688398, 533817.965442349785008 ], [ 209177.095740005344851, 533810.495571294683032 ], [ 209179.185785075969761, 533806.665635702898726 ], [ 209181.255830940703163, 533802.795700127724558 ], [ 209183.225878286146326, 533798.885763262514956 ], [ 209185.285925489093643, 533794.935828165849671 ], [ 209187.375978342286544, 533790.625896438956261 ], [ 209188.916022296238225, 533787.13594927219674 ], [ 209189.756048152805306, 533785.115979015943594 ], [ 209137.166470365191344, 533784.915133164729923 ], [ 209127.57649989327183, 533787.82495527015999 ], [ 209122.566541563108331, 533787.714875420904718 ], [ 209117.546584432973759, 533787.534795967745595 ], [ 209112.546627656265628, 533787.324717086972669 ], [ 209107.536671610025223, 533787.074638365767896 ], [ 209102.516716302576242, 533786.784559798310511 ], [ 209094.296789993328275, 533786.27443144028075 ], [ 209086.38675452710595, 533792.384254933102056 ], [ 209084.846643905329984, 533800.014168852707371 ], [ 209084.196601897710934, 533802.944134861929342 ], [ 209083.466560604341794, 533805.864099652855657 ], [ 209082.656520241202088, 533808.774163240450434 ], [ 209081.786480529874098, 533811.664026024984196 ], [ 209080.876441566710128, 533814.53398832201492 ], [ 209079.946403052977985, 533817.383950451156124 ], [ 209078.946365311043337, 533820.223911534296349 ], [ 209077.88632848256384, 533823.033871887950227 ], [ 209076.776291823596694, 533825.853831374552101 ], [ 209075.586256668437272, 533828.623789957724512 ], [ 209074.366221977543319, 533831.383748143329285 ], [ 209073.066188311000587, 533834.113705275463872 ], [ 209071.74615564616397, 533836.793662495212629 ], [ 209068.936091824230971, 533842.143574247602373 ], [ 209067.466060904233018, 533844.793529294314794 ], [ 209065.906031687743962, 533847.373483446892351 ], [ 209062.665975228796015, 533852.483390213921666 ], [ 209061.025947651272872, 533855.003343548509292 ], [ 209059.325920975330519, 533857.503296076320112 ], [ 209057.545896003925009, 533859.933247883687727 ], [ 209055.725872095878003, 533862.31319944979623 ], [ 209053.845849092933349, 533864.673150206566788 ], [ 209051.94582683898625, 533866.993100966443308 ], [ 209050.065806354716187, 533869.193053014343604 ], [ 209048.085785739007406, 533871.453102951869369 ], [ 209046.065765757841291, 533873.692952419398353 ], [ 209044.025746580242412, 533875.892901898128912 ], [ 209041.925728609843645, 533878.042850789730437 ], [ 209039.775711580237839, 533880.162799116107635 ], [ 209037.585695903457236, 533882.22274729621131 ], [ 209035.335681277705589, 533884.242694819462486 ], [ 209033.075667206168873, 533886.232642434653826 ], [ 209030.795654086425202, 533888.172590103466064 ], [ 209028.445642195292749, 533890.072536980849691 ], [ 209026.075631460407749, 533891.912484017433599 ], [ 209023.655621575540863, 533893.722430484718643 ], [ 209021.225612253794679, 533895.502377036493272 ], [ 208993.045512187323766, 533915.651761148241349 ], [ 209025.17453700810438, 533960.281920544453897 ], [ 209081.024737898580497, 533920.193142450763844 ] ] ] } },
{ "type": "Feature", "properties": { "zoneCode": "41135MX2001001", "zoneName": "성남판교지구 택지개발사업", "blockName": "지원", "blockType": "도시지원시설용지", "lotName": "지원", "analysis_category": "제1판교테크노밸리 후보: 도시지원시설용지", "parcel_id": "지원", "area_sqm": 7459.9762305560207 }, "geometry": { "type": "Polygon", "coordinates": [ [ [ 208815.987029191077454, 533909.078960888553411 ], [ 208767.288507331890287, 533841.418719572131522 ], [ 208759.308580940734828, 533840.798595974571072 ], [ 208698.468081228085794, 533901.917124906438403 ], [ 208741.886761396657676, 533962.357339070062153 ], [ 208815.987029191077454, 533909.078960888553411 ] ] ] } },
{ "type": "Feature", "properties": { "zoneCode": "41135MX2001001", "zoneName": "성남판교지구 택지개발사업", "blockName": "지원", "blockType": "도시지원시설용지", "lotName": "지원", "analysis_category": "제1판교테크노밸리 후보: 도시지원시설용지", "parcel_id": "지원", "area_sqm": 8627.275317069314 }, "geometry": { "type": "Polygon", "coordinates": [ [ [ 208973.275837634515483, 533905.231526246061549 ], [ 208927.407233026518952, 533841.311300366185606 ], [ 208838.066910539666424, 533905.519345240667462 ], [ 208879.845640982530313, 533963.64955164375715 ], [ 208889.715536343108397, 533965.259697756962851 ], [ 208973.275837634515483, 533905.231526246061549 ] ] ] } },
{ "type": "Feature", "properties": { "zoneCode": "41135MX2001001", "zoneName": "성남판교지구 택지개발사업", "blockName": "지원", "blockType": "도시지원시설용지", "lotName": "지원", "analysis_category": "제1판교테크노밸리 후보: 도시지원시설용지", "parcel_id": "지원", "area_sqm": 4209.8974994453456 }, "geometry": { "type": "Polygon", "coordinates": [ [ [ 208650.228626710362732, 533929.167028827709146 ], [ 208682.388291849230882, 533896.796906960429624 ], [ 208648.68931589226122, 533849.906740595586598 ], [ 208614.55893085282878, 533890.695863122236915 ], [ 208611.708762812369969, 533902.535722116241232 ], [ 208610.638193980877986, 533938.375417014700361 ], [ 208613.937727600947255, 533965.69525073945988 ], [ 208650.228626710362732, 533929.167028827709146 ] ] ] } },
{ "type": "Feature", "properties": { "zoneCode": "41135MX2001001", "zoneName": "성남판교지구 택지개발사업", "blockName": "지원", "blockType": "도시지원시설용지", "lotName": "지원", "analysis_category": "제1판교테크노밸리 후보: 도시지원시설용지", "parcel_id": "지원", "area_sqm": 9116.8426742265656 }, "geometry": { "type": "Polygon", "coordinates": [ [ [ 209249.048437888908666, 533607.488360140821896 ], [ 209088.669726379797794, 533606.805781324510463 ], [ 209088.678837916464545, 533661.945338901132345 ], [ 209094.0886999280483, 533667.835478799184784 ], [ 209099.028653978166403, 533668.245455098804086 ], [ 209104.008608008443844, 533668.635532217333093 ], [ 209109.008562915492803, 533668.965610137674958 ], [ 209113.998518459120532, 533669.255688219564036 ], [ 209118.998474731051829, 533669.495766850188375 ], [ 209124.008432298724074, 533669.655846302048303 ], [ 209129.02839037484955, 533669.775926227332093 ], [ 209134.038349490030669, 533669.83610647788737 ], [ 209172.138041735393927, 533670.096618315204978 ], [ 209173.268035521236015, 533669.926637897500768 ], [ 209174.218032750708517, 533669.626655612839386 ], [ 209175.128032144799363, 533669.216673557879403 ], [ 209175.988032886874862, 533668.746691188192926 ], [ 209176.798035759362392, 533668.166708901757374 ], [ 209177.528040581470123, 533667.506725958315656 ], [ 209178.238046552054584, 533666.786743190488778 ], [ 209178.988051311665913, 533666.116760647390038 ], [ 209179.778055018716259, 533665.496778344735503 ], [ 209180.61805751270731, 533664.926796459825709 ], [ 209181.498058586876141, 533664.426814661826938 ], [ 209182.398058659338858, 533663.976832769578323 ], [ 209183.328057535050903, 533663.586850890773349 ], [ 209184.288055019918829, 533663.266868921578862 ], [ 209185.268051535502309, 533662.996886884327978 ], [ 209186.258046927367104, 533662.796904429676943 ], [ 209187.258041011431487, 533662.666921599186026 ], [ 209188.268033925269265, 533662.606938355020247 ], [ 209189.278025793930283, 533662.616954555851407 ], [ 209190.278016797965392, 533662.676970179774798 ], [ 209191.278006418928271, 533662.826985098654404 ], [ 209192.267995337810135, 533663.027099432772957 ], [ 209193.237983055150835, 533663.307012814679183 ], [ 209194.197969921253389, 533663.647025560145266 ], [ 209195.127955981646664, 533664.057037259219214 ], [ 209196.017941441270523, 533664.517047911183909 ], [ 209196.887926104274811, 533665.037057750043459 ], [ 209197.717910184292123, 533665.61706647858955 ], [ 209198.537893994071055, 533666.217074864311144 ], [ 209199.937859332101652, 533667.677085708710365 ], [ 209200.577841655060183, 533668.457089776406065 ], [ 209201.167823699390283, 533669.277092691627331 ], [ 209201.697805310832337, 533670.157094172434881 ], [ 209224.467622678785119, 533670.237460450385697 ], [ 209249.048437888908666, 533607.488360140821896 ] ] ] } },
{ "type": "Feature", "properties": { "zoneCode": "41135MX2001001", "zoneName": "성남판교지구 택지개발사업", "blockName": "지원", "blockType": "도시지원시설용지", "lotName": "지원", "analysis_category": "제1판교테크노밸리 후보: 도시지원시설용지", "parcel_id": "지원", "area_sqm": 10784.823229582489 }, "geometry": { "type": "Polygon", "coordinates": [ [ [ 209530.546176629752154, 533608.69288694835268 ], [ 209370.567461652914062, 533608.010314206359908 ], [ 209370.257454672886524, 533608.600304482271895 ], [ 209369.447431407606928, 533610.440276662120596 ], [ 209352.296810420200927, 533657.459622959140688 ], [ 209351.996797461470123, 533658.409710502135567 ], [ 209351.546769630454946, 533660.359587605926208 ], [ 209351.25674001587322, 533662.33956703718286 ], [ 209350.326609848270891, 533670.879483513301238 ], [ 209418.476062542526051, 533671.160579557646997 ], [ 209530.505163544468815, 533671.582381690386683 ], [ 209530.546176629752154, 533608.69288694835268 ] ] ] } },
{ "type": "Feature", "properties": { "zoneCode": "41135MX2001001", "zoneName": "성남판교지구 택지개발사업", "blockName": "지원", "blockType": "도시지원시설용지", "lotName": "지원", "analysis_category": "제1판교테크노밸리 후보: 도시지원시설용지", "parcel_id": "지원", "area_sqm": 9329.0241160987553 }, "geometry": { "type": "Polygon", "coordinates": [ [ [ 209694.073941558308434, 533666.585058137075976 ], [ 209694.064863497886108, 533609.385516866110265 ], [ 209545.546057184779784, 533608.693128699203953 ], [ 209545.505043124721851, 533671.642622961546294 ], [ 209688.403895674244268, 533672.234921410912648 ], [ 209694.073941558308434, 533666.585058137075976 ] ] ] } },
{ "type": "Feature", "properties": { "zoneCode": "41135MX2001001", "zoneName": "성남판교지구 택지개발사업", "blockName": "지원", "blockType": "도시지원시설용지", "lotName": "지원", "analysis_category": "제1판교테크노밸리 후보: 도시지원시설용지", "parcel_id": "지원", "area_sqm": 3100.1372841098591 }, "geometry": { "type": "Polygon", "coordinates": [ [ [ 209523.013982490141643, 533748.571643180563115 ], [ 209530.503922832751414, 533748.571763915126212 ], [ 209530.494921840348979, 533686.582261169096455 ], [ 209481.995310999132926, 533686.401480953441933 ], [ 209482.004263624112355, 533751.390959592768922 ], [ 209503.014094879850745, 533751.481297485646792 ], [ 209523.013982490141643, 533748.571643180563115 ] ] ] } },
{ "type": "Feature", "properties": { "zoneCode": "41135MX2001001", "zoneName": "성남판교지구 택지개발사업", "blockName": "지원", "blockType": "도시지원시설용지", "lotName": "지원", "analysis_category": "제1판교테크노밸리 후보: 도시지원시설용지", "parcel_id": "지원", "area_sqm": 2770.2409204561523 }, "geometry": { "type": "Polygon", "coordinates": [ [ [ 208722.188618546089856, 533856.827869195491076 ], [ 208685.639729505288415, 533805.947688924497925 ], [ 208671.029567773832241, 533823.217314848792739 ], [ 208655.309390720678493, 533841.986910848761909 ], [ 208689.548350483120885, 533889.617079974035732 ], [ 208722.188618546089856, 533856.827869195491076 ] ] ] } },
{ "type": "Feature", "properties": { "zoneCode": "41135MX2001001", "zoneName": "성남판교지구 택지개발사업", "blockName": "지원", "blockType": "도시지원시설용지", "lotName": "지원", "analysis_category": "제1판교테크노밸리 후보: 도시지원시설용지", "parcel_id": "지원", "area_sqm": 9928.6895016934941 }, "geometry": { "type": "Polygon", "coordinates": [ [ [ 208921.527410179114668, 533833.221270586363971 ], [ 208928.967655293119606, 533814.331542133237235 ], [ 208830.44906421774067, 533775.610265622963198 ], [ 208822.619099962263135, 533777.260126227862202 ], [ 208781.71876362679177, 533818.369137152796611 ], [ 208781.078640382504091, 533826.33906284510158 ], [ 208832.227087895676959, 533897.39931636035908 ], [ 208921.527410179114668, 533833.221270586363971 ] ] ] } },
{ "type": "Feature", "properties": { "zoneCode": "41135MX2001001", "zoneName": "성남판교지구 택지개발사업", "blockName": "지원", "blockType": "도시지원시설용지", "lotName": "지원", "analysis_category": "제1판교테크노밸리 후보: 도시지원시설용지", "parcel_id": "지원", "area_sqm": 2245.9988575302896 }, "geometry": { "type": "Polygon", "coordinates": [ [ [ 208904.840837312221993, 533628.752643250394613 ], [ 208898.740936487942236, 533625.612570168799721 ], [ 208893.441024181171088, 533622.792507412144914 ], [ 208888.161112614034209, 533619.912445463705808 ], [ 208882.961201909725787, 533616.942385538015515 ], [ 208877.321300774841802, 533613.592321559553966 ], [ 208869.501336200803053, 533615.262182159814984 ], [ 208866.81129881972447, 533618.912109527271241 ], [ 208862.711239818076137, 533624.601997795514762 ], [ 208854.101129987364402, 533635.681770129362121 ], [ 208849.751076139742509, 533641.171655956888571 ], [ 208845.38102286416688, 533646.641641651047394 ], [ 208843.631000545981806, 533648.891495389747433 ], [ 208845.51082739935373, 533658.71154683327768 ], [ 208850.43074145828723, 533661.611502825515345 ], [ 208854.770666491735028, 533664.121552597731352 ], [ 208859.130591607099632, 533666.611602856661193 ], [ 208863.520517621305771, 533669.031654154532589 ], [ 208867.930443990393542, 533671.421706012682989 ], [ 208872.350370750093134, 533673.781758274533786 ], [ 208880.000246632494964, 533677.701850063400343 ], [ 208904.840837312221993, 533628.752643250394613 ] ] ] } },
{ "type": "Feature", "properties": { "zoneCode": "41135MX2001001", "zoneName": "성남판교지구 택지개발사업", "blockName": "지원", "blockType": "도시지원시설용지", "lotName": "지원", "analysis_category": "제1판교테크노밸리 후보: 도시지원시설용지", "parcel_id": "지원", "area_sqm": 2898.9200826552069 }, "geometry": { "type": "Polygon", "coordinates": [ [ [ 209371.223540007544216, 533851.048374350182712 ], [ 209373.913539877568837, 533849.728428290225565 ], [ 209376.643538308126153, 533848.478482313454151 ], [ 209379.453533789666835, 533847.368536516092718 ], [ 209382.283527032239363, 533846.388589985202998 ], [ 209385.153518361388706, 533845.508643312612548 ], [ 209388.053507145610638, 533844.76869598578196 ], [ 209391.013493416830897, 533844.158848589868285 ], [ 209393.873477727669524, 533843.718798211426474 ], [ 209396.843460161355324, 533843.338949132943526 ], [ 209399.843440471217036, 533843.078899573534727 ], [ 209412.763337035750737, 533843.1091075547738 ], [ 209418.4233830581652, 533837.459244128898717 ], [ 209418.414119738125009, 533791.749610826838762 ], [ 209412.774256061529741, 533786.079565429594368 ], [ 209368.88460852886783, 533785.898859533597715 ], [ 209368.88353786082007, 533852.338326276629232 ], [ 209371.223540007544216, 533851.048374350182712 ] ] ] } },
{ "type": "Feature", "properties": { "zoneCode": "41135MX2001001", "zoneName": "성남판교지구 택지개발사업", "blockName": "지원", "blockType": "도시지원시설용지", "lotName": "지원", "analysis_category": "제1판교테크노밸리 후보: 도시지원시설용지", "parcel_id": "지원", "area_sqm": 2937.4299000688652 }, "geometry": { "type": "Polygon", "coordinates": [ [ [ 208751.138856440637028, 533827.738569224951789 ], [ 208751.768979959306307, 533819.758643445558846 ], [ 208715.980068246164592, 533769.908467132598162 ], [ 208685.639729505288415, 533805.947688924497925 ], [ 208722.188618546089856, 533856.827869195491076 ], [ 208751.138856440637028, 533827.738569224951789 ] ] ] } },
{ "type": "Feature", "properties": { "zoneCode": "41135MX2001001", "zoneName": "성남판교지구 택지개발사업", "blockName": "지원", "blockType": "도시지원시설용지", "lotName": "지원", "analysis_category": "제1판교테크노밸리 후보: 도시지원시설용지", "parcel_id": "지원", "area_sqm": 5852.3439318350138 }, "geometry": { "type": "Polygon", "coordinates": [ [ [ 209807.050099200132536, 533849.165414393413812 ], [ 209809.560251340473769, 533838.48554055346176 ], [ 209811.690390527452109, 533828.795652628527023 ], [ 209813.720530928985681, 533819.085763261187822 ], [ 209815.680672476592008, 533809.335873079253361 ], [ 209816.610743992903735, 533804.435927391285077 ], [ 209817.510815633664606, 533799.545981125207618 ], [ 209818.370887778524775, 533794.646034303121269 ], [ 209819.180960503901588, 533789.736086759832688 ], [ 209819.931033634202322, 533784.826138244709 ], [ 209772.661413153400645, 533784.635377792874351 ], [ 209760.551462000556057, 533787.585158912697807 ], [ 209727.181729827745585, 533787.454622060758993 ], [ 209720.051673626207048, 533794.464450881816447 ], [ 209720.070958659605822, 533838.814095342997462 ], [ 209725.720822429924738, 533844.474140998790972 ], [ 209728.11080313482671, 533844.494179373141378 ], [ 209732.110769350198098, 533844.614242878742516 ], [ 209736.130734373786254, 533844.794306244235486 ], [ 209740.13069896856905, 533845.014368951204233 ], [ 209744.140662580990465, 533845.294431337621063 ], [ 209748.140625223750249, 533845.634493086254224 ], [ 209752.120586443488719, 533846.074553721351549 ], [ 209756.100546825386118, 533846.564613941009156 ], [ 209760.080506144382525, 533847.124673607060686 ], [ 209764.040464412071742, 533847.754732387373224 ], [ 209768.010421689337818, 533848.44479084701743 ], [ 209771.950378021778306, 533849.204848266439512 ], [ 209775.88033405711758, 533849.994905275874771 ], [ 209779.810288866545307, 533850.855061726761051 ], [ 209783.720243029412813, 533851.765017448808067 ], [ 209787.610196309746243, 533852.745072290650569 ], [ 209791.480148578179069, 533853.79512625595089 ], [ 209795.340099874942098, 533854.905179564608261 ], [ 209799.190050685632741, 533856.05523239960894 ], [ 209802.060013051726855, 533856.975271298317239 ], [ 209804.059986282489263, 533857.645298154558986 ], [ 209804.809975687559927, 533857.935307924984954 ], [ 209807.050099200132536, 533849.165414393413812 ] ] ] } },
{ "type": "Feature", "properties": { "zoneCode": "41135MX2001001", "zoneName": "성남판교지구 택지개발사업", "blockName": "지원", "blockType": "도시지원시설용지", "lotName": "지원", "analysis_category": "제1판교테크노밸리 후보: 도시지원시설용지", "parcel_id": "지원", "area_sqm": 4002.6721832026901 }, "geometry": { "type": "Polygon", "coordinates": [ [ [ 209650.918902689067181, 533380.056661029695533 ], [ 209683.958637769479537, 533380.177192536415532 ], [ 209691.128692981990753, 533373.207363992813043 ], [ 209691.069497864693403, 533323.28776339488104 ], [ 209694.049666901963064, 533311.327907332684845 ], [ 209694.03980232149479, 533302.927974550868385 ], [ 209639.680235026142327, 533302.927098521147855 ], [ 209639.658947403950151, 533382.846457184990868 ], [ 209650.918902689067181, 533380.056661029695533 ] ] ] } },
{ "type": "Feature", "properties": { "zoneCode": "41135MX2001001", "zoneName": "성남판교지구 택지개발사업", "blockName": "지원", "blockType": "도시지원시설용지", "lotName": "지원", "analysis_category": "제1판교테크노밸리 후보: 도시지원시설용지", "parcel_id": "지원", "area_sqm": 3767.3542862082136 }, "geometry": { "type": "Polygon", "coordinates": [ [ [ 209592.670609132997924, 533302.933240886661224 ], [ 209545.470984805870103, 533302.935580244520679 ], [ 209545.469700124667725, 533382.664940714137629 ], [ 209592.659321383805946, 533382.855699671898037 ], [ 209592.670609132997924, 533302.933240886661224 ] ] ] } },
{ "type": "Feature", "properties": { "zoneCode": "41135MX2001001", "zoneName": "성남판교지구 택지개발사업", "blockName": "지원", "blockType": "도시지원시설용지", "lotName": "지원", "analysis_category": "제1판교테크노밸리 후보: 도시지원시설용지", "parcel_id": "지원", "area_sqm": 3761.1133741671033 }, "geometry": { "type": "Polygon", "coordinates": [ [ [ 209639.658947403950151, 533382.846457184990868 ], [ 209639.680235026142327, 533302.927098521147855 ], [ 209592.670609132997924, 533302.933240886661224 ], [ 209592.659321383805946, 533382.855699671898037 ], [ 209638.888950434164144, 533383.036443253746256 ], [ 209639.658947403950151, 533382.846457184990868 ] ] ] } },
{ "type": "Feature", "properties": { "zoneCode": "41135MX2001001", "zoneName": "성남판교지구 택지개발사업", "blockName": "지원", "blockType": "도시지원시설용지", "lotName": "지원", "analysis_category": "제1판교테크노밸리 후보: 도시지원시설용지", "parcel_id": "지원", "area_sqm": 6565.9780550675187 }, "geometry": { "type": "Polygon", "coordinates": [ [ [ 209830.583074782276526, 533652.92736806825269 ], [ 209830.933392767328769, 533633.027533344458789 ], [ 209831.163712289679097, 533613.087797004496679 ], [ 209831.183762595435837, 533609.957722427556291 ], [ 209726.064606580504915, 533609.516031589941122 ], [ 209726.073684388393303, 533666.735572709236294 ], [ 209731.713547922321595, 533672.415618054685183 ], [ 209830.032757946813945, 533672.857299322145991 ], [ 209830.583074782276526, 533652.92736806825269 ] ] ] } },
{ "type": "Feature", "properties": { "zoneCode": "41135MX2001001", "zoneName": "성남판교지구 택지개발사업", "blockName": "지원", "blockType": "도시지원시설용지", "lotName": "지원", "analysis_category": "제1판교테크노밸리 후보: 도시지원시설용지", "parcel_id": "지원", "area_sqm": 2996.0468747909104 }, "geometry": { "type": "Polygon", "coordinates": [ [ [ 209592.51442392138415, 533686.833258756552823 ], [ 209545.494801445078338, 533686.642502442467958 ], [ 209545.503802374907536, 533748.632005183375441 ], [ 209553.013742052309681, 533748.662125990493223 ], [ 209578.013492881582351, 533751.772603969322518 ], [ 209592.523376175871817, 533751.842737278086133 ], [ 209592.51442392138415, 533686.833258756552823 ] ] ] } },
{ "type": "Feature", "properties": { "zoneCode": "41135MX2001001", "zoneName": "성남판교지구 택지개발사업", "blockName": "지원", "blockType": "도시지원시설용지", "lotName": "지원", "analysis_category": "제1판교테크노밸리 후보: 도시지원시설용지", "parcel_id": "지원", "area_sqm": 6231.2430813351521 }, "geometry": { "type": "Polygon", "coordinates": [ [ [ 209654.102929232059978, 533749.143751491676085 ], [ 209683.992689298902405, 533749.264232301386073 ], [ 209691.082746437750757, 533742.214403155609034 ], [ 209691.093518577457871, 533694.304787706932984 ], [ 209684.043688930483768, 533687.2147309507709 ], [ 209592.51442392138415, 533686.833258756552823 ], [ 209592.523376175871817, 533751.842737278086133 ], [ 209642.102977795060724, 533752.063534638960846 ], [ 209654.102929232059978, 533749.143751491676085 ] ] ] } },
{ "type": "Feature", "properties": { "zoneCode": "41135MX2001001", "zoneName": "성남판교지구 택지개발사업", "blockName": "지원", "blockType": "도시지원시설용지", "lotName": "지원", "analysis_category": "제1판교테크노밸리 후보: 도시지원시설용지", "parcel_id": "지원", "area_sqm": 3073.3434213212408 }, "geometry": { "type": "Polygon", "coordinates": [ [ [ 209824.811574712279253, 533748.846505557885394 ], [ 209825.351650690776296, 533743.866554221720435 ], [ 209825.851726990076713, 533738.886602232931182 ], [ 209826.331803617969854, 533733.896649998030625 ], [ 209827.201957692130236, 533723.906744178733788 ], [ 209827.602034891227959, 533718.916790649644099 ], [ 209827.972112394578289, 533713.926836655358784 ], [ 209828.292190625506919, 533708.916881998651661 ], [ 209828.912362926406786, 533697.916980234324001 ], [ 209829.442520886077546, 533687.857069484540261 ], [ 209779.432922802923713, 533687.626265215221792 ], [ 209779.421923117566621, 533749.65576739970129 ], [ 209786.041869913722621, 533749.685873870621435 ], [ 209798.131724511040375, 533752.73604428768158 ], [ 209824.351513919827994, 533752.846466054790653 ], [ 209824.811574712279253, 533748.846505557885394 ] ] ] } },
{ "type": "Feature", "properties": { "zoneCode": "41135MX2001001", "zoneName": "성남판교지구 택지개발사업", "blockName": "지원", "blockType": "도시지원시설용지", "lotName": "지원", "analysis_category": "제1판교테크노밸리 후보: 도시지원시설용지", "parcel_id": "지원", "area_sqm": 6345.9150098565042 }, "geometry": { "type": "Polygon", "coordinates": [ [ [ 208746.755094221123727, 534063.426605760352686 ], [ 208702.996422779979184, 534002.616389106027782 ], [ 208634.079574653733289, 534052.119681069278158 ], [ 208637.666030961292563, 534059.264981457730755 ], [ 208645.345765784615651, 534071.924903503851965 ], [ 208651.255593973444775, 534079.664936547167599 ], [ 208652.175567629863508, 534080.844941895455122 ], [ 208655.265485952346353, 534084.384963251766749 ], [ 208662.47531249729218, 534091.585021579405293 ], [ 208666.385222833050648, 534095.215055420179851 ], [ 208669.995144280197565, 534098.305088764522225 ], [ 208673.825064596196171, 534101.35512597928755 ], [ 208676.895004682766739, 534103.555157767608762 ], [ 208680.974926998984301, 534106.355201013037004 ], [ 208683.834874915890396, 534108.175232472480275 ], [ 208684.263167577242712, 534108.416537443175912 ], [ 208746.755094221123727, 534063.426605760352686 ] ] ] } },
{ "type": "Feature", "properties": { "zoneCode": "41135MX2001001", "zoneName": "성남판교지구 택지개발사업", "blockName": "지원", "blockType": "도시지원시설용지", "lotName": "지원", "analysis_category": "제1판교테크노밸리 후보: 도시지원시설용지", "parcel_id": "지원", "area_sqm": 3774.8009573217996 }, "geometry": { "type": "Polygon", "coordinates": [ [ [ 209085.461528626998188, 534117.161632401519455 ], [ 209088.441511979384813, 534116.721683953655884 ], [ 209091.441497393097961, 534116.141736966790631 ], [ 209094.351485825842246, 534115.421789641375653 ], [ 209098.191474070918048, 534114.251860919874161 ], [ 209100.511468903307104, 534113.421904979157262 ], [ 209103.291464682552032, 534112.311958702048287 ], [ 209106.031462465412915, 534111.092012641602196 ], [ 209108.691463391704019, 534109.722066526301205 ], [ 209112.161468576523475, 534107.682138821110129 ], [ 209118.681491063762223, 534103.062281002756208 ], [ 209120.221499114122707, 534101.802315937355161 ], [ 209123.201518198417034, 534099.1423853286542 ], [ 209126.011541864194442, 534096.282453576452099 ], [ 209127.701560169109143, 534094.31249663955532 ], [ 209095.51253849855857, 534049.52233751444146 ], [ 209094.772539523371961, 534049.82232318224851 ], [ 209043.752531256497605, 534075.571294193156064 ], [ 209042.012530114938272, 534076.50125867780298 ], [ 209040.282527015748201, 534077.55122237210162 ], [ 209035.232514372793958, 534080.831214654957876 ], [ 209033.372509060980519, 534082.081074635614641 ], [ 209054.781859824957792, 534111.781181155703962 ], [ 209055.431861622579163, 534111.351195087772794 ], [ 209056.301862671418348, 534110.851213125744835 ], [ 209057.211862676485907, 534110.401231409865431 ], [ 209058.141861426236574, 534110.021249448414892 ], [ 209059.091859013977228, 534109.701267327880487 ], [ 209060.071855255868286, 534109.451285120332614 ], [ 209061.061850425961893, 534109.261302617494948 ], [ 209062.041844493418466, 534109.141319361864589 ], [ 209063.051837306760717, 534109.091336041339673 ], [ 209065.091820533183636, 534109.121368678403087 ], [ 209067.041797899350058, 534109.561396574252285 ], [ 209068.011785480252001, 534109.851409871713258 ], [ 209068.961772279522847, 534110.201422367827035 ], [ 209069.881758457951946, 534110.601433984353207 ], [ 209070.781743773783091, 534111.071444718516432 ], [ 209071.631728426233167, 534111.601454158080742 ], [ 209072.451712572830729, 534112.181462709442712 ], [ 209073.221695908316178, 534112.831469905213453 ], [ 209073.9416789158131, 534113.531475888914429 ], [ 209074.631661324528977, 534114.281480981269851 ], [ 209075.871626356238266, 534115.841488443664275 ], [ 209076.611609904881334, 534116.491495141643099 ], [ 209077.491595712606795, 534116.941505713271908 ], [ 209078.481584249035222, 534117.161519909161143 ], [ 209079.471574761235388, 534117.261535064084455 ], [ 209081.471557210403262, 534117.361566486652009 ], [ 209083.491540417686338, 534117.401598720345646 ], [ 209085.461528626998188, 534117.161632401519455 ] ] ] } },
{ "type": "Feature", "properties": { "zoneCode": "41135MX2001001", "zoneName": "성남판교지구 택지개발사업", "blockName": "지원", "blockType": "도시지원시설용지", "lotName": "지원", "analysis_category": "제1판교테크노밸리 후보: 도시지원시설용지", "parcel_id": "지원", "area_sqm": 2544.330987624091 }, "geometry": { "type": "Polygon", "coordinates": [ [ [ 208909.154117243684595, 534043.719380905851722 ], [ 208875.675134668505052, 533997.139215506846085 ], [ 208873.36513049446512, 533998.53916703176219 ], [ 208839.675008754071314, 534022.758429653593339 ], [ 208873.273987359309103, 534069.528595457784832 ], [ 208909.154117243684595, 534043.719380905851722 ] ] ] } },
{ "type": "Feature", "properties": { "zoneCode": "41135MX2001001", "zoneName": "성남판교지구 택지개발사업", "blockName": "지원", "blockType": "도시지원시설용지", "lotName": "지원", "analysis_category": "제1판교테크노밸리 후보: 도시지원시설용지", "parcel_id": "지원", "area_sqm": 1349.3184828359654 }, "geometry": { "type": "Polygon", "coordinates": [ [ [ 209592.687525715533411, 533494.274806374800391 ], [ 209545.514804523903877, 533494.074047738802619 ], [ 209545.527443251921795, 533522.693818350322545 ], [ 209592.697064890846377, 533522.864577193860896 ], [ 209592.687525715533411, 533494.274806374800391 ] ] ] } },
{ "type": "Feature", "properties": { "zoneCode": "41135MX2001001", "zoneName": "성남판교지구 택지개발사업", "blockName": "지원", "blockType": "도시지원시설용지", "lotName": "지원", "analysis_category": "제1판교테크노밸리 후보: 도시지원시설용지", "parcel_id": "지원", "area_sqm": 2072.8607983184288 }, "geometry": { "type": "Polygon", "coordinates": [ [ [ 209053.698862749239197, 533677.704648768878542 ], [ 209052.938870737241814, 533677.584637483698316 ], [ 209047.018934433377581, 533676.554550358327106 ], [ 209041.108999111049343, 533675.464463883079588 ], [ 209035.209064486814896, 533674.324377967161126 ], [ 209029.349131278780987, 533673.074293578276411 ], [ 209023.479199348570546, 533671.754209599574097 ], [ 209022.799207459611353, 533671.584200010402128 ], [ 209010.438443686987739, 533725.103571215411648 ], [ 209016.96836828647065, 533726.553664793609641 ], [ 209026.798256926471367, 533728.603806721279398 ], [ 209031.728202070458792, 533729.5738783814013 ], [ 209036.648147838626755, 533730.503950192243792 ], [ 209041.588094660197385, 533731.364022896741517 ], [ 209053.657966769736959, 533733.334201559773646 ], [ 209053.698862749239197, 533677.704648768878542 ] ] ] } },
{ "type": "Feature", "properties": { "zoneCode": "41135MX2001001", "zoneName": "성남판교지구 택지개발사업", "blockName": "지원", "blockType": "도시지원시설용지", "lotName": "지원", "analysis_category": "제1판교테크노밸리 후보: 도시지원시설용지", "parcel_id": "지원", "area_sqm": 5287.9479935109166 }, "geometry": { "type": "Polygon", "coordinates": [ [ [ 209672.191011180402711, 533859.213159847422503 ], [ 209592.211653847713023, 533858.861873477231711 ], [ 209592.21072345454013, 533916.591410177992657 ], [ 209612.29050387328607, 533920.291704155155458 ], [ 209632.270270410081139, 533924.901989221805707 ], [ 209652.260053013509605, 533928.512282480951399 ], [ 209672.189752058591694, 533937.332532953470945 ], [ 209672.191011180402711, 533859.213159847422503 ] ] ] } },
{ "type": "Feature", "properties": { "zoneCode": "41135MX2001001", "zoneName": "성남판교지구 택지개발사업", "blockName": "지원", "blockType": "도시지원시설용지", "lotName": "지원", "analysis_category": "제1판교테크노밸리 후보: 도시지원시설용지", "parcel_id": "지원", "area_sqm": 17408.11592108793 }, "geometry": { "type": "Polygon", "coordinates": [ [ [ 209530.469498244172428, 533402.604539036052302 ], [ 209498.649753547942964, 533402.484027227154002 ], [ 209486.459802904922981, 533405.443807045463473 ], [ 209452.740074056695448, 533405.273265015915968 ], [ 209444.530047434818698, 533410.983086919644848 ], [ 209440.639907138596755, 533421.612938949838281 ], [ 209440.279895031329943, 533422.54292569309473 ], [ 209426.709394995734328, 533460.282404240570031 ], [ 209426.319383117777761, 533461.21239048417192 ], [ 209425.319362738926429, 533462.972360257408582 ], [ 209424.239344231173163, 533464.652329373522662 ], [ 209420.79929201543564, 533469.592234309529886 ], [ 209419.78927224202198, 533471.32220414839685 ], [ 209418.859250958630582, 533473.102174878818914 ], [ 209399.138527116621844, 533527.771418465301394 ], [ 209398.518501217215089, 533529.681393150123768 ], [ 209397.768460514140315, 533532.581357791787013 ], [ 209397.348432092054281, 533534.551335228141397 ], [ 209394.558216655306751, 533549.301171906408854 ], [ 209391.378099633933743, 533558.131049813004211 ], [ 209530.546981899969978, 533558.723287871107459 ], [ 209530.469498244172428, 533402.604539036052302 ] ] ] } },
{ "type": "Feature", "properties": { "zoneCode": "41135MX2001001", "zoneName": "성남판교지구 택지개발사업", "blockName": "지원", "blockType": "도시지원시설용지", "lotName": "지원", "analysis_category": "제1판교테크노밸리 후보: 도시지원시설용지", "parcel_id": "지원", "area_sqm": 11625.209535709824 }, "geometry": { "type": "Polygon", "coordinates": [ [ [ 209966.343591410171939, 533553.82035138248466 ], [ 209968.643949670047732, 533530.460575812263414 ], [ 209968.645146529888734, 533456.201171347172931 ], [ 209966.345351319323527, 533444.631227064412087 ], [ 209966.345951381546911, 533407.401525606168434 ], [ 209907.856420719879679, 533407.160584779456258 ], [ 209902.206374359753681, 533412.830448242137209 ], [ 209902.173594701424008, 533585.309064436587505 ], [ 209966.363079698669026, 533585.560097146779299 ], [ 209966.343591410171939, 533553.82035138248466 ] ] ] } }
]
}
