{
"type": "FeatureCollection",
"name": "wirye_business_commercial_candidate_parcels_5186",
"crs": { "type": "name", "properties": { "name": "urn:ogc:def:crs:EPSG::5186" } },
"features": [
{ "type": "Feature", "properties": { "zoneCode": "11710KL2006001", "zoneName": "위례 택지개발사업 예정지구", "blockName": "업무2-2", "blockType": "업무시설", "lotName": "업무2-2", "analysis_category": "위례 업무시설 후보: 업무1~업무28", "parcel_id": "업무2-2", "area_sqm": 17921.980129089992 }, "geometry": { "type": "Polygon", "coordinates": [ [ [ 212621.719535103562521, 540494.475491779041477 ], [ 212621.725501641165465, 540494.471464855596423 ], [ 212669.079597455187468, 540463.056587774306536 ], [ 212601.89178927327157, 540361.766230356995948 ], [ 212590.101979200844653, 540359.526063934434205 ], [ 212488.047506572853308, 540430.709685149602592 ], [ 212488.041619290539529, 540430.713870595674962 ], [ 212486.201552532758797, 540440.543654777226038 ], [ 212552.439325617742725, 540540.404029759578407 ], [ 212552.445212497696048, 540540.400081823579967 ], [ 212621.719535103562521, 540494.475491779041477 ] ] ] } },
{ "type": "Feature", "properties": { "zoneCode": "11710KL2006001", "zoneName": "위례 택지개발사업 예정지구", "blockName": "업무1", "blockType": "업무시설", "lotName": "업무1", "analysis_category": "위례 업무시설 후보: 업무1~업무28", "parcel_id": "업무1", "area_sqm": 30004.832778457552 }, "geometry": { "type": "Polygon", "coordinates": [ [ [ 212320.400313708058093, 543065.019852549419738 ], [ 212320.39722917394829, 543065.010433626826853 ], [ 212265.873397847521119, 542899.780243108398281 ], [ 212152.454334828420542, 542905.2084757424891 ], [ 212140.614332720608218, 542908.778143185307272 ], [ 212111.034821321431082, 542910.19772306655068 ], [ 212103.324400863988558, 542919.38751269178465 ], [ 212106.324016871396452, 542942.717390353675 ], [ 212112.293200455373153, 542986.677100991015323 ], [ 212114.594443017267622, 543001.905179515713826 ], [ 212116.63166810607072, 543015.3873827700736 ], [ 212118.922507160808891, 543030.546883869799785 ], [ 212126.201692651142366, 543074.31667985371314 ], [ 212126.20526825930574, 543074.316368613392115 ], [ 212320.400313708058093, 543065.019852549419738 ] ] ] } },
{ "type": "Feature", "properties": { "zoneCode": "11710KL2006001", "zoneName": "위례 택지개발사업 예정지구", "blockName": "업무8", "blockType": "업무시설", "lotName": "업무8", "analysis_category": "위례 업무시설 후보: 업무1~업무28", "parcel_id": "업무8", "area_sqm": 1828.2147331150813 }, "geometry": { "type": "Polygon", "coordinates": [ [ [ 213067.416600681637647, 543062.896591417957097 ], [ 213049.815413335803896, 543048.924396907328628 ], [ 213040.178288190771127, 543041.100498425890692 ], [ 213040.175907723372802, 543041.098595998133533 ], [ 213008.264560584619176, 543083.360493165790103 ], [ 213036.096321913180873, 543104.375675503513776 ], [ 213036.100222763518104, 543104.370618445333093 ], [ 213067.416600681637647, 543062.896591417957097 ] ] ] } },
{ "type": "Feature", "properties": { "zoneCode": "11710KL2006001", "zoneName": "위례 택지개발사업 예정지구", "blockName": "업무25", "blockType": "업무시설", "lotName": "업무25", "analysis_category": "위례 업무시설 후보: 업무1~업무28", "parcel_id": "업무25", "area_sqm": 3462.0530579845245 }, "geometry": { "type": "Polygon", "coordinates": [ [ [ 212661.044567104370799, 541395.688784125144593 ], [ 212661.0444920900336, 541395.685856274561957 ], [ 212659.135345734306611, 541355.749084153794684 ], [ 212642.446486103057396, 541356.537260839017108 ], [ 212604.952391847094987, 541358.307996358373202 ], [ 212604.945716503803851, 541358.308223646366969 ], [ 212582.822618018166395, 541359.363428461016156 ], [ 212572.67239328706637, 541359.84740407334175 ], [ 212572.665876754850615, 541359.84771075414028 ], [ 212574.585191093123285, 541399.797354467445984 ], [ 212661.044567104370799, 541395.688784125144593 ] ] ] } },
{ "type": "Feature", "properties": { "zoneCode": "11710KL2006001", "zoneName": "위례 택지개발사업 예정지구", "blockName": "업무23", "blockType": "업무시설", "lotName": "업무23", "analysis_category": "위례 업무시설 후보: 업무1~업무28", "parcel_id": "업무23", "area_sqm": 18263.836271439501 }, "geometry": { "type": "Polygon", "coordinates": [ [ [ 213172.757293699512957, 542213.610475362162106 ], [ 213165.427406447357498, 542206.810515379882418 ], [ 213077.681686830590479, 542211.058867871994153 ], [ 213077.678031607094454, 542211.059020374901593 ], [ 213070.888011433096835, 542218.408846660866402 ], [ 213078.795349131338298, 542384.247692448552698 ], [ 213086.315090278105345, 542390.867657266790047 ], [ 213173.914521054743091, 542386.689207230461761 ], [ 213173.917306963267038, 542386.686046887305565 ], [ 213180.684505503362743, 542379.319326331024058 ], [ 213172.757293699512957, 542213.610475362162106 ] ] ] } },
{ "type": "Feature", "properties": { "zoneCode": "11710KL2006001", "zoneName": "위례 택지개발사업 예정지구", "blockName": "업무4", "blockType": "업무시설", "lotName": "업무4", "analysis_category": "위례 업무시설 후보: 업무1~업무28", "parcel_id": "업무4", "area_sqm": 4629.5411678813616 }, "geometry": { "type": "Polygon", "coordinates": [ [ [ 212622.937195300881285, 543107.074419211014174 ], [ 212622.943951689318055, 543107.072214321000502 ], [ 212646.676923441176768, 543099.234375277999789 ], [ 212641.357428305549547, 543083.114890825701877 ], [ 212641.347621837165207, 543083.085208890843205 ], [ 212624.548409590963274, 543032.185089809237979 ], [ 212610.225118128117174, 543036.61267696483992 ], [ 212610.218124419887317, 543036.614169510663487 ], [ 212562.441886195039842, 543051.372932058526203 ], [ 212562.43854794910294, 543051.373876371188089 ], [ 212584.957321343070362, 543119.603778752149083 ], [ 212622.864703037339495, 543107.098201103857718 ], [ 212622.937195300881285, 543107.074419211014174 ] ] ] } },
{ "type": "Feature", "properties": { "zoneCode": "11710KL2006001", "zoneName": "위례 택지개발사업 예정지구", "blockName": "업무22", "blockType": "업무시설", "lotName": "업무22", "analysis_category": "위례 업무시설 후보: 업무1~업무28", "parcel_id": "업무22", "area_sqm": 13123.831211791136 }, "geometry": { "type": "Polygon", "coordinates": [ [ [ 213191.437651782471221, 542185.531066975672729 ], [ 213191.437497378967237, 542185.528218389372341 ], [ 213189.928121867385926, 542153.581453224178404 ], [ 213189.388435090048006, 542139.141415248159319 ], [ 213184.538602964224992, 542125.00143957301043 ], [ 213180.859109884535428, 542096.431554910494015 ], [ 213175.909615122684045, 542071.431673212675378 ], [ 213169.289799183025025, 542066.941649322398007 ], [ 213111.860040549159748, 542078.390623150044121 ], [ 213100.736503447318682, 542083.677272772067226 ], [ 213100.729903520375956, 542083.680427253595553 ], [ 213071.314671800326323, 542089.419025025214069 ], [ 213071.310061922034947, 542089.419888126198202 ], [ 213065.17001563712256, 542097.309742238023318 ], [ 213068.728754915093305, 542171.339273763122037 ], [ 213069.258592647413025, 542184.339078581426293 ], [ 213076.648422984144418, 542191.079171400866471 ], [ 213191.437651782471221, 542185.531066975672729 ] ] ] } },
{ "type": "Feature", "properties": { "zoneCode": "11710KL2006001", "zoneName": "위례 택지개발사업 예정지구", "blockName": "업무21", "blockType": "업무시설", "lotName": "업무21", "analysis_category": "위례 업무시설 후보: 업무1~업무28", "parcel_id": "업무21", "area_sqm": 10132.044669555657 }, "geometry": { "type": "Polygon", "coordinates": [ [ [ 213836.28518720070133, 543473.169736184761859 ], [ 213705.514305801014416, 543382.96147390070837 ], [ 213705.511528358591022, 543382.959570703911595 ], [ 213667.767221870861249, 543437.675827518338338 ], [ 213667.763717880472541, 543437.680963841383345 ], [ 213754.273063145345077, 543497.356824539485388 ], [ 213766.456182915513637, 543501.876164928544313 ], [ 213784.268442868633429, 543514.12033777567558 ], [ 213794.266177780431462, 543514.328101714723743 ], [ 213794.272221784340218, 543514.324314537341706 ], [ 213796.48067349329358, 543512.937648621154949 ], [ 213796.486638315545861, 543512.933703096583486 ], [ 213804.138887554960093, 543507.720423336722888 ], [ 213804.294296426902292, 543507.614517832291313 ], [ 213804.572319838305702, 543507.393080353969708 ], [ 213811.418466012517456, 543501.937978102592751 ], [ 213811.688694218726596, 543501.722619113163091 ], [ 213812.034966628241818, 543501.401618560194038 ], [ 213818.296519122697646, 543495.596680531976745 ], [ 213818.622104761278024, 543495.294868999626487 ], [ 213818.924213941063499, 543494.969602437806316 ], [ 213824.754146146296989, 543488.692620668676682 ], [ 213825.056255940929987, 543488.367274964461103 ], [ 213825.258703243569471, 543488.113673266372643 ], [ 213830.778521462081699, 543481.199273503269069 ], [ 213830.954936424386688, 543480.978458483703434 ], [ 213831.039511768147349, 543480.854636057396419 ], [ 213836.28518720070133, 543473.169736184761859 ] ] ] } },
{ "type": "Feature", "properties": { "zoneCode": "11710KL2006001", "zoneName": "위례 택지개발사업 예정지구", "blockName": "업무9", "blockType": "업무시설", "lotName": "업무9", "analysis_category": "위례 업무시설 후보: 업무1~업무28", "parcel_id": "업무9", "area_sqm": 2029.8789630626827 }, "geometry": { "type": "Polygon", "coordinates": [ [ [ 212765.607510130153969, 542407.732468655216508 ], [ 212697.194747766334331, 542411.020880830357783 ], [ 212697.187993688945426, 542411.021187008591369 ], [ 212698.627395072631771, 542440.977973068598658 ], [ 212698.627470060571795, 542440.980900555616245 ], [ 212759.967013275658246, 542438.041977284941822 ], [ 212759.969798764737789, 542438.038975061965175 ], [ 212766.706982093863189, 542430.65221907524392 ], [ 212765.607510130153969, 542407.732468655216508 ] ] ] } },
{ "type": "Feature", "properties": { "zoneCode": "11710KL2006001", "zoneName": "위례 택지개발사업 예정지구", "blockName": "업무2-1", "blockType": "업무시설", "lotName": "업무2-1", "analysis_category": "위례 업무시설 후보: 업무1~업무28", "parcel_id": "업무2-1", "area_sqm": 5459.8931581889374 }, "geometry": { "type": "Polygon", "coordinates": [ [ [ 212669.079597455187468, 540463.056587774306536 ], [ 212621.725501641165465, 540494.471464855596423 ], [ 212621.719535103562521, 540494.475491779041477 ], [ 212676.027813476335723, 540576.385782922501676 ], [ 212676.033780102210585, 540576.381676938501187 ], [ 212690.207743150996976, 540566.975883271894418 ], [ 212698.497950182296336, 540557.886146179400384 ], [ 212698.503996063111117, 540557.882198595092632 ], [ 212715.827883874211693, 540546.396627244539559 ], [ 212717.858156092959689, 540536.606716245412827 ], [ 212669.079597455187468, 540463.056587774306536 ] ] ] } },
{ "type": "Feature", "properties": { "zoneCode": "11710KL2006001", "zoneName": "위례 택지개발사업 예정지구", "blockName": "업무24", "blockType": "업무시설", "lotName": "업무24", "analysis_category": "위례 업무시설 후보: 업무1~업무28", "parcel_id": "업무24", "area_sqm": 13516.898695628024 }, "geometry": { "type": "Polygon", "coordinates": [ [ [ 212531.511993430205621, 541628.394870034302585 ], [ 212521.155530032410752, 541412.41643531434238 ], [ 212458.732436975260498, 541415.405114969820715 ], [ 212458.725920486525865, 541415.405421737465076 ], [ 212469.062215780082624, 541631.390230306074955 ], [ 212469.062289795721881, 541631.393870202940889 ], [ 212469.068806229857728, 541631.393484328873456 ], [ 212504.234401193156373, 541629.704874282004312 ], [ 212531.511993430205621, 541628.394870034302585 ] ] ] } },
{ "type": "Feature", "properties": { "zoneCode": "11710KL2006001", "zoneName": "위례 택지개발사업 예정지구", "blockName": "업무3", "blockType": "업무시설", "lotName": "업무3", "analysis_category": "위례 업무시설 후보: 업무1~업무28", "parcel_id": "업무3", "area_sqm": 11470.810914942977 }, "geometry": { "type": "Polygon", "coordinates": [ [ [ 212302.233697279851185, 543483.246190255857073 ], [ 212302.233235345804133, 543483.236221921630204 ], [ 212295.10610603672103, 543334.527279934496619 ], [ 212280.328470773703884, 543335.22370712517295 ], [ 212280.052934993844246, 543335.236670256592333 ], [ 212280.046340689877979, 543335.236897861468606 ], [ 212198.882160751905758, 543339.125356205739081 ], [ 212198.876916904497193, 543339.125664962339215 ], [ 212199.206821322179167, 543345.545501814456657 ], [ 212223.204827151173959, 543452.765181258087978 ], [ 212295.253817096003331, 543483.576044855057262 ], [ 212302.233697279851185, 543483.246190255857073 ] ] ] } },
{ "type": "Feature", "properties": { "zoneCode": "11710KL2006001", "zoneName": "위례 택지개발사업 예정지구", "blockName": "업무26", "blockType": "업무시설", "lotName": "업무26", "analysis_category": "위례 업무시설 후보: 업무1~업무28", "parcel_id": "업무26", "area_sqm": 22859.616353166606 }, "geometry": { "type": "Polygon", "coordinates": [ [ [ 213255.022020877193427, 542496.399619034491479 ], [ 213255.028616001131013, 542496.399313060916029 ], [ 213328.911490539787337, 542492.890796227147803 ], [ 213328.911415771697648, 542492.887868751538917 ], [ 213326.882195687154308, 542450.621171656181104 ], [ 213324.603005371056497, 542403.031478881719522 ], [ 213320.903121373412432, 542399.661437824834138 ], [ 213087.398376095079584, 542410.887388163479045 ], [ 213087.394720834767213, 542410.887619777000509 ], [ 213080.46466450340813, 542418.207373042474501 ], [ 213082.473960968258325, 542459.847124228836037 ], [ 213083.493761932943016, 542478.956972702406347 ], [ 213081.763483174174326, 542491.05682296899613 ], [ 213082.423417699174024, 542495.966875856393017 ], [ 213082.863453079888131, 542498.936774067464285 ], [ 213083.343309858581051, 542501.896764994948171 ], [ 213083.84334291977575, 542504.606774994055741 ], [ 213083.850335296447156, 542504.606469509075396 ], [ 213255.022020877193427, 542496.399619034491479 ] ] ] } },
{ "type": "Feature", "properties": { "zoneCode": "11710KL2006001", "zoneName": "위례 택지개발사업 예정지구", "blockName": "업무15", "blockType": "업무시설", "lotName": "업무15", "analysis_category": "위례 업무시설 후보: 업무1~업무28", "parcel_id": "업무15", "area_sqm": 30050.507530002316 }, "geometry": { "type": "Polygon", "coordinates": [ [ [ 212577.69529374409467, 543248.802549324696884 ], [ 212451.832629340497078, 543254.830185053753667 ], [ 212451.826193743676413, 543254.830491872504354 ], [ 212462.402369555871701, 543475.575789182796143 ], [ 212462.40252382538165, 543475.578874642495066 ], [ 212522.39153841312509, 543511.019521938520484 ], [ 212560.551270481315441, 543509.200168047798797 ], [ 212560.5531023395597, 543509.197085594059899 ], [ 212570.461384661786724, 543493.480429128510877 ], [ 212582.182006528280908, 543446.681025567813776 ], [ 212577.153696414461592, 543343.211745382635854 ], [ 212580.974083844863344, 543317.332080679829232 ], [ 212577.69529374409467, 543248.802549324696884 ] ] ] } },
{ "type": "Feature", "properties": { "zoneCode": "11710KL2006001", "zoneName": "위례 택지개발사업 예정지구", "blockName": "업무14", "blockType": "업무시설", "lotName": "업무14", "analysis_category": "위례 업무시설 후보: 업무1~업무28", "parcel_id": "업무14", "area_sqm": 1994.0251349653929 }, "geometry": { "type": "Polygon", "coordinates": [ [ [ 213367.569139305764111, 541385.800416751415469 ], [ 213367.568985202669865, 541385.797409634338692 ], [ 213365.879723359452328, 541350.590668327989988 ], [ 213309.39660198893398, 541353.269421079661697 ], [ 213309.390085424296558, 541353.269727184204385 ], [ 213311.119487006537383, 541388.519475104985759 ], [ 213311.126003543671686, 541388.519169004051946 ], [ 213367.569139305764111, 541385.800416751415469 ] ] ] } },
{ "type": "Feature", "properties": { "zoneCode": "11710KL2006001", "zoneName": "위례 택지개발사업 예정지구", "blockName": "업무10", "blockType": "업무시설", "lotName": "업무10", "analysis_category": "위례 업무시설 후보: 업무1~업무28", "parcel_id": "업무10", "area_sqm": 1810.4758321063025 }, "geometry": { "type": "Polygon", "coordinates": [ [ [ 212604.945716503803851, 541358.308223646366969 ], [ 212602.286562208610121, 541302.388584723114036 ], [ 212569.983348426787416, 541303.897751960786991 ], [ 212569.976831848674919, 541303.898058643797413 ], [ 212572.665876754850615, 541359.84771075414028 ], [ 212572.67239328706637, 541359.84740407334175 ], [ 212582.822618018166395, 541359.363428461016156 ], [ 212604.945716503803851, 541358.308223646366969 ] ] ] } },
{ "type": "Feature", "properties": { "zoneCode": "11710KL2006001", "zoneName": "위례 택지개발사업 예정지구", "blockName": "업무16", "blockType": "업무시설", "lotName": "업무16", "analysis_category": "위례 업무시설 후보: 업무1~업무28", "parcel_id": "업무16", "area_sqm": 6143.3185986981025 }, "geometry": { "type": "Polygon", "coordinates": [ [ [ 212280.046340689877979, 543335.236897861468606 ], [ 212276.867321872763569, 543268.867504928261042 ], [ 212270.947464573226171, 543263.48749937035609 ], [ 212255.237565693532815, 543264.237189883249812 ], [ 212255.15509944272344, 543264.23801782168448 ], [ 212245.739565229567233, 543264.333890157169662 ], [ 212245.427734696131665, 543264.33707059698645 ], [ 212244.875875875412021, 543264.300975719466805 ], [ 212236.195954001741484, 543263.733967155101709 ], [ 212235.62773064133944, 543263.696899511967786 ], [ 212234.946702058427036, 543263.600175115629099 ], [ 212226.58372664777562, 543262.412625557044521 ], [ 212225.907940009696176, 543262.31677979521919 ], [ 212225.351361740933498, 543262.19421158649493 ], [ 212216.92659859082778, 543260.340550093329512 ], [ 212216.317999451362994, 543260.20667244901415 ], [ 212215.977961534110364, 543260.104200172936544 ], [ 212207.001414377853507, 543257.401595488074236 ], [ 212206.918272139475448, 543257.375762691139244 ], [ 212206.897706069576088, 543257.368612596648745 ], [ 212198.041913529479643, 543253.959499755874276 ], [ 212197.748207916563842, 543253.846337006776594 ], [ 212194.46945034415694, 543252.391280421055853 ], [ 212194.458335198520217, 543252.386280180769973 ], [ 212198.876916904497193, 543339.125664962339215 ], [ 212198.882160751905758, 543339.125356205739081 ], [ 212280.046340689877979, 543335.236897861468606 ] ] ] } },
{ "type": "Feature", "properties": { "zoneCode": "11710KL2006001", "zoneName": "위례 택지개발사업 예정지구", "blockName": "업무6", "blockType": "업무시설", "lotName": "업무6", "analysis_category": "위례 업무시설 후보: 업무1~업무28", "parcel_id": "업무6", "area_sqm": 3013.1139701593402 }, "geometry": { "type": "Polygon", "coordinates": [ [ [ 212659.135345734306611, 541355.749084153794684 ], [ 212659.13519113449729, 541355.746235297527164 ], [ 212656.796046858886257, 541306.809537763823755 ], [ 212649.366315127990674, 541300.119379808427766 ], [ 212602.293078667251393, 541302.388357193092816 ], [ 212602.286562208610121, 541302.388584723114036 ], [ 212604.945716503803851, 541358.308223646366969 ], [ 212604.952391847094987, 541358.307996358373202 ], [ 212642.446486103057396, 541356.537260839017108 ], [ 212659.135345734306611, 541355.749084153794684 ] ] ] } },
{ "type": "Feature", "properties": { "zoneCode": "11710KL2006001", "zoneName": "위례 택지개발사업 예정지구", "blockName": "업무11", "blockType": "업무시설", "lotName": "업무11", "analysis_category": "위례 업무시설 후보: 업무1~업무28", "parcel_id": "업무11", "area_sqm": 1692.7974130107614 }, "geometry": { "type": "Polygon", "coordinates": [ [ [ 213262.936117228906369, 541003.371750291786157 ], [ 213262.934930130431894, 541003.368662262917496 ], [ 213261.616181742487242, 541000.211817142902873 ], [ 213260.216332624695497, 540997.031814625486732 ], [ 213258.746360029123025, 540993.87179904372897 ], [ 213257.216403901024023, 540990.751806956483051 ], [ 213255.626480165752582, 540987.66178871341981 ], [ 213254.226530375453876, 540985.091810315381736 ], [ 213252.766517996758921, 540982.511765213683248 ], [ 213251.256582870992133, 540979.941769072669558 ], [ 213249.696756863821065, 540977.411733877961524 ], [ 213248.106700189266121, 540974.901749684475362 ], [ 213245.416774317331146, 540970.761716382112354 ], [ 213242.696854435984278, 540966.641733809374273 ], [ 213237.747087133553578, 540959.201699661323801 ], [ 213235.44312296147109, 540960.667840187437832 ], [ 213235.437077239534119, 540960.671708062523976 ], [ 213206.77306784351822, 540979.687080332660116 ], [ 213206.767101491073845, 540979.691027475753799 ], [ 213206.976643401518231, 541004.767768301651813 ], [ 213206.976638509717304, 541004.77085443364922 ], [ 213262.936117228906369, 541003.371750291786157 ] ] ] } },
{ "type": "Feature", "properties": { "zoneCode": "11710KL2006001", "zoneName": "위례 택지개발사업 예정지구", "blockName": "업무7", "blockType": "업무시설", "lotName": "업무7", "analysis_category": "위례 업무시설 후보: 업무1~업무28", "parcel_id": "업무7", "area_sqm": 1501.3577563462525 }, "geometry": { "type": "Polygon", "coordinates": [ [ [ 213506.188245554978494, 541992.37773517286405 ], [ 213476.749130640819203, 541951.997602946823463 ], [ 213452.544854160660179, 541969.742736819200218 ], [ 213452.539046675752616, 541969.747079186374322 ], [ 213462.668693131621694, 541983.537106699775904 ], [ 213465.188624622183852, 541986.837107487721369 ], [ 213477.128200082544936, 542003.087195748463273 ], [ 213479.988245002721669, 542007.04722819768358 ], [ 213482.028041378944181, 542009.927178934100084 ], [ 213482.408105510519817, 542010.457280423259363 ], [ 213482.413833522616187, 542010.452937968890183 ], [ 213506.188245554978494, 541992.37773517286405 ] ] ] } },
{ "type": "Feature", "properties": { "zoneCode": "11710KL2006001", "zoneName": "위례 택지개발사업 예정지구", "blockName": "업무18", "blockType": "업무시설", "lotName": "업무18", "analysis_category": "위례 업무시설 후보: 업무1~업무28", "parcel_id": "업무18", "area_sqm": 1479.3577763624271 }, "geometry": { "type": "Polygon", "coordinates": [ [ [ 212719.232385925628478, 540266.308975806343369 ], [ 212713.422384024423081, 540270.218818717868999 ], [ 212712.062361382937524, 540271.138788153184578 ], [ 212710.157389098720159, 540272.418482057750225 ], [ 212709.448384737333981, 540272.894764810334891 ], [ 212709.442418119579088, 540272.898712642956525 ], [ 212699.488321062613977, 540279.664447129238397 ], [ 212699.482433810539078, 540279.668474223464727 ], [ 212693.582321183785098, 540283.738284506136551 ], [ 212690.868759599456098, 540285.60601444018539 ], [ 212689.578330560558243, 540286.494199007982388 ], [ 212689.572363721003057, 540286.498305122251622 ], [ 212687.182422509824391, 540288.158235998358577 ], [ 212686.228191882779356, 540288.824078771052882 ], [ 212686.222304520895705, 540288.828185009420849 ], [ 212686.972330026648706, 540289.908221119898371 ], [ 212691.252254291699501, 540296.128210510243662 ], [ 212697.512066123133991, 540305.198214393807575 ], [ 212701.411923033505445, 540310.848298239056021 ], [ 212707.221751967561431, 540319.27832982793916 ], [ 212707.227639199991245, 540319.274302757577971 ], [ 212713.281696496007498, 540315.138357337680645 ], [ 212721.668207673821598, 540309.416403617011383 ], [ 212726.281728557485621, 540306.268679525819607 ], [ 212740.19185912469402, 540296.769037793041207 ], [ 212728.172127216763329, 540279.298980352701619 ], [ 212719.232385925628478, 540266.308975806343369 ] ] ] } },
{ "type": "Feature", "properties": { "zoneCode": "11710KL2006001", "zoneName": "위례 택지개발사업 예정지구", "blockName": "일상3", "blockType": "일반상업", "lotName": "1-1", "analysis_category": "위례 상업시설 후보", "parcel_id": "일상3-1-1", "area_sqm": 2784.6229623286936 }, "geometry": { "type": "Polygon", "coordinates": [ [ [ 212538.808594009315129, 540598.55354119068943 ], [ 212492.382417129934765, 540629.423528199316934 ], [ 212492.377723356883507, 540629.426844842266291 ], [ 212516.527705589367542, 540665.862441082135774 ], [ 212526.327432030433556, 540667.862581604043953 ], [ 212526.331489199161297, 540667.859817983000539 ], [ 212561.027624418667983, 540644.853301337105222 ], [ 212563.017732231644914, 540635.053436878020875 ], [ 212538.808594009315129, 540598.55354119068943 ] ] ] } },
{ "type": "Feature", "properties": { "zoneCode": "11710KL2006001", "zoneName": "위례 택지개발사업 예정지구", "blockName": "근상2", "blockType": "근린상업", "lotName": "1-5", "analysis_category": "위례 상업시설 후보", "parcel_id": "근상2-1-5", "area_sqm": 1400.772416032921 }, "geometry": { "type": "Polygon", "coordinates": [ [ [ 213294.298547940066783, 541456.287024059914984 ], [ 213292.779089127812767, 541424.488900039810687 ], [ 213285.389209714077879, 541417.758764694561251 ], [ 213255.826023011526559, 541419.188039308064617 ], [ 213255.823241662350483, 541419.18811401037965 ], [ 213255.819427034759428, 541419.18834532238543 ], [ 213257.688683717307867, 541458.016488229623064 ], [ 213257.692495934636099, 541458.01776033686474 ], [ 213257.695277396764141, 541458.017606508219615 ], [ 213294.298547940066783, 541456.287024059914984 ] ] ] } },
{ "type": "Feature", "properties": { "zoneCode": "11710KL2006001", "zoneName": "위례 택지개발사업 예정지구", "blockName": "일상11", "blockType": "일반상업", "lotName": "1-1", "analysis_category": "위례 상업시설 후보", "parcel_id": "일상11-1-1", "area_sqm": 4655.9407916383025 }, "geometry": { "type": "Polygon", "coordinates": [ [ [ 212666.65263634553412, 541513.186407250002958 ], [ 212664.083416764362482, 541459.416777156642638 ], [ 212577.650890937424265, 541463.546686031157151 ], [ 212577.644295022968436, 541463.546992582152598 ], [ 212580.223284736013738, 541517.26657303457614 ], [ 212580.229801145440433, 541517.266266367863864 ], [ 212666.65263634553412, 541513.186407250002958 ] ] ] } },
{ "type": "Feature", "properties": { "zoneCode": "11710KL2006001", "zoneName": "위례 택지개발사업 예정지구", "blockName": "근상2", "blockType": "근린상업", "lotName": "1-3", "analysis_category": "위례 상업시설 후보", "parcel_id": "근상2-1-3", "area_sqm": 1613.5306803848384 }, "geometry": { "type": "Polygon", "coordinates": [ [ [ 213298.746897564182291, 541549.57628689520061 ], [ 213296.647736969694961, 541505.566637404728681 ], [ 213260.064516058657318, 541507.317328279255889 ], [ 213260.061734610673739, 541507.317482105572708 ], [ 213260.05792229261715, 541507.316289131296799 ], [ 213262.177299904346, 541551.326109538786113 ], [ 213262.183895650785416, 541551.325882661156356 ], [ 213298.746897564182291, 541549.57628689520061 ] ] ] } },
{ "type": "Feature", "properties": { "zoneCode": "11710KL2006001", "zoneName": "위례 택지개발사업 예정지구", "blockName": "근상2", "blockType": "근린상업", "lotName": "1-2", "analysis_category": "위례 상업시설 후보", "parcel_id": "근상2-1-2", "area_sqm": 1321.0559895339759 }, "geometry": { "type": "Polygon", "coordinates": [ [ [ 213262.177299904346, 541551.326109538786113 ], [ 213260.05792229261715, 541507.316289131296799 ], [ 213230.074713353824336, 541508.786906749592163 ], [ 213230.068197037413483, 541508.787133779609576 ], [ 213232.167453810718143, 541552.606843934045173 ], [ 213232.17404968093615, 541552.606537902029231 ], [ 213253.437426297343336, 541551.747238171286881 ], [ 213262.177299904346, 541551.326109538786113 ] ] ] } },
{ "type": "Feature", "properties": { "zoneCode": "11710KL2006001", "zoneName": "위례 택지개발사업 예정지구", "blockName": "근상2", "blockType": "근린상업", "lotName": "1-1", "analysis_category": "위례 상업시설 후보", "parcel_id": "근상2-1-1", "area_sqm": 2965.0402004873854 }, "geometry": { "type": "Polygon", "coordinates": [ [ [ 213298.746897564182291, 541549.57628689520061 ], [ 213262.183895650785416, 541551.325882661156356 ], [ 213262.177299904346, 541551.326109538786113 ], [ 213253.437426297343336, 541551.747238171286881 ], [ 213232.17404968093615, 541552.606537902029231 ], [ 213232.167453810718143, 541552.606843934045173 ], [ 213234.126911755680339, 541593.476517640287057 ], [ 213238.556699837179622, 541597.516617196495645 ], [ 213293.806272139656357, 541594.817541679251008 ], [ 213293.809217278991127, 541594.814381332253106 ], [ 213300.546362245251657, 541587.427704554283991 ], [ 213298.746897564182291, 541549.57628689520061 ] ] ] } },
{ "type": "Feature", "properties": { "zoneCode": "11710KL2006001", "zoneName": "위례 택지개발사업 예정지구", "blockName": "근상2", "blockType": "근린상업", "lotName": "1-4", "analysis_category": "위례 상업시설 후보", "parcel_id": "근상2-1-4", "area_sqm": 1808.0979639883178 }, "geometry": { "type": "Polygon", "coordinates": [ [ [ 213296.647736969694961, 541505.566637404728681 ], [ 213294.298547940066783, 541456.287024059914984 ], [ 213257.695277396764141, 541458.017606508219615 ], [ 213257.692495934636099, 541458.01776033686474 ], [ 213257.688683717307867, 541458.016488229623064 ], [ 213260.05792229261715, 541507.316289131296799 ], [ 213260.061734610673739, 541507.317482105572708 ], [ 213260.064516058657318, 541507.317328279255889 ], [ 213296.647736969694961, 541505.566637404728681 ] ] ] } },
{ "type": "Feature", "properties": { "zoneCode": "11710KL2006001", "zoneName": "위례 택지개발사업 예정지구", "blockName": "일상10", "blockType": "일반상업", "lotName": "일상10", "analysis_category": "위례 상업시설 후보", "parcel_id": "일상10", "area_sqm": 9397.7608698852637 }, "geometry": { "type": "Polygon", "coordinates": [ [ [ 212671.830888423370197, 541621.647227474837564 ], [ 212671.830892756464891, 541621.644378947792575 ], [ 212666.65263634553412, 541513.186407250002958 ], [ 212580.229801145440433, 541517.266266367863864 ], [ 212580.223284736013738, 541517.26657303457614 ], [ 212585.431372164312052, 541625.814364080433734 ], [ 212585.4378884890466, 541625.814057422219776 ], [ 212671.830888423370197, 541621.647227474837564 ] ] ] } },
{ "type": "Feature", "properties": { "zoneCode": "11710KL2006001", "zoneName": "위례 택지개발사업 예정지구", "blockName": "일상6", "blockType": "일반상업", "lotName": "2-2", "analysis_category": "위례 상업시설 후보", "parcel_id": "일상6-2-2", "area_sqm": 1337.4070606203156 }, "geometry": { "type": "Polygon", "coordinates": [ [ [ 212624.180316554877209, 542911.245407674810849 ], [ 212616.510756861942355, 542888.006114205461927 ], [ 212606.620985247544013, 542881.20600286743138 ], [ 212583.485527009353973, 542882.315472121234052 ], [ 212583.481236491265008, 542882.315623866277747 ], [ 212577.821025910496246, 542890.555416173301637 ], [ 212588.509940773830749, 542922.983378859236836 ], [ 212588.520538640412269, 542923.015356790157966 ], [ 212588.52721572178416, 542923.013151701539755 ], [ 212624.180316554877209, 542911.245407674810849 ] ] ] } },
{ "type": "Feature", "properties": { "zoneCode": "11710KL2006001", "zoneName": "위례 택지개발사업 예정지구", "blockName": "일상5", "blockType": "일반상업", "lotName": "2-2", "analysis_category": "위례 상업시설 후보", "parcel_id": "일상5-2-2", "area_sqm": 2050.0094565308464 }, "geometry": { "type": "Polygon", "coordinates": [ [ [ 212571.8005648420949, 542920.184647151036188 ], [ 212562.041200022038538, 542890.615218934835866 ], [ 212552.151466869079741, 542883.815095576806925 ], [ 212520.865883545513498, 542885.314355702139437 ], [ 212520.861592913512141, 542885.314586592372507 ], [ 212514.065387969778385, 542895.198754609911703 ], [ 212514.061486505554058, 542895.20436583366245 ], [ 212527.149674316024175, 542934.880580923869275 ], [ 212527.160825927858241, 542934.91430006083101 ], [ 212527.167582432390191, 542934.912095046020113 ], [ 212571.8005648420949, 542920.184647151036188 ] ] ] } },
{ "type": "Feature", "properties": { "zoneCode": "11710KL2006001", "zoneName": "위례 택지개발사업 예정지구", "blockName": "일상6", "blockType": "일반상업", "lotName": "2-1", "analysis_category": "위례 상업시설 후보", "parcel_id": "일상6-2-1", "area_sqm": 1300.1889754709412 }, "geometry": { "type": "Polygon", "coordinates": [ [ [ 212635.029620062414324, 542944.125411356333643 ], [ 212624.180316554877209, 542911.245407674810849 ], [ 212588.52721572178416, 542923.013151701539755 ], [ 212588.520538640412269, 542923.015356790157966 ], [ 212599.36980834233691, 542955.89526717341505 ], [ 212599.376723747060169, 542955.893062464077957 ], [ 212635.029620062414324, 542944.125411356333643 ] ] ] } },
{ "type": "Feature", "properties": { "zoneCode": "11710KL2006001", "zoneName": "위례 택지개발사업 예정지구", "blockName": "근상3", "blockType": "근린상업", "lotName": "1-1", "analysis_category": "위례 상업시설 후보", "parcel_id": "근상3-1-1", "area_sqm": 3874.9881141149262 }, "geometry": { "type": "Polygon", "coordinates": [ [ [ 212624.707917529769475, 542444.519819282228127 ], [ 212624.707842273783172, 542444.51705003506504 ], [ 212623.278425645170501, 542414.560068640508689 ], [ 212623.284941594320117, 542414.559603808331303 ], [ 212629.278453438280849, 542414.269464669981971 ], [ 212627.838959909335244, 542384.310381304239854 ], [ 212559.91334089517477, 542387.558895122492686 ], [ 212559.909447155689122, 542387.559205725090578 ], [ 212562.438534635148244, 542440.408827606705017 ], [ 212569.828305721399374, 542447.148976197466254 ], [ 212624.707917529769475, 542444.519819282228127 ] ] ] } },
{ "type": "Feature", "properties": { "zoneCode": "11710KL2006001", "zoneName": "위례 택지개발사업 예정지구", "blockName": "근상1", "blockType": "근린상업", "lotName": "2-3", "analysis_category": "위례 상업시설 후보", "parcel_id": "근상1-2-3", "area_sqm": 1926.6582216994464 }, "geometry": { "type": "Polygon", "coordinates": [ [ [ 212297.430178953887662, 540613.129303073510528 ], [ 212274.31099591369275, 540572.669211501954123 ], [ 212259.757492429838749, 540580.28557109774556 ], [ 212259.75097099278355, 540580.288806065917015 ], [ 212240.057330221898155, 540591.164903503260575 ], [ 212240.050967279035831, 540591.168455256032757 ], [ 212238.526483984576771, 540591.966514193452895 ], [ 212259.853926675044931, 540632.766115468461066 ], [ 212259.856392371380934, 540632.764694662415422 ], [ 212297.430178953887662, 540613.129303073510528 ] ] ] } },
{ "type": "Feature", "properties": { "zoneCode": "11710KL2006001", "zoneName": "위례 택지개발사업 예정지구", "blockName": "일상5", "blockType": "일반상업", "lotName": "2-1", "analysis_category": "위례 상업시설 후보", "parcel_id": "일상5-2-1", "area_sqm": 2000.0928365933944 }, "geometry": { "type": "Polygon", "coordinates": [ [ [ 212585.129728176689241, 542960.594501949613914 ], [ 212571.8005648420949, 542920.184647151036188 ], [ 212527.167582432390191, 542934.912095046020113 ], [ 212527.160825927858241, 542934.91430006083101 ], [ 212540.499953685997752, 542975.324184682220221 ], [ 212540.506789605569793, 542975.3219798093196 ], [ 212585.129728176689241, 542960.594501949613914 ] ] ] } },
{ "type": "Feature", "properties": { "zoneCode": "11710KL2006001", "zoneName": "위례 택지개발사업 예정지구", "blockName": "일상6", "blockType": "일반상업", "lotName": "1-2", "analysis_category": "위례 상업시설 후보", "parcel_id": "일상6-1-2", "area_sqm": 999.8360823958908 }, "geometry": { "type": "Polygon", "coordinates": [ [ [ 212646.508746458974201, 542978.915336114121601 ], [ 212638.159480891859857, 542953.625350407673977 ], [ 212602.512910582125187, 542965.384123492403887 ], [ 212602.509730955265695, 542965.385226265294477 ], [ 212610.840699590509757, 542990.649400834459811 ], [ 212610.849240973824635, 542990.675204608007334 ], [ 212610.856076901924098, 542990.672999798553064 ], [ 212646.508746458974201, 542978.915336114121601 ] ] ] } },
{ "type": "Feature", "properties": { "zoneCode": "11710KL2006001", "zoneName": "위례 택지개발사업 예정지구", "blockName": "일상4", "blockType": "일반상업", "lotName": "1-1", "analysis_category": "위례 상업시설 후보", "parcel_id": "일상4-1-1", "area_sqm": 1893.0462235975817 }, "geometry": { "type": "Polygon", "coordinates": [ [ [ 212337.193960311909905, 540592.327731586061418 ], [ 212311.235026399837807, 540546.888033504365012 ], [ 212311.231129242369207, 540546.890085281454958 ], [ 212297.86793555537588, 540551.397485278081149 ], [ 212297.861177064507501, 540551.399770246469416 ], [ 212278.877751744206762, 540560.486334196873941 ], [ 212278.871151043422287, 540560.489410769892856 ], [ 212306.290141957637388, 540608.489459099364467 ], [ 212306.296663624583744, 540608.486065906472504 ], [ 212337.190221643453697, 540592.330100115621462 ], [ 212337.193960311909905, 540592.327731586061418 ] ] ] } },
{ "type": "Feature", "properties": { "zoneCode": "11710KL2006001", "zoneName": "위례 택지개발사업 예정지구", "blockName": "일상6", "blockType": "일반상업", "lotName": "1-1", "analysis_category": "위례 상업시설 후보", "parcel_id": "일상6-1-1", "area_sqm": 1059.4352308797313 }, "geometry": { "type": "Polygon", "coordinates": [ [ [ 212646.508746458974201, 542978.915336114121601 ], [ 212610.856076901924098, 542990.672999798553064 ], [ 212610.849240973824635, 542990.675204608007334 ], [ 212618.098723250295734, 543012.625141807249747 ], [ 212625.208740121743176, 543016.28523339855019 ], [ 212625.215417016093852, 543016.283107477822341 ], [ 212650.27910249735578, 543008.54459821304772 ], [ 212653.938738951925188, 543001.435776554862969 ], [ 212646.508746458974201, 542978.915336114121601 ] ] ] } },
{ "type": "Feature", "properties": { "zoneCode": "11710KL2006001", "zoneName": "위례 택지개발사업 예정지구", "blockName": "일상5", "blockType": "일반상업", "lotName": "1-2", "analysis_category": "위례 상업시설 후보", "parcel_id": "일상5-1-2", "area_sqm": 1677.7697875461743 }, "geometry": { "type": "Polygon", "coordinates": [ [ [ 212599.428923600178678, 543003.934411087539047 ], [ 212588.259575093659805, 542970.084514159476385 ], [ 212543.636602500802837, 542984.811800073832273 ], [ 212543.629766583675519, 542984.814004941261373 ], [ 212553.029300498747034, 543013.304072331753559 ], [ 212553.992998767644167, 543018.89761021384038 ], [ 212553.999299759307178, 543018.934011567966081 ], [ 212554.002241014299216, 543018.932908425107598 ], [ 212599.428923600178678, 543003.934411087539047 ] ] ] } },
{ "type": "Feature", "properties": { "zoneCode": "11710KL2006001", "zoneName": "위례 택지개발사업 예정지구", "blockName": "일상5", "blockType": "일반상업", "lotName": "1-1", "analysis_category": "위례 상업시설 후보", "parcel_id": "일상5-1-1", "area_sqm": 1681.1062894188112 }, "geometry": { "type": "Polygon", "coordinates": [ [ [ 212610.218124419887317, 543036.614169510663487 ], [ 212599.428923600178678, 543003.934411087539047 ], [ 212554.002241014299216, 543018.932908425107598 ], [ 212553.999299759307178, 543018.934011567966081 ], [ 212556.448899468465243, 543033.233916545170359 ], [ 212562.43854794910294, 543051.373876371188089 ], [ 212562.441886195039842, 543051.372932058526203 ], [ 212610.218124419887317, 543036.614169510663487 ] ] ] } },
{ "type": "Feature", "properties": { "zoneCode": "11710KL2006001", "zoneName": "위례 택지개발사업 예정지구", "blockName": "일상2", "blockType": "일반상업", "lotName": "1-2", "analysis_category": "위례 상업시설 후보", "parcel_id": "일상2-1-2", "area_sqm": 1049.5894719095579 }, "geometry": { "type": "Polygon", "coordinates": [ [ [ 212483.858226827345788, 540652.78220269351732 ], [ 212464.518897034868132, 540623.602080777287483 ], [ 212439.531670098018367, 540640.122675543883815 ], [ 212439.518623868963914, 540640.1313609337667 ], [ 212458.897851805348182, 540669.341418927768245 ], [ 212458.907874929485843, 540669.334865720942616 ], [ 212483.858226827345788, 540652.78220269351732 ] ] ] } },
{ "type": "Feature", "properties": { "zoneCode": "11710KL2006001", "zoneName": "위례 택지개발사업 예정지구", "blockName": "일상9", "blockType": "일반상업", "lotName": "1-1", "analysis_category": "위례 상업시설 후보", "parcel_id": "일상9-1-1", "area_sqm": 7526.693364388243 }, "geometry": { "type": "Polygon", "coordinates": [ [ [ 213936.636249629140366, 543180.695671788882464 ], [ 213874.619588369125267, 543137.906469326815568 ], [ 213874.61673156771576, 543137.904486773302779 ], [ 213831.359581271652132, 543200.628045679535717 ], [ 213831.35599750286201, 543200.63326105766464 ], [ 213842.135764784150524, 543207.973378125112504 ], [ 213825.030322757665999, 543232.716004347777925 ], [ 213825.025544553500367, 543232.722879051812924 ], [ 213833.0754524821823, 543238.272974218474701 ], [ 213850.615196034108521, 543247.943195227067918 ], [ 213874.524575837771408, 543264.433413306367584 ], [ 213877.494511118886294, 543266.483448015642352 ], [ 213877.496979743853444, 543266.479971269494854 ], [ 213936.636249629140366, 543180.695671788882464 ] ] ] } },
{ "type": "Feature", "properties": { "zoneCode": "11710KL2006001", "zoneName": "위례 택지개발사업 예정지구", "blockName": "일상2", "blockType": "일반상업", "lotName": "1-1", "analysis_category": "위례 상업시설 후보", "parcel_id": "일상2-1-1", "area_sqm": 1055.0058098177155 }, "geometry": { "type": "Polygon", "coordinates": [ [ [ 212483.858226827345788, 540652.78220269351732 ], [ 212458.907874929485843, 540669.334865720942616 ], [ 212458.897851805348182, 540669.341418927768245 ], [ 212479.207116904348368, 540699.950963578186929 ], [ 212479.212449003185611, 540699.94590695144143 ], [ 212479.6691217009502, 540699.4450359987095 ], [ 212481.167298681190005, 540697.801597247831523 ], [ 212481.173423946165713, 540697.797570558614098 ], [ 212497.867717106477357, 540686.730765399290249 ], [ 212499.867514123761794, 540676.931978444801643 ], [ 212483.858226827345788, 540652.78220269351732 ] ] ] } },
{ "type": "Feature", "properties": { "zoneCode": "11710KL2006001", "zoneName": "위례 택지개발사업 예정지구", "blockName": "일상4", "blockType": "일반상업", "lotName": "1-2", "analysis_category": "위례 상업시설 후보", "parcel_id": "일상4-1-2", "area_sqm": 1925.2898985991078 }, "geometry": { "type": "Polygon", "coordinates": [ [ [ 212371.680202185933013, 540574.00086988019757 ], [ 212342.861187939794036, 540530.550721693551168 ], [ 212336.767525845760247, 540534.076946774381213 ], [ 212336.761242170498008, 540534.080577736371197 ], [ 212330.32742616176256, 540537.726747573819011 ], [ 212330.321222081111046, 540537.730299518560059 ], [ 212323.857633168197935, 540541.306868097628467 ], [ 212323.851111441559624, 540541.310261302511208 ], [ 212317.347483474790351, 540544.826789065380581 ], [ 212317.341120695142308, 540544.830182507401332 ], [ 212311.237729727639817, 540546.887167002889328 ], [ 212311.235026399837807, 540546.888033504365012 ], [ 212337.193960311909905, 540592.327731586061418 ], [ 212337.196425801404985, 540592.326469066087157 ], [ 212343.860169532767031, 540588.750229218741879 ], [ 212343.866691350034671, 540588.74675691255834 ], [ 212362.050242845056346, 540579.230744251515716 ], [ 212362.056605732010212, 540579.227271720883437 ], [ 212367.040180234645959, 540576.560749872820452 ], [ 212367.046622599562397, 540576.557277463143691 ], [ 212371.680202185933013, 540574.00086988019757 ] ] ] } },
{ "type": "Feature", "properties": { "zoneCode": "11710KL2006001", "zoneName": "위례 택지개발사업 예정지구", "blockName": "일상2", "blockType": "일반상업", "lotName": "1-3", "analysis_category": "위례 상업시설 후보", "parcel_id": "일상2-1-3", "area_sqm": 1049.3443097440493 }, "geometry": { "type": "Polygon", "coordinates": [ [ [ 212464.518897034868132, 540623.602080777287483 ], [ 212445.174998188769678, 540594.410500836325809 ], [ 212422.185727657924872, 540609.641908248770051 ], [ 212420.190614614577498, 540610.963661013636738 ], [ 212420.179318259411957, 540610.971320310141891 ], [ 212439.518623868963914, 540640.1313609337667 ], [ 212439.531670098018367, 540640.122675543883815 ], [ 212464.518897034868132, 540623.602080777287483 ] ] ] } },
{ "type": "Feature", "properties": { "zoneCode": "11710KL2006001", "zoneName": "위례 택지개발사업 예정지구", "blockName": "일상3", "blockType": "일반상업", "lotName": "2-1", "analysis_category": "위례 상업시설 후보", "parcel_id": "일상3-2-1", "area_sqm": 1891.7663753576965 }, "geometry": { "type": "Polygon", "coordinates": [ [ [ 212443.844026781822322, 540526.809779457049444 ], [ 212414.81691611954011, 540482.992265809327364 ], [ 212414.815012792620109, 540482.989572328864597 ], [ 212414.811432637623511, 540482.992178502492607 ], [ 212410.167265860101907, 540486.317861012532376 ], [ 212410.161299065977801, 540486.322125502396375 ], [ 212402.857217739918269, 540491.497781499172561 ], [ 212402.851330541219795, 540491.501966972718947 ], [ 212395.527052080462454, 540496.637790449662134 ], [ 212395.521244596864562, 540496.64181776996702 ], [ 212388.157233927311609, 540501.72757121338509 ], [ 212388.151346863131039, 540501.731677555362694 ], [ 212385.097220328403637, 540503.817605456686579 ], [ 212385.091333502437919, 540503.821553526329808 ], [ 212413.860308106755838, 540547.221739877946675 ], [ 212413.866115679760696, 540547.217633457737975 ], [ 212430.290457504044753, 540535.80205073277466 ], [ 212430.296503275254508, 540535.7981029485818 ], [ 212443.840367168857483, 540526.812385483877733 ], [ 212443.844026781822322, 540526.809779457049444 ] ] ] } },
{ "type": "Feature", "properties": { "zoneCode": "11710KL2006001", "zoneName": "위례 택지개발사업 예정지구", "blockName": "근상3", "blockType": "근린상업", "lotName": "1-2", "analysis_category": "위례 상업시설 후보", "parcel_id": "근상3-1-2", "area_sqm": 899.97363613112077 }, "geometry": { "type": "Polygon", "coordinates": [ [ [ 212654.677724982640939, 542443.090384593582712 ], [ 212654.67757064345642, 542443.087377869873308 ], [ 212653.238186014234088, 542413.120401561725885 ], [ 212629.285047522338573, 542414.269870263058692 ], [ 212629.278453438280849, 542414.269464669981971 ], [ 212623.284941594320117, 542414.559603808331303 ], [ 212623.278425645170501, 542414.560068640508689 ], [ 212624.707842273783172, 542444.51705003506504 ], [ 212624.707917529769475, 542444.519819282228127 ], [ 212654.677724982640939, 542443.090384593582712 ] ] ] } },
{ "type": "Feature", "properties": { "zoneCode": "11710KL2006001", "zoneName": "위례 택지개발사업 예정지구", "blockName": "일상3", "blockType": "일반상업", "lotName": "1-3", "analysis_category": "위례 상업시설 후보", "parcel_id": "일상3-1-3", "area_sqm": 2818.8290530720683 }, "geometry": { "type": "Polygon", "coordinates": [ [ [ 212510.869403724180302, 540556.433424483053386 ], [ 212482.820275045611197, 540514.143121590139344 ], [ 212464.346229741902789, 540526.40881128446199 ], [ 212464.340343012445373, 540526.41268015478272 ], [ 212439.346212462260155, 540542.99819108331576 ], [ 212439.340166696434608, 540543.002138863084838 ], [ 212438.330089517228771, 540547.89210743107833 ], [ 212464.358831984980498, 540587.161073090624996 ], [ 212464.365593568363693, 540587.156730746035464 ], [ 212510.869403724180302, 540556.433424483053386 ] ] ] } },
{ "type": "Feature", "properties": { "zoneCode": "11710KL2006001", "zoneName": "위례 택지개발사업 예정지구", "blockName": "근상1", "blockType": "근린상업", "lotName": "1-2", "analysis_category": "위례 상업시설 후보", "parcel_id": "근상1-1-2", "area_sqm": 1598.069644697872 }, "geometry": { "type": "Polygon", "coordinates": [ [ [ 212118.45387568109436, 540706.703156486386433 ], [ 212118.452765973284841, 540706.701176511240192 ], [ 212097.175791757414117, 540665.99258579115849 ], [ 212097.171019151894143, 540665.995585987577215 ], [ 212066.347119438287336, 540682.141397141502239 ], [ 212066.344813074654667, 540682.142580821877345 ], [ 212087.615103637595894, 540722.822041142499074 ], [ 212090.401777371531352, 540721.365501596359536 ], [ 212118.450057540962007, 540706.705604101065546 ], [ 212118.45387568109436, 540706.703156486386433 ] ] ] } },
{ "type": "Feature", "properties": { "zoneCode": "11710KL2006001", "zoneName": "위례 택지개발사업 예정지구", "blockName": "일상2", "blockType": "일반상업", "lotName": "1-4", "analysis_category": "위례 상업시설 후보", "parcel_id": "일상2-1-4", "area_sqm": 1067.5837496417191 }, "geometry": { "type": "Polygon", "coordinates": [ [ [ 212445.174998188769678, 540594.410500836325809 ], [ 212445.169209897372639, 540594.401708146557212 ], [ 212428.859793348849053, 540569.801784051232971 ], [ 212419.019909695110982, 540567.991601663758047 ], [ 212418.545836554316338, 540568.327538856188767 ], [ 212418.540028991410509, 540568.331645263242535 ], [ 212413.395856633229414, 540571.827480087755248 ], [ 212413.389890254416969, 540571.831507123890333 ], [ 212408.185889864369528, 540575.267348810099065 ], [ 212408.179923490533838, 540575.271375850657932 ], [ 212402.945991055166814, 540578.637377120554447 ], [ 212402.939865974185523, 540578.641245652455837 ], [ 212399.976003024930833, 540580.487422969774343 ], [ 212399.969878066709498, 540580.491212368942797 ], [ 212420.179318259411957, 540610.971320310141891 ], [ 212420.190614614577498, 540610.963661013636738 ], [ 212422.185727657924872, 540609.641908248770051 ], [ 212445.174998188769678, 540594.410500836325809 ] ] ] } },
{ "type": "Feature", "properties": { "zoneCode": "11710KL2006001", "zoneName": "위례 택지개발사업 예정지구", "blockName": "근상1", "blockType": "근린상업", "lotName": "1-3", "analysis_category": "위례 상업시설 후보", "parcel_id": "근상1-1-3", "area_sqm": 1598.7372765672094 }, "geometry": { "type": "Polygon", "coordinates": [ [ [ 212149.293895296286792, 540690.573831314919516 ], [ 212127.995907976903254, 540649.853182300925255 ], [ 212127.990976409200812, 540649.856182258343324 ], [ 212097.175791757414117, 540665.99258579115849 ], [ 212118.452765973284841, 540706.701176511240192 ], [ 212118.45387568109436, 540706.703156486386433 ], [ 212130.691631956055062, 540700.30307494988665 ], [ 212149.290077137440676, 540690.576278920518234 ], [ 212149.293895296286792, 540690.573831314919516 ] ] ] } },
{ "type": "Feature", "properties": { "zoneCode": "11710KL2006001", "zoneName": "위례 택지개발사업 예정지구", "blockName": "근상1", "blockType": "근린상업", "lotName": "1-1", "analysis_category": "위례 상업시설 후보", "parcel_id": "근상1-1-1", "area_sqm": 1613.7286918656193 }, "geometry": { "type": "Polygon", "coordinates": [ [ [ 212087.615103637595894, 540722.822041142499074 ], [ 212066.344813074654667, 540682.142580821877345 ], [ 212066.340915468113963, 540682.145028354600072 ], [ 212037.588927066564793, 540697.194577392772771 ], [ 212037.347312770842109, 540697.321081068133935 ], [ 212037.340870754036587, 540697.324474548338912 ], [ 212036.04087200073991, 540701.464340561418794 ], [ 212052.610174190049293, 540733.154386146110483 ], [ 212062.150153651717119, 540736.134457371314056 ], [ 212062.156595648732036, 540736.131063928012736 ], [ 212087.610092655144399, 540722.825040980009362 ], [ 212087.615103637595894, 540722.822041142499074 ] ] ] } },
{ "type": "Feature", "properties": { "zoneCode": "11710KL2006001", "zoneName": "위례 택지개발사업 예정지구", "blockName": "일상9", "blockType": "일반상업", "lotName": "1-2", "analysis_category": "위례 상업시설 후보", "parcel_id": "일상9-1-2", "area_sqm": 7156.0403936524208 }, "geometry": { "type": "Polygon", "coordinates": [ [ [ 213936.636249629140366, 543180.695671788882464 ], [ 213877.496979743853444, 543266.479971269494854 ], [ 213877.494511118886294, 543266.483448015642352 ], [ 213888.044414975185646, 543273.763614472118206 ], [ 213903.524027848383412, 543286.643772684969008 ], [ 213905.494032164249802, 543288.223730429192074 ], [ 213926.623635321768234, 543302.804010894382372 ], [ 213926.632536004879512, 543302.802364471019246 ], [ 213936.573518080374924, 543300.994086215621792 ], [ 213936.575110703473911, 543300.991873795166612 ], [ 213989.594436567276716, 543224.08561672270298 ], [ 213988.124453886877745, 543216.225693009211682 ], [ 213936.63847175592673, 543180.697099511977285 ], [ 213936.636249629140366, 543180.695671788882464 ] ] ] } },
{ "type": "Feature", "properties": { "zoneCode": "11710KL2006001", "zoneName": "위례 택지개발사업 예정지구", "blockName": "근상1", "blockType": "근린상업", "lotName": "1-4", "analysis_category": "위례 상업시설 후보", "parcel_id": "근상1-1-4", "area_sqm": 1601.736876232804 }, "geometry": { "type": "Polygon", "coordinates": [ [ [ 212180.170125502307201, 540674.436965533765033 ], [ 212158.871018386795186, 540633.686877184081823 ], [ 212127.995907976903254, 540649.853182300925255 ], [ 212149.293895296286792, 540690.573831314919516 ], [ 212149.296281255345093, 540690.572568639181554 ], [ 212180.170125502307201, 540674.436965533765033 ] ] ] } },
{ "type": "Feature", "properties": { "zoneCode": "11710KL2006001", "zoneName": "위례 택지개발사업 예정지구", "blockName": "일상3", "blockType": "일반상업", "lotName": "2-2", "analysis_category": "위례 상업시설 후보", "parcel_id": "일상3-2-2", "area_sqm": 2075.9545397085926 }, "geometry": { "type": "Polygon", "coordinates": [ [ [ 212458.29043220859603, 540517.222642450476997 ], [ 212458.296318941720529, 540517.218773575150408 ], [ 212476.740464066620916, 540504.973033731570467 ], [ 212450.891303660086123, 540466.012943870620802 ], [ 212441.061539006070234, 540464.21277924394235 ], [ 212417.441454589687055, 540481.102278784033842 ], [ 212414.815012792620109, 540482.989572328864597 ], [ 212414.81691611954011, 540482.992265809327364 ], [ 212443.844026781822322, 540526.809779457049444 ], [ 212443.846333715075161, 540526.808279313263483 ], [ 212458.29043220859603, 540517.222642450476997 ] ] ] } },
{ "type": "Feature", "properties": { "zoneCode": "11710KL2006001", "zoneName": "위례 택지개발사업 예정지구", "blockName": "일상11", "blockType": "일반상업", "lotName": "1-2", "analysis_category": "위례 상업시설 후보", "parcel_id": "일상11-1-2", "area_sqm": 4656.8799751620327 }, "geometry": { "type": "Polygon", "coordinates": [ [ [ 212664.083416764362482, 541459.416777156642638 ], [ 212661.514431858959142, 541405.678771980456077 ], [ 212575.071529230801389, 541409.78704033815302 ], [ 212575.06509220119915, 541409.787347130477428 ], [ 212577.644295022968436, 541463.546992582152598 ], [ 212577.650890937424265, 541463.546686031157151 ], [ 212664.083416764362482, 541459.416777156642638 ] ] ] } },
{ "type": "Feature", "properties": { "zoneCode": "11710KL2006001", "zoneName": "위례 택지개발사업 예정지구", "blockName": "근상1", "blockType": "근린상업", "lotName": "2-2", "analysis_category": "위례 상업시설 후보", "parcel_id": "근상1-2-2", "area_sqm": 1930.653807997101 }, "geometry": { "type": "Polygon", "coordinates": [ [ [ 212259.853926675044931, 540632.766115468461066 ], [ 212238.526483984576771, 540591.966514193452895 ], [ 212238.520997551153414, 540591.968484525452368 ], [ 212201.367034080380108, 540611.434110617730767 ], [ 212201.364648090791889, 540611.435373289161362 ], [ 212222.683920884970576, 540652.205334019032307 ], [ 212222.686227281490574, 540652.204150377656333 ], [ 212259.850267632049508, 540632.768405004753731 ], [ 212259.853926675044931, 540632.766115468461066 ] ] ] } },
{ "type": "Feature", "properties": { "zoneCode": "11710KL2006001", "zoneName": "위례 택지개발사업 예정지구", "blockName": "일상7", "blockType": "일반상업", "lotName": "일상7", "analysis_category": "위례 상업시설 후보", "parcel_id": "일상7", "area_sqm": 4909.2580301269309 }, "geometry": { "type": "Polygon", "coordinates": [ [ [ 214049.132482729939511, 543306.855931516853161 ], [ 213986.576612507778918, 543263.697280253982171 ], [ 213986.573755776160397, 543263.695297695114277 ], [ 213971.133506370009854, 543286.114812438841909 ], [ 213966.703352853306569, 543297.86466332746204 ], [ 213955.573231302347267, 543314.024331783177331 ], [ 213957.202094588341424, 543323.888674842193723 ], [ 213957.202958939480595, 543323.894372206646949 ], [ 214004.242141787864966, 543356.344846991240047 ], [ 214007.252002443099627, 543358.424876540899277 ], [ 214010.681910208280897, 543362.474888335214928 ], [ 214010.6881215609028, 543362.466196735855192 ], [ 214010.981966753781307, 543362.054846796556376 ], [ 214049.132482729939511, 543306.855931516853161 ] ] ] } },
{ "type": "Feature", "properties": { "zoneCode": "11710KL2006001", "zoneName": "위례 택지개발사업 예정지구", "blockName": "일상3", "blockType": "일반상업", "lotName": "1-2", "analysis_category": "위례 상업시설 후보", "parcel_id": "일상3-1-2", "area_sqm": 2822.4981155216296 }, "geometry": { "type": "Polygon", "coordinates": [ [ [ 212538.808594009315129, 540598.55354119068943 ], [ 212510.869403724180302, 540556.433424483053386 ], [ 212464.365593568363693, 540587.156730746035464 ], [ 212464.358831984980498, 540587.161073090624996 ], [ 212464.399350514897378, 540587.222226398531348 ], [ 212492.328324410133064, 540629.352383670397103 ], [ 212492.377723356883507, 540629.426844842266291 ], [ 212492.382417129934765, 540629.423528199316934 ], [ 212538.808594009315129, 540598.55354119068943 ] ] ] } },
{ "type": "Feature", "properties": { "zoneCode": "11710KL2006001", "zoneName": "위례 택지개발사업 예정지구", "blockName": "일상1", "blockType": "일반상업", "lotName": "1-1", "analysis_category": "위례 상업시설 후보", "parcel_id": "일상1-1-1", "area_sqm": 3041.7973343238609 }, "geometry": { "type": "Polygon", "coordinates": [ [ [ 212463.797225864429493, 540712.911181096336804 ], [ 212434.027976446028333, 540668.03083374700509 ], [ 212385.01772282179445, 540700.501124069094658 ], [ 212385.011597487959079, 540700.505229962291196 ], [ 212391.597885320050409, 540710.439992461469956 ], [ 212401.077712685771985, 540719.280115252826363 ], [ 212402.557548837270588, 540721.510187558713369 ], [ 212404.147505959263071, 540723.969992172089405 ], [ 212405.67749643092975, 540726.460094670997933 ], [ 212407.157390131760621, 540728.970063965534791 ], [ 212408.587395576993003, 540731.520000424818136 ], [ 212409.96728887304198, 540734.100170139805414 ], [ 212411.28729607060086, 540736.710004563443363 ], [ 212422.807089498935966, 540740.100266104680486 ], [ 212422.813214582041837, 540740.096318527241237 ], [ 212463.797225864429493, 540712.911181096336804 ] ] ] } },
{ "type": "Feature", "properties": { "zoneCode": "11710KL2006001", "zoneName": "위례 택지개발사업 예정지구", "blockName": "일상1", "blockType": "일반상업", "lotName": "1-2", "analysis_category": "위례 상업시설 후보", "parcel_id": "일상1-1-2", "area_sqm": 2857.2237970170559 }, "geometry": { "type": "Polygon", "coordinates": [ [ [ 212434.027976446028333, 540668.03083374700509 ], [ 212407.169194849207997, 540627.530867791501805 ], [ 212358.165493425738532, 540659.995468752807938 ], [ 212358.158970136923017, 540659.999969769502059 ], [ 212385.008029084099689, 540700.500001776730642 ], [ 212385.011597487959079, 540700.505229962291196 ], [ 212385.01772282179445, 540700.501124069094658 ], [ 212434.027976446028333, 540668.03083374700509 ] ] ] } },
{ "type": "Feature", "properties": { "zoneCode": "11710KL2006001", "zoneName": "위례 택지개발사업 예정지구", "blockName": "근상1", "blockType": "근린상업", "lotName": "2-1", "analysis_category": "위례 상업시설 후보", "parcel_id": "근상1-2-1", "area_sqm": 1930.6191424643309 }, "geometry": { "type": "Polygon", "coordinates": [ [ [ 212222.683920884970576, 540652.205334019032307 ], [ 212201.364648090791889, 540611.435373289161362 ], [ 212201.360988938744413, 540611.437741993111558 ], [ 212164.821121954038972, 540630.571778952726163 ], [ 212164.186218161514262, 540630.904169576358981 ], [ 212164.18104838731233, 540630.907010896946304 ], [ 212185.490229750808794, 540671.656982862972654 ], [ 212185.496512793353759, 540671.653668387327343 ], [ 212222.680182157753734, 540652.207781719043851 ], [ 212222.683920884970576, 540652.205334019032307 ] ] ] } },
{ "type": "Feature", "properties": { "zoneCode": "11710KL2006001", "zoneName": "위례 택지개발사업 예정지구", "blockName": "지원2", "blockType": "도시지원시설용지", "lotName": "지원2", "analysis_category": "위례 자족 대체 후보: 도시지원/복합", "parcel_id": "지원2", "area_sqm": 49348.995718153332 }, "geometry": { "type": "Polygon", "coordinates": [ [ [ 212030.572729317384074, 540778.534939083969221 ], [ 212008.427000657917233, 540736.049344817409292 ], [ 211959.693637742777355, 540761.53394498443231 ], [ 211947.423526871367358, 540768.373455693363212 ], [ 211935.533540074742632, 540775.823407656280324 ], [ 211924.043532960931771, 540783.893163807806559 ], [ 211912.983444351324579, 540792.542959274491295 ], [ 211902.383422923245234, 540801.752654549782164 ], [ 211892.273313179088291, 540811.492217909079045 ], [ 211882.683247687760741, 540821.752192685496993 ], [ 211873.643085402611177, 540832.491784955025651 ], [ 211865.162960341403959, 540843.681488848873414 ], [ 211857.28287305161939, 540855.301257985294797 ], [ 211850.01273297064472, 540867.311299097491428 ], [ 211843.372608319623396, 540879.680854779086076 ], [ 211819.565794314519735, 540926.925384995993227 ], [ 211813.715879991505062, 540938.534744542906992 ], [ 211806.278912005625898, 540953.29312306875363 ], [ 211800.631612624740228, 540964.499722826178186 ], [ 211800.839563596033258, 540964.567675239173695 ], [ 211841.071051211416489, 540977.750215529929847 ], [ 211876.180570679338416, 540989.250724110170268 ], [ 211947.179828728432767, 540997.69176588265691 ], [ 212023.199264963972382, 541000.05280970223248 ], [ 212073.878864663187414, 540998.703860996174626 ], [ 212081.21891853492707, 540988.824057404417545 ], [ 212084.681688309239689, 540988.686325249494985 ], [ 212081.40001546824351, 540919.994387403479777 ], [ 212081.080080247018486, 540914.674716274021193 ], [ 212080.6402126083849, 540909.364680342376232 ], [ 212080.070333947020117, 540904.054531726054847 ], [ 212079.360386818414554, 540898.774721944355406 ], [ 212078.54051925172098, 540893.504799426067621 ], [ 212077.580583304254105, 540888.264820246840827 ], [ 212076.500698751857271, 540883.044842933537439 ], [ 212075.290758283110335, 540877.854902798309922 ], [ 212073.960869214613922, 540872.684648195165209 ], [ 212072.500973672867985, 540867.56484736490529 ], [ 212070.921049411961576, 540862.464890447212383 ], [ 212069.22113201659522, 540857.414927298435941 ], [ 212068.311227807687828, 540854.934686789172702 ], [ 212058.081531727628317, 540838.104950363514945 ], [ 212053.831670343060978, 540829.484906295780092 ], [ 212037.112375889118994, 540797.514870779239573 ], [ 212030.572729317384074, 540778.534939083969221 ] ] ] } },
{ "type": "Feature", "properties": { "zoneCode": "11710KL2006001", "zoneName": "위례 택지개발사업 예정지구", "blockName": "E1-2", "blockType": "복합용지", "lotName": "E1-2", "analysis_category": "위례 자족 대체 후보: 도시지원/복합", "parcel_id": "E1-2", "area_sqm": 99444.27110683854 }, "geometry": { "type": "Polygon", "coordinates": [ [ [ 211628.700804511841852, 541217.22710319259204 ], [ 211624.655217255814932, 541220.754437295021489 ], [ 211619.885268018231727, 541224.764322418253869 ], [ 211616.865168610675028, 541227.224205475416966 ], [ 211611.645154090976575, 541231.3341173985973 ], [ 211606.615153267252026, 541235.153969206148759 ], [ 211601.515100457530934, 541238.893883138429374 ], [ 211596.35511566104833, 541242.533774639596231 ], [ 211585.855069480719976, 541249.543560076970607 ], [ 211580.505074770655483, 541252.91344066360034 ], [ 211575.105080807028571, 541256.183313561719842 ], [ 211569.64506090071518, 541259.363214485696517 ], [ 211564.135107109788805, 541262.453078524908051 ], [ 211558.574994644062826, 541265.443014424294233 ], [ 211552.955028849741211, 541268.332850687555037 ], [ 211547.285063020419329, 541271.122759453719482 ], [ 211541.575030220061308, 541273.81267556163948 ], [ 211535.815076750528533, 541276.402506413985975 ], [ 211529.485051698051393, 541279.102411313564517 ], [ 211521.125080645579146, 541282.562237442471087 ], [ 211506.085063627484487, 541288.721901971730404 ], [ 211496.225103505334118, 541292.721710746292956 ], [ 211489.395114431186812, 541295.361604165285826 ], [ 211482.5250859275111, 541297.881487761274911 ], [ 211475.605164121341659, 541300.281348169664852 ], [ 211468.65513544093119, 541302.561212858534418 ], [ 211460.055179667571792, 541305.191094440291636 ], [ 211459.215210435213521, 541302.091016786522232 ], [ 211452.125268351344857, 541304.01098267477937 ], [ 211452.995233627676498, 541307.200911307823844 ], [ 211438.81532135271118, 541310.840661060530692 ], [ 211424.515307312743971, 541313.990382668329403 ], [ 211410.115400407026755, 541316.63016455876641 ], [ 211395.635516496462515, 541318.779896285617724 ], [ 211381.085547542577842, 541320.409681531717069 ], [ 211374.695606211200356, 541320.959523942670785 ], [ 211276.646290689677699, 541325.337908819084987 ], [ 211253.106462820142042, 541326.787525247782469 ], [ 211252.436507148522651, 541327.42756197147537 ], [ 211249.096458903339226, 541331.897376495646313 ], [ 211246.306420211389195, 541336.637285854318179 ], [ 211244.066376945265802, 541341.657259209896438 ], [ 211242.426299532788107, 541346.907195643172599 ], [ 211241.386215349368285, 541352.307174765854143 ], [ 211241.016089316108264, 541356.88709825836122 ], [ 211245.095802253315924, 541371.767052455339581 ], [ 211249.004406996653415, 541460.626391110359691 ], [ 211251.353557407390326, 541511.476004567812197 ], [ 211248.473374985565897, 541522.815892302780412 ], [ 211248.473920432355953, 541522.823884838726372 ], [ 211248.513341319368919, 541523.465735138393939 ], [ 211260.14297401078511, 541539.075810434063897 ], [ 211266.382819129270501, 541546.145897520123981 ], [ 211272.542650701245293, 541552.675916076055728 ], [ 211278.8324834756786, 541558.846005864674225 ], [ 211285.262384660949465, 541564.615985415526666 ], [ 211291.842248518310953, 541569.956117793801241 ], [ 211297.212139050825499, 541573.886163468239829 ], [ 211303.021996648749337, 541577.706189264077693 ], [ 211309.281889346748358, 541581.316273525939323 ], [ 211310.761833041528007, 541582.046322996378876 ], [ 211315.481814719707472, 541584.376352602732368 ], [ 211321.59168305399362, 541586.926423892378807 ], [ 211328.031645586452214, 541589.116528254118748 ], [ 211334.801505424140487, 541590.916598540381528 ], [ 211341.691433506697649, 541592.246749259415083 ], [ 211348.651383793156128, 541593.096784605062567 ], [ 211355.651334161811974, 541593.456931461463682 ], [ 211362.661235779582057, 541593.337039763107896 ], [ 211369.65121210218058, 541592.737147853476927 ], [ 211376.581149608071428, 541591.647310027386993 ], [ 211383.411132393026492, 541590.087411180022173 ], [ 211389.681109574390575, 541588.207557087065652 ], [ 211394.641100636683404, 541586.427592439227737 ], [ 211400.781150814174907, 541583.917723727878183 ], [ 211425.101139683480142, 541571.528222645400092 ], [ 211448.351127166039078, 541558.238743698573671 ], [ 211563.361324955709279, 541492.451070465380326 ], [ 211579.911341331200674, 541482.711436620098539 ], [ 211587.801343527797144, 541477.771658063167706 ], [ 211595.361390652600676, 541472.741773593472317 ], [ 211602.571368165808963, 541467.571903952164575 ], [ 211609.581422137591289, 541462.062065035570413 ], [ 211616.451453051471617, 541456.052264463622123 ], [ 211622.56148827081779, 541450.112382202292792 ], [ 211627.26152076429571, 541445.092525839107111 ], [ 211633.59165619808482, 541437.35271973349154 ], [ 211636.581667188031133, 541433.342752771917731 ], [ 211639.44172483420698, 541429.242872628616169 ], [ 211642.18174825629103, 541425.062904739519581 ], [ 211644.791804198146565, 541420.802993230870925 ], [ 211647.271827116142958, 541416.453088547452353 ], [ 211649.621933886053739, 541412.043180036358535 ], [ 211651.831967051723041, 541407.56320404948201 ], [ 211653.912018117553089, 541403.013332737376913 ], [ 211655.85206076229224, 541398.403363726451062 ], [ 211657.632093701773556, 541393.943432768224739 ], [ 211659.382160696055507, 541389.263481951667927 ], [ 211660.982285570469685, 541384.5235773131717 ], [ 211662.442293814703589, 541379.743593571940437 ], [ 211663.762423380743712, 541374.923689184477553 ], [ 211664.932423299236689, 541370.063770533073694 ], [ 211665.952531829039799, 541365.163758686860092 ], [ 211666.832574007945368, 541360.243845004821196 ], [ 211667.552697748469654, 541355.293873172369786 ], [ 211668.202803289343137, 541349.443952234694734 ], [ 211668.492813617340289, 541345.723977326066233 ], [ 211668.722893431375269, 541341.674030215130188 ], [ 211668.862985457963077, 541336.684066535672173 ], [ 211668.883020781708183, 541331.684119793004356 ], [ 211668.733117832220159, 541326.034127797582187 ], [ 211668.513213175639976, 541321.684197197319008 ], [ 211668.0033348989964, 541316.034248221083544 ], [ 211667.433396519219968, 541311.394290108350106 ], [ 211666.683506741479505, 541306.444288185914047 ], [ 211666.113532629387919, 541303.304291257518344 ], [ 211665.933542853890685, 541302.284305790555663 ], [ 211665.303642572194804, 541299.264341093832627 ], [ 211664.363648924714653, 541295.124346217839047 ], [ 211663.273717701347778, 541290.804358515306376 ], [ 211661.903852650895715, 541286.014346267329529 ], [ 211660.313937526894733, 541281.004361302126199 ], [ 211657.434060441708425, 541273.04437616316136 ], [ 211651.974342642148258, 541260.084398564998992 ], [ 211645.634607590123778, 541246.784421666176058 ], [ 211628.700804511841852, 541217.22710319259204 ] ] ] } },
{ "type": "Feature", "properties": { "zoneCode": "11710KL2006001", "zoneName": "위례 택지개발사업 예정지구", "blockName": "E1-3", "blockType": "복합용지", "lotName": "E1-3", "analysis_category": "위례 자족 대체 후보: 도시지원/복합", "parcel_id": "E1-3", "area_sqm": 31595.667231527674 }, "geometry": { "type": "Polygon", "coordinates": [ [ [ 211705.590021541400347, 541492.319587270496413 ], [ 211673.790220229886472, 541493.849198022508062 ], [ 211670.950158275343711, 541497.009113055537455 ], [ 211665.100121229304932, 541503.348961004172452 ], [ 211659.160075355874142, 541509.508747694664635 ], [ 211647.099968673050171, 541521.358530075289309 ], [ 211634.929931348829996, 541532.688218100229278 ], [ 211623.149914339475799, 541543.287956081680022 ], [ 211614.859836783260107, 541550.637773176189512 ], [ 211606.689821851148736, 541557.887585216318257 ], [ 211590.32961329491809, 541572.757180863292888 ], [ 211575.605420437088469, 541584.715550424880348 ], [ 211564.719477972161258, 541593.556545347790234 ], [ 211560.059429823537357, 541598.996483372873627 ], [ 211555.029505693732062, 541605.286353579256684 ], [ 211551.859329518774757, 541609.616319242748432 ], [ 211548.829279382392997, 541613.866165326558985 ], [ 211546.899344360746909, 541616.766065216623247 ], [ 211543.259158365282929, 541622.646005681832321 ], [ 211541.149236754950834, 541626.355981721892022 ], [ 211539.169101947452873, 541630.10593668546062 ], [ 211536.398997464333661, 541635.895685863215476 ], [ 211533.238887345942203, 541643.645704415277578 ], [ 211531.248929980414687, 541649.445546402363107 ], [ 211530.278764090529876, 541652.675612187595107 ], [ 211529.19877502208692, 541656.715453552198596 ], [ 211528.428666788648115, 541659.96549587987829 ], [ 211527.148577508400194, 541666.545299711171538 ], [ 211526.138473526225425, 541674.005266870837659 ], [ 211525.828416974662105, 541677.335381118464284 ], [ 211525.558456062135519, 541681.665297383326106 ], [ 211527.45931512475363, 541683.854791566031054 ], [ 211527.468279650318436, 541683.865327631006949 ], [ 211543.859586707432754, 541703.025633396930061 ], [ 211543.867837140569463, 541703.035377211519517 ], [ 211577.236578757787356, 541742.031703915214166 ], [ 211577.256966985325562, 541742.055548786418512 ], [ 211658.946712177537847, 541724.23711640201509 ], [ 211670.026621922646882, 541718.747279105125926 ], [ 211709.80639406706905, 541710.077993385144509 ], [ 211715.886544645065442, 541702.138194060768001 ], [ 211712.846464179398026, 541640.188717338838615 ], [ 211705.590021541400347, 541492.319587270496413 ] ] ] } },
{ "type": "Feature", "properties": { "zoneCode": "11710KL2006001", "zoneName": "위례 택지개발사업 예정지구", "blockName": "지원3", "blockType": "도시지원시설용지", "lotName": "지원3", "analysis_category": "위례 자족 대체 후보: 도시지원/복합", "parcel_id": "지원3", "area_sqm": 6482.8268155080932 }, "geometry": { "type": "Polygon", "coordinates": [ [ [ 211612.630059074086603, 540914.43400447408203 ], [ 211615.905728904268472, 540915.930613587144762 ], [ 211668.404919217020506, 540939.631312941550277 ], [ 211669.556776344339596, 540940.110093638650142 ], [ 211676.786398185970029, 540943.115219488041475 ], [ 211678.24482294722111, 540943.721438051899895 ], [ 211679.920630260545295, 540944.301056597614661 ], [ 211686.570003193948651, 540946.601416076417081 ], [ 211688.304746078298194, 540947.201455755042844 ], [ 211718.604222472145921, 540956.681869299849495 ], [ 211723.573112890444463, 540956.801464225398377 ], [ 211723.577801386418287, 540956.801549955154769 ], [ 211723.59417121799197, 540956.801968647283502 ], [ 211730.444392611592775, 540943.20222190557979 ], [ 211730.454239703249186, 540943.150720682227984 ], [ 211730.494346862542443, 540942.942184575484134 ], [ 211748.874792780115968, 540906.472768592531793 ], [ 211745.744965174992103, 540896.972836501197889 ], [ 211745.295020036282949, 540896.742875752155669 ], [ 211738.125120794982649, 540893.132788575370796 ], [ 211734.695192696730373, 540891.48270909092389 ], [ 211731.215201909770258, 540889.942712986259721 ], [ 211727.675266601261683, 540888.532569666043855 ], [ 211724.095426674815826, 540887.242574133095331 ], [ 211720.465351694496349, 540886.072474567452446 ], [ 211716.805516315245768, 540885.042478732764721 ], [ 211713.115551620576298, 540884.132486474351026 ], [ 211709.385524295910727, 540883.342404777300544 ], [ 211705.635591506259516, 540882.692203511949629 ], [ 211701.865607948129764, 540882.172307464992628 ], [ 211698.075588564126519, 540881.772192039294168 ], [ 211694.285690117947524, 540881.512143576401286 ], [ 211690.475662401819136, 540881.382083802483976 ], [ 211686.675703781365883, 540881.381975969765335 ], [ 211682.865853497176431, 540881.522000221069902 ], [ 211679.065768885600846, 540881.781926103751175 ], [ 211675.28583233471727, 540882.181867880281061 ], [ 211671.515806660754606, 540882.711761292652227 ], [ 211667.765877977071796, 540883.36164983373601 ], [ 211664.035938839893788, 540884.151633031433448 ], [ 211660.345884816808393, 540885.061559792142361 ], [ 211656.685913406050531, 540886.111436906270683 ], [ 211653.055907570233103, 540887.271431069239043 ], [ 211649.475931274937466, 540888.571403286769055 ], [ 211645.94594723492628, 540889.981282942579128 ], [ 211642.465927481534891, 540891.521169586922042 ], [ 211639.035885962133761, 540893.181171517004259 ], [ 211632.365898416173877, 540896.841002272558399 ], [ 211629.125938435754506, 540898.85095975571312 ], [ 211625.96586528714397, 540900.960973980720155 ], [ 211622.875890828494448, 540903.18076444324106 ], [ 211619.917669015034335, 540905.463174806092866 ], [ 211619.855934999242891, 540905.510805660975166 ], [ 211614.128987898351625, 540911.017094189766794 ], [ 211614.118863098701695, 540911.040265910676681 ], [ 211612.632370825187536, 540914.428864085464738 ], [ 211612.630059074086603, 540914.43400447408203 ] ] ] } },
{ "type": "Feature", "properties": { "zoneCode": "11710KL2006001", "zoneName": "위례 택지개발사업 예정지구", "blockName": "E1-1", "blockType": "복합용지", "lotName": "E1-1", "analysis_category": "위례 자족 대체 후보: 도시지원/복합", "parcel_id": "E1-1", "area_sqm": 20632.048166141794 }, "geometry": { "type": "Polygon", "coordinates": [ [ [ 213800.266429990297183, 543268.491776880808175 ], [ 213783.214344244945096, 543293.211297427071258 ], [ 213783.210839991719695, 543293.216512900427915 ], [ 213772.512709094793536, 543285.836809739237651 ], [ 213772.510011080885306, 543285.834906628122553 ], [ 213705.511528358591022, 543382.959570703911595 ], [ 213705.514305801014416, 543382.96147390070837 ], [ 213836.28518720070133, 543473.169736184761859 ], [ 213836.288532918435521, 543473.164283259306103 ], [ 213841.067308301018784, 543464.867726784665138 ], [ 213841.207215925998753, 543464.625016880454496 ], [ 213841.349361402273644, 543464.326460020034574 ], [ 213845.356694418849656, 543455.915410158340819 ], [ 213845.448613972344901, 543455.722854274325073 ], [ 213845.49433345432044, 543455.603871739353053 ], [ 213848.94301655550953, 543446.622777301236056 ], [ 213848.983628940623021, 543446.517471977043897 ], [ 213849.037396244821139, 543446.336402331595309 ], [ 213851.705789565166924, 543437.351311422418803 ], [ 213851.790874999802327, 543437.064604266663082 ], [ 213851.843719423399307, 543436.81755610764958 ], [ 213853.85341186914593, 543427.421812715590931 ], [ 213854.8430166435719, 543421.715272135916166 ], [ 213854.904997043486219, 543421.42069423745852 ], [ 213856.745910937024746, 543412.672477755811997 ], [ 213856.804127688228618, 543412.395851052133366 ], [ 213856.966423871373991, 543411.828750747139566 ], [ 213859.304497134377016, 543403.659640390309505 ], [ 213859.424601157894358, 543403.240087035344914 ], [ 213859.665544127579778, 543402.579926466336474 ], [ 213862.498915161180776, 543394.8204691845458 ], [ 213862.69101518028765, 543394.294316913117655 ], [ 213862.981432038970524, 543393.646658269688487 ], [ 213866.321391658158973, 543386.196405752445571 ], [ 213866.586929942626739, 543385.604160820366815 ], [ 213866.894143312529195, 543385.032079045078717 ], [ 213870.766470031870995, 543377.821064027026296 ], [ 213871.092491351184435, 543377.213967734365724 ], [ 213871.383072033408098, 543376.754826100892387 ], [ 213875.839923024148447, 543369.711384791997261 ], [ 213876.184829135658219, 543369.166262320941314 ], [ 213876.421634261670988, 543368.84515598800499 ], [ 213881.546468843909679, 543361.897281244164333 ], [ 213881.837897130928468, 543361.5022193006007 ], [ 213881.990173169382615, 543361.323922894080169 ], [ 213887.93133127168403, 543354.367834698059596 ], [ 213888.022872462752275, 543354.260477395611815 ], [ 213897.05809604053502, 543344.415638878010213 ], [ 213895.939089087652974, 543334.478452717186883 ], [ 213800.325232533796225, 543268.532220672932453 ], [ 213800.269366341439309, 543268.493680398678407 ], [ 213800.266429990297183, 543268.491776880808175 ] ] ] } },
{ "type": "Feature", "properties": { "zoneCode": "11710KL2006001", "zoneName": "위례 택지개발사업 예정지구", "blockName": "지원1", "blockType": "도시지원시설용지", "lotName": "지원1", "analysis_category": "위례 자족 대체 후보: 도시지원/복합", "parcel_id": "지원1", "area_sqm": 88645.051335221287 }, "geometry": { "type": "Polygon", "coordinates": [ [ [ 212088.737416594725801, 541077.079459354397841 ], [ 212088.67281583629665, 541077.020650427904911 ], [ 212088.665673241514014, 541077.014151322189718 ], [ 212085.854429653234547, 541074.453983220621012 ], [ 212085.314212082856102, 541073.797361720120534 ], [ 212080.530315786396386, 541067.922540116705932 ], [ 212080.050871125276899, 541067.333505383692682 ], [ 211951.038734710600693, 541073.513070980086923 ], [ 211890.138800353248371, 541076.430385042447597 ], [ 211890.135021212132415, 541076.349982564919628 ], [ 211806.25601275434019, 541080.383574642241001 ], [ 211753.956417509762105, 541082.898635152145289 ], [ 211752.971517417143332, 541082.94630693946965 ], [ 211752.009819943545153, 541082.995198536082171 ], [ 211751.073149808653397, 541083.047449038596824 ], [ 211750.161424749676371, 541083.105036598397419 ], [ 211749.274721563240746, 541083.169860455906019 ], [ 211749.066652182402322, 541083.187688024248928 ], [ 211748.41383257083362, 541083.243583470932208 ], [ 211747.578596834937343, 541083.327629762236029 ], [ 211746.769251193996752, 541083.42310749029275 ], [ 211745.932858668471454, 541083.538567287265323 ], [ 211742.070726238016505, 541084.358617077814415 ], [ 211738.325441195018357, 541085.608355703298002 ], [ 211734.744785589457024, 541087.272182187763974 ], [ 211731.248587184876669, 541089.399914769106545 ], [ 211728.025122244434897, 541091.921628948650323 ], [ 211725.118225732265273, 541094.802805582876317 ], [ 211722.568322261562571, 541098.004014591220766 ], [ 211722.090464164561126, 541098.699376547476277 ], [ 211721.642825254559284, 541099.379271360347047 ], [ 211721.19371572235832, 541100.087809406220913 ], [ 211720.742183418828063, 541100.823960639419965 ], [ 211720.287195953715127, 541101.587248814874329 ], [ 211719.827166340692202, 541102.376009952626191 ], [ 211719.360664852865739, 541103.189767246018164 ], [ 211718.886103616619948, 541104.027489760890603 ], [ 211718.402135493466631, 541104.88648514659144 ], [ 211710.23466108678258, 541119.396740779397078 ], [ 211709.743683019361924, 541120.269019170547836 ], [ 211709.25174956722185, 541121.142641376005486 ], [ 211708.758383821463212, 541122.017685858416371 ], [ 211708.263744493073318, 541122.894311097683385 ], [ 211707.7674348114233, 541123.772120884852484 ], [ 211707.462401735829189, 541124.310096383676864 ], [ 211707.268658661458176, 541124.652142800041474 ], [ 211706.768531355104642, 541125.532400142052211 ], [ 211706.266177769226488, 541126.413603863446042 ], [ 211705.761677362024784, 541127.295754070393741 ], [ 211705.254712607071269, 541128.17861292604357 ], [ 211704.744965528894681, 541129.062259115511551 ], [ 211704.232595394569216, 541129.946455471566878 ], [ 211703.717125296097947, 541130.831280453363433 ], [ 211703.198476432968164, 541131.716259172186255 ], [ 211702.680313035816653, 541132.595145464641973 ], [ 211695.769035645033, 541143.80810919625219 ], [ 211688.452149511169409, 541154.760630854638293 ], [ 211687.83574923989363, 541155.653542139567435 ], [ 211684.345711825182661, 541160.556777235702612 ], [ 211682.654120746621629, 541174.32494521222543 ], [ 211682.653398008522345, 541174.330325042945333 ], [ 211682.652513899840415, 541174.337445507873781 ], [ 211700.050438011880033, 541207.470205522608012 ], [ 211700.054814723174786, 541207.465859533753246 ], [ 211700.373634704912547, 541208.085655757575296 ], [ 211700.392099273245549, 541208.121923106838949 ], [ 211700.865376392554026, 541209.041758769308217 ], [ 211701.338728982838802, 541209.964364006184042 ], [ 211701.811760051583406, 541210.889500865247101 ], [ 211702.284787565004081, 541211.817090669297613 ], [ 211702.757413757237373, 541212.747449370333925 ], [ 211703.229797667823732, 541213.680498068104498 ], [ 211703.701701011072146, 541214.616157291573472 ], [ 211704.173202920937911, 541215.554664543131366 ], [ 211704.594459484767867, 541216.396404682658613 ], [ 211704.644144683959894, 541216.495861339732073 ], [ 211705.114446616556961, 541217.439905822859146 ], [ 211705.583790854288964, 541218.386797550949268 ], [ 211706.05257461318979, 541219.33661620982457 ], [ 211706.520480253442656, 541220.289203088614158 ], [ 211706.987427978194319, 541221.244795466656797 ], [ 211707.453417782729957, 541222.203393340809271 ], [ 211707.88271387614077, 541223.09159335528966 ], [ 211707.918211057258304, 541223.165154635673389 ], [ 211708.3818082328944, 541224.129762832308188 ], [ 211708.844208767113741, 541225.097613573423587 ], [ 211709.305333627969958, 541226.068390231230296 ], [ 211709.764943874411983, 541227.042488117702305 ], [ 211710.222960476967273, 541228.019590599113144 ], [ 211710.679382881819038, 541229.00009331968613 ], [ 211711.134211427124683, 541229.983758893795311 ], [ 211711.587207710166695, 541230.970586985349655 ], [ 211712.038450755935628, 541231.96089421515353 ], [ 211712.487623036955483, 541232.954442755901255 ], [ 211712.934803793963511, 541233.951390972128138 ], [ 211713.379993140668375, 541234.951659732381813 ], [ 211713.822952458809596, 541235.955406960682012 ], [ 211714.263522927067243, 541236.962553300661966 ], [ 211714.701624860230368, 541237.973256896948442 ], [ 211715.137417522957548, 541238.987280587432906 ], [ 211715.570582271146122, 541240.005177825107239 ], [ 211716.00119946731138, 541241.026315685478039 ], [ 211716.429029937251471, 541242.051247739698738 ], [ 211716.8539153028687, 541243.079578113043681 ], [ 211717.275775765621802, 541244.11154407938011 ], [ 211717.694770147441886, 541245.14722499367781 ], [ 211718.110660166828893, 541246.186541385482997 ], [ 211718.523127847758587, 541247.229571938398294 ], [ 211718.932411700108787, 541248.276237852522172 ], [ 211719.338193529925775, 541249.32677607180085 ], [ 211719.740553248382639, 541250.3808701854432 ], [ 211720.139331371581648, 541251.438915614970028 ], [ 211720.534131013206206, 541252.500595282297581 ], [ 211720.92542875133222, 541253.566068114480004 ], [ 211721.312509171286365, 541254.635491364984773 ], [ 211721.695610894414131, 541255.708707102923654 ], [ 211722.07473392621614, 541256.78571532969363 ], [ 211722.449480935494648, 541257.866515483474359 ], [ 211722.819931279402226, 541258.951186806196347 ], [ 211723.185766987531679, 541260.039807974244468 ], [ 211723.547147332050372, 541261.132141821552068 ], [ 211723.890304296801332, 541262.18630961002782 ], [ 211727.032293461728841, 541272.788028063252568 ], [ 211727.064166443858994, 541272.895609414437786 ], [ 211727.086999922554241, 541272.989330445765518 ], [ 211729.716531828598818, 541283.745882669463754 ], [ 211731.841160181298619, 541294.711877402034588 ], [ 211733.417581267625792, 541305.659677952760831 ], [ 211733.433083891577553, 541305.767552368575707 ], [ 211733.444986539514503, 541305.892513540107757 ], [ 211734.488292238122085, 541316.884573171148077 ], [ 211734.488606083876221, 541316.887422245345078 ], [ 211734.494486900017364, 541316.887114014942199 ], [ 212048.504310526914196, 541301.846172719378956 ], [ 212048.510988416033797, 541301.844204158056527 ], [ 212060.346872647409327, 541298.275445662904531 ], [ 212089.357841402030317, 541296.885971755022183 ], [ 212089.360547795600723, 541296.882810524664819 ], [ 212096.088620903115952, 541289.477876529912464 ], [ 212096.12682498517097, 541289.435914503410459 ], [ 212090.123016793979332, 541164.251481196144596 ], [ 212092.163201706542168, 541144.121724071679637 ], [ 212089.334210529923439, 541085.13213725190144 ], [ 212088.737416594725801, 541077.079459354397841 ] ] ] } }
]
}
