{"type": "FeatureCollection", "name": "accessibility_isochrones_10min", "crs": {"type": "name", "properties": {"name": "urn:ogc:def:crs:EPSG::5186"}}, "features": [{"type": "Feature", "properties": {"area_name": "pangyo_1st_technovalley", "origin_station": "판교역", "time_threshold_min": 10, "reachable_population": 52313.313071881435, "reachable_workers": 74153.83232464892}, "geometry": {"type": "Polygon", "coordinates": [[[204850.48034044087, 538757.3584180137], [203403.63954100863, 541189.7327045073], [209842.87660537046, 532808.6044602178], [209641.70324558634, 527866.6879963846], [209111.61169044126, 526521.6148640675], [209571.3955258955, 529678.5882144093], [204850.48034044087, 538757.3584180137]]]}}, {"type": "Feature", "properties": {"area_name": "pangyo_1st_technovalley", "origin_station": "판교역", "time_threshold_min": 20, "reachable_population": 360043.73512223247, "reachable_workers": 320347.3434368111}, "geometry": {"type": "Polygon", "coordinates": [[[201899.24997001133, 545702.4255410673], [201714.18584867846, 546347.2632504198], [202175.44771492403, 544977.3431052591], [202502.17044503297, 544128.7920423816], [203088.3821059551, 542696.4093724476], [211392.41874202382, 534723.374786168], [211359.67072537125, 533016.7716593503], [209533.8097155799, 525054.1813257855], [206147.50602825498, 522059.57398662664], [207121.88814086228, 523800.57671492104], [209571.3955258955, 529678.5882144093], [209842.87660537046, 532808.6044602178], [204850.48034044087, 538757.3584180137], [203403.63954100863, 541189.7327045073], [201899.24997001133, 545702.4255410673]]]}}, {"type": "Feature", "properties": {"area_name": "pangyo_1st_technovalley", "origin_station": "판교역", "time_threshold_min": 30, "reachable_population": 2342410.9948645923, "reachable_workers": 1917642.268741685}, "geometry": {"type": "Polygon", "coordinates": [[[201533.3031664461, 549126.5030881026], [203446.4288528968, 551299.0870548529], [209062.4639369563, 542998.79155127], [211195.07027576305, 541280.7310312241], [218009.86943965178, 534392.8279322024], [222421.51161395147, 533321.8147290349], [226562.04903090032, 530494.5414485373], [209603.8838669656, 523732.9911015313], [210284.5415713837, 519593.0851331903], [204579.58331307242, 521026.50512877497], [203933.0211598685, 522536.8693272924], [209571.3955258955, 529678.58821441], [209842.87660537046, 532808.6044602178], [204850.48034044087, 538757.3584180137], [199718.02541604784, 537038.793048112], [197951.40137563582, 533575.4591626312], [198106.95856346, 544830.2336803857], [201533.3031664461, 549126.5030881026]]]}}, {"type": "Feature", "properties": {"area_name": "pangyo_1st_technovalley", "origin_station": "판교역", "time_threshold_min": 40, "reachable_population": 7302035.240669183, "reachable_workers": 4613133.023222571}, "geometry": {"type": "Polygon", "coordinates": [[[197356.54922771093, 550664.1778069205], [204228.4415297811, 561569.9824143979], [205494.42560132488, 558252.1893601859], [211355.72181237262, 544767.1644981389], [222421.51161395147, 533321.8147290349], [226562.04903090032, 530494.5414485373], [230678.5956052559, 527972.0226200446], [235922.04541241564, 524116.05667573167], [212750.8996067013, 519538.5834779448], [208545.17396014568, 511230.56960966927], [205089.58217017938, 516295.0130268206], [195424.1945254305, 524562.0907000426], [188183.1455039945, 522599.20369224565], [195010.7439335654, 530382.3307852944], [193777.73167722297, 542760.042606524], [193330.57684967018, 546902.9670142005], [197356.54922771093, 550664.1778069205]]]}}, {"type": "Feature", "properties": {"area_name": "pangyo_1st_technovalley", "origin_station": "판교역", "time_threshold_min": 50, "reachable_population": 13022716.26917307, "reachable_workers": 6986771.640472828}, "geometry": {"type": "Polygon", "coordinates": [[[187138.6044958321, 551354.8462319784], [183394.579288728, 559103.4968477064], [192959.08392437262, 557844.1997163892], [204138.55714664076, 570965.7858122262], [214134.91686087698, 561600.3953383078], [213124.54182172692, 547689.8048689542], [222421.51161395147, 533321.8147290349], [226562.04903090032, 530494.5414485373], [230678.5956052559, 527972.0226200446], [235922.04541241564, 524116.05667573167], [243498.52712845575, 518014.23763337446], [239223.57652873034, 518434.6543278453], [216884.1109877054, 515452.0998425258], [208545.17396014568, 511230.56960966927], [199999.9913365443, 518502.31362706085], [188183.1455039945, 522599.20369224565], [191901.97488334586, 535579.0966395587], [190049.70239804455, 542998.0708418746], [189594.1185430766, 544882.8289372745], [187138.6044958321, 551354.8462319784]]]}}, {"type": "Feature", "properties": {"area_name": "pangyo_1st_technovalley", "origin_station": "판교역", "time_threshold_min": 60, "reachable_population": 16774253.978602197, "reachable_workers": 8542443.835071573}, "geometry": {"type": "Polygon", "coordinates": [[[178026.1015511783, 563306.7349090653], [176058.0929407133, 568537.195468737], [190777.96434656976, 561507.431790603], [203850.18625977973, 569898.7851787977], [203722.21989312323, 573278.8881990617], [203937.75530071164, 574938.5275260846], [204988.38491043032, 579881.4001567638], [204910.09689403887, 588078.6330698065], [205457.1240725178, 582643.4222104833], [221554.85200565445, 561586.0572078625], [227486.2298330664, 561530.1000337347], [214637.53537898153, 550804.2141773205], [213603.12811246834, 543394.4319643266], [222421.51161395147, 533321.8147290349], [226562.04903090032, 530494.5414485373], [230678.59560525586, 527972.022620046], [235922.04541241564, 524116.05667573167], [250585.6810407891, 521756.87495752954], [243498.52712845575, 518014.23763337446], [239223.57652873034, 518434.6543278453], [219382.83820711146, 517774.6690651002], [219003.8148121174, 516185.7721674025], [218549.43417990423, 515435.6607655098], [208545.17396014568, 511230.56960966927], [202939.80616079806, 512008.43260164314], [196764.11569603116, 515992.8029593004], [187037.5689524592, 523393.26109116594], [189855.04961220297, 535384.8104747018], [184426.11308201682, 543680.6787098981], [175689.72168519223, 543405.7696419606], [182493.8473503014, 551420.9405518728], [178026.1015511783, 563306.7349090653]]]}}, {"type": "Feature", "properties": {"area_name": "wirye_plan_area", "origin_station": "남위례역", "time_threshold_min": 10, "reachable_population": 162093.50473908326, "reachable_workers": 68104.47579513399}, "geometry": {"type": "Polygon", "coordinates": [[[209944.37932763508, 544449.3859222594], [209478.76137503935, 545090.4920080585], [212583.3499014258, 541644.9224820577], [213270.52237866347, 539728.0181882225], [214160.01438231516, 539192.6750561103], [213868.57194640048, 538421.210568585], [212465.75667868584, 537576.091345933], [211210.3600909792, 538836.3530373116], [212339.8978524724, 540379.4728825315], [211213.88808775597, 541278.4239671334], [211195.0702757653, 541280.7310312241], [210824.46092328243, 542957.2969012362], [209944.37932763508, 544449.3859222594]]]}}, {"type": "Feature", "properties": {"area_name": "wirye_plan_area", "origin_station": "남위례역", "time_threshold_min": 20, "reachable_population": 874789.8729586159, "reachable_workers": 489417.53221058036}, "geometry": {"type": "Polygon", "coordinates": [[[205270.74124561946, 543066.0617099694], [204889.58740289265, 543536.603238563], [207584.27913019108, 545797.6259713667], [209174.7163509847, 546808.6915722984], [210890.3983426871, 548730.7063519051], [210652.98579929862, 547886.3513461581], [211355.72181237262, 544767.1644981389], [213410.81418129447, 543859.1529812095], [213603.12811246834, 543394.4319643266], [214160.01438231516, 539192.6750561103], [213868.57194640048, 538421.210568585], [211359.67072537125, 533016.7716593503], [211392.41874202382, 534723.374786168], [211423.0957908957, 536998.087692357], [211310.14647431532, 537825.7417633232], [211210.3600909792, 538836.3530373116], [211195.0702757653, 541280.7310312241], [207451.98430139723, 542719.7227611498], [205270.74124561946, 543066.0617099694]]]}}, {"type": "Feature", "properties": {"area_name": "wirye_plan_area", "origin_station": "남위례역", "time_threshold_min": 30, "reachable_population": 1942910.8910919034, "reachable_workers": 1481691.0685230838}, "geometry": {"type": "Polygon", "coordinates": [[[202277.9170073122, 545069.284885228], [204156.5510879432, 549759.8048952087], [207050.04484861757, 550839.0855015432], [207926.18620177955, 550270.5665336256], [212183.91998565456, 554243.7812438211], [212727.01977186036, 550206.7702101691], [213124.5418217269, 547689.8048689549], [213603.12811246834, 543394.4319643266], [214160.01438231516, 539192.6750561103], [213868.57194640272, 538421.210568585], [211359.6707253735, 533016.771659351], [210933.2733739239, 531750.990037986], [209655.84803235682, 526736.7174388769], [209659.25388394718, 527867.8573474591], [209571.3955258955, 529678.58821441], [210127.99814908224, 531020.4549966251], [210702.37232307898, 532866.7491260648], [211423.0957908957, 536998.087692357], [211310.14647431532, 537825.7417633232], [211210.3600909792, 538836.3530373116], [207451.98430139723, 542719.7227611504], [205270.74124561946, 543066.0617099694], [202995.5482083967, 542793.2496491452], [202481.4286563659, 544295.4803679711], [202277.9170073122, 545069.284885228]]]}}, {"type": "Feature", "properties": {"area_name": "wirye_plan_area", "origin_station": "남위례역", "time_threshold_min": 40, "reachable_population": 5369264.446802681, "reachable_workers": 4017896.3456844813}, "geometry": {"type": "Polygon", "coordinates": [[[194775.8547844924, 546031.6272331623], [192959.08392437262, 557844.1997163892], [204343.6210317288, 553479.2020086922], [212179.9603018418, 556986.7577290235], [217006.27810734225, 551515.5769214284], [213603.12811246834, 543394.4319643266], [218009.86943965178, 534392.8279322024], [209533.8097155799, 525054.1813257855], [209603.8838669656, 523732.9911015313], [209368.94454650828, 522198.98516207596], [208545.17396014568, 511230.56960966927], [209263.14542686948, 522228.6297521227], [208399.62957318188, 524814.2196579697], [209111.61169044126, 526521.6148640675], [209571.3955258955, 529678.5882144093], [199718.02541604784, 537038.793048112], [194775.8547844924, 546031.6272331623]]]}}, {"type": "Feature", "properties": {"area_name": "wirye_plan_area", "origin_station": "남위례역", "time_threshold_min": 50, "reachable_population": 11131292.006218277, "reachable_workers": 6113944.610810987}, "geometry": {"type": "Polygon", "coordinates": [[[183321.874591101, 559137.5412471183], [178026.10155118053, 563306.7349090653], [176058.09294071107, 568537.195468737], [192834.4611972853, 559645.7610565944], [204138.55714664076, 570965.7858122262], [204228.4415297811, 561569.9824143979], [212179.9603018418, 556986.7577290235], [214235.08856095918, 556589.0337717676], [217180.75296415432, 556085.5281118043], [219744.70003285975, 548940.764942053], [218009.86943965178, 534392.8279322024], [222421.51161395147, 533321.8147290349], [226562.04903090032, 530494.5414485373], [230678.5956052559, 527972.0226200446], [210424.0996625811, 519588.55763669126], [208545.17396014568, 511230.56960966927], [207004.19293796527, 517812.8097158487], [195424.1945254305, 524562.0907000426], [195010.7439335654, 530382.3307852944], [192362.92019104311, 543144.1594279433], [190341.2134458487, 545507.2517884633], [191379.4349837989, 548265.4294476828], [183394.579288728, 559103.4968477064], [183321.874591101, 559137.5412471183]]]}}, {"type": "Feature", "properties": {"area_name": "wirye_plan_area", "origin_station": "남위례역", "time_threshold_min": 60, "reachable_population": 15270097.552223373, "reachable_workers": 7937442.267386642}, "geometry": {"type": "Polygon", "coordinates": [[[178026.1015511783, 563306.7349090653], [176058.0929407133, 568537.195468737], [186134.2774985417, 561497.4842122572], [190777.96434656976, 561507.431790603], [192403.37542075143, 560947.2457771992], [204061.50245053112, 565543.944232135], [204167.22518368074, 569343.5533113817], [204051.60539155218, 570964.798168356], [203905.648045822, 572065.6872795753], [205457.1240725178, 582643.4222104833], [214134.91686087474, 561600.3953383078], [221554.85200565445, 561586.0572078625], [219744.70003285975, 548940.764942053], [214160.01438231516, 539192.6750561103], [218009.86943965178, 534392.8279322024], [222421.51161395147, 533321.8147290349], [226562.04903090032, 530494.5414485373], [230678.59560525586, 527972.022620046], [235922.04541241564, 524116.05667573167], [214146.81963096932, 517969.688634838], [208545.17396014568, 511230.56960966927], [199976.89575383582, 518681.5324778354], [188183.1455039945, 522599.20369224565], [193167.04457884995, 533577.8491723654], [188487.9256222191, 544095.0964996777], [182117.48017905396, 545214.3026097837], [173598.77934779413, 539844.566903939], [175689.72168519223, 543405.7696419606], [184745.63653277396, 551940.4248648953], [181289.2782240255, 560403.2895251804], [180369.14550449164, 561441.7611293215], [178026.1015511783, 563306.7349090653]]]}}]}