{
"type": "FeatureCollection",
"name": "accessibility_isochrones",
"crs": { "type": "name", "properties": { "name": "urn:ogc:def:crs:EPSG::5186" } },
"features": [
{ "type": "Feature", "properties": { "area_name": "pangyo_1st_technovalley", "origin_station": "판교역", "time_threshold_min": 30, "reachable_station_count": 91 }, "geometry": { "type": "Polygon", "coordinates": [ [ [ 201533.303166446101386, 549126.503088102559559 ], [ 203446.428852896788158, 551299.087054852861911 ], [ 209062.463936956308316, 542998.791551270056516 ], [ 211195.070275763049722, 541280.731031224131584 ], [ 218009.869439651782159, 534392.827932202373631 ], [ 222421.5116139514721, 533321.814729034900665 ], [ 226562.049030900321668, 530494.541448537260294 ], [ 209603.883866965596098, 523732.99110153131187 ], [ 210284.541571383713745, 519593.085133190324996 ], [ 204579.583313072420424, 521026.505128774966579 ], [ 203933.021159868512768, 522536.869327292428352 ], [ 209571.395525895495666, 529678.588214410003275 ], [ 209842.876605370460311, 532808.604460217757151 ], [ 204850.480340440873988, 538757.358418013667688 ], [ 199718.025416047836188, 537038.793048111954704 ], [ 197951.401375635818113, 533575.459162631188519 ], [ 198106.958563460008008, 544830.233680385746993 ], [ 201533.303166446101386, 549126.503088102559559 ] ] ] } },
{ "type": "Feature", "properties": { "area_name": "pangyo_1st_technovalley", "origin_station": "판교역", "time_threshold_min": 60, "reachable_station_count": 592 }, "geometry": { "type": "Polygon", "coordinates": [ [ [ 178026.10155117828981, 563306.734909065300599 ], [ 176058.092940713308053, 568537.195468737045303 ], [ 190777.964346569759073, 561507.431790602975525 ], [ 203850.18625977972988, 569898.785178797668777 ], [ 203722.219893123226939, 573278.888199061737396 ], [ 203937.755300711636664, 574938.527526084566489 ], [ 204988.384910430322634, 579881.400156763847917 ], [ 204910.096894038870232, 588078.633069806499407 ], [ 205457.124072517792229, 582643.422210483346134 ], [ 221554.852005654451204, 561586.057207862497307 ], [ 227486.229833066405263, 561530.100033734692261 ], [ 214637.535378981527174, 550804.214177320478484 ], [ 213603.128112468344625, 543394.431964326649904 ], [ 222421.5116139514721, 533321.814729034900665 ], [ 226562.049030900321668, 530494.541448537260294 ], [ 230678.595605255861301, 527972.022620046045631 ], [ 235922.045412415638566, 524116.056675731670111 ], [ 250585.681040789088001, 521756.874957529536914 ], [ 243498.527128455752973, 518014.237633374461439 ], [ 239223.576528730336577, 518434.654327845317312 ], [ 219382.838207111461088, 517774.669065100199077 ], [ 219003.814812117401743, 516185.772167402494233 ], [ 218549.434179904230405, 515435.660765509819612 ], [ 208545.173960145679303, 511230.569609669269994 ], [ 202939.806160798063502, 512008.432601643144153 ], [ 196764.115696031163679, 515992.802959300403018 ], [ 187037.568952459201682, 523393.261091165943071 ], [ 189855.049612202972639, 535384.810474701807834 ], [ 184426.113082016818225, 543680.678709898144007 ], [ 175689.721685192227596, 543405.769641960621811 ], [ 182493.847350301395636, 551420.940551872830838 ], [ 178026.10155117828981, 563306.734909065300599 ] ] ] } },
{ "type": "Feature", "properties": { "area_name": "wirye_plan_area", "origin_station": "남위례역", "time_threshold_min": 30, "reachable_station_count": 114 }, "geometry": { "type": "Polygon", "coordinates": [ [ [ 202277.917007312207716, 545069.284885228029452 ], [ 204156.551087943196762, 549759.804895208682865 ], [ 207050.044848617573734, 550839.08550154324621 ], [ 207926.186201779550174, 550270.566533625591546 ], [ 212183.919985654560151, 554243.781243821140379 ], [ 212727.019771860359469, 550206.770210169139318 ], [ 213124.541821726888884, 547689.804868954932317 ], [ 213603.128112468344625, 543394.431964326649904 ], [ 214160.01438231515931, 539192.675056110252626 ], [ 213868.571946402720641, 538421.210568584967405 ], [ 211359.670725373493042, 533016.771659350953996 ], [ 210933.273373923904728, 531750.990037985960953 ], [ 209655.848032356821932, 526736.717438876861706 ], [ 209659.253883947181748, 527867.857347459066659 ], [ 209571.395525895495666, 529678.588214410003275 ], [ 210127.998149082239252, 531020.454996625077911 ], [ 210702.372323078976478, 532866.74912606482394 ], [ 211423.095790895691607, 536998.087692357017659 ], [ 211310.14647431531921, 537825.74176332319621 ], [ 211210.360090979200322, 538836.353037311579101 ], [ 207451.984301397227682, 542719.722761150449514 ], [ 205270.741245619457914, 543066.061709969420917 ], [ 202995.548208396707196, 542793.249649145174772 ], [ 202481.428656365897041, 544295.48036797111854 ], [ 202277.917007312207716, 545069.284885228029452 ] ] ] } },
{ "type": "Feature", "properties": { "area_name": "wirye_plan_area", "origin_station": "남위례역", "time_threshold_min": 60, "reachable_station_count": 542 }, "geometry": { "type": "Polygon", "coordinates": [ [ [ 178026.10155117828981, 563306.734909065300599 ], [ 176058.092940713308053, 568537.195468737045303 ], [ 186134.277498541690875, 561497.484212257200852 ], [ 190777.964346569759073, 561507.431790602975525 ], [ 192403.375420751428464, 560947.245777199161239 ], [ 204061.502450531115755, 565543.944232134963386 ], [ 204167.225183680740884, 569343.553311381721869 ], [ 204051.605391552177025, 570964.798168355948292 ], [ 203905.648045821988489, 572065.687279575271532 ], [ 205457.124072517792229, 582643.422210483346134 ], [ 214134.91686087474227, 561600.395338307833299 ], [ 221554.852005654451204, 561586.057207862497307 ], [ 219744.700032859749626, 548940.764942053006962 ], [ 214160.01438231515931, 539192.675056110252626 ], [ 218009.869439651782159, 534392.827932202373631 ], [ 222421.5116139514721, 533321.814729034900665 ], [ 226562.049030900321668, 530494.541448537260294 ], [ 230678.595605255861301, 527972.022620046045631 ], [ 235922.045412415638566, 524116.056675731670111 ], [ 214146.819630969315767, 517969.688634837977588 ], [ 208545.173960145679303, 511230.569609669269994 ], [ 199976.895753835822688, 518681.532477835426107 ], [ 188183.145503994514002, 522599.20369224564638 ], [ 193167.044578849949175, 533577.849172365386039 ], [ 188487.925622219103388, 544095.096499677747488 ], [ 182117.480179053964093, 545214.302609783713706 ], [ 173598.779347794130445, 539844.566903939004987 ], [ 175689.721685192227596, 543405.769641960621811 ], [ 184745.636532773962244, 551940.424864895292558 ], [ 181289.278224025503732, 560403.289525180356577 ], [ 180369.14550449163653, 561441.761129321530461 ], [ 178026.10155117828981, 563306.734909065300599 ] ] ] } }
]
}
