{
  "type": "FeatureCollection",
  "name": "boundaries",
  "features": [
    {
      "type": "Feature",
      "properties": {
        "name": "제1판교테크노밸리 사용자 보정 분석경계",
        "source": "manual user-drawn boundary based on dashboard editor, second draft",
        "parcel_count": 75,
        "internal_parcels_area_sqm": 433241.41618483356,
        "area_sqm": 860504.888,
        "boundary_method": "user-drawn refined boundary v2 from dashboard boundary editor; original pangyo_boundary.geojson preserved",
        "area_name": "pangyo_1st_technovalley",
        "display_name": "판교 제1테크노밸리",
        "boundary_version": "user_drawn_refined2",
        "original_area_sqm": 1066109.8,
        "area_change_sqm": -205604.91,
        "area_change_pct": -19.29
      },
      "geometry": {
        "type": "Polygon",
        "coordinates": [
          [
            [
              209543.06940919594,
              533389.5039964889
            ],
            [
              209543.17421879078,
              533297.7679268299
            ],
            [
              209712.58502912405,
              533295.8543071166
            ],
            [
              209714.59226165706,
              533390.7561596668
            ],
            [
              209998.42527378607,
              533391.9779197173
            ],
            [
              210001.0839037428,
              533757.3572192466
            ],
            [
              209954.43602365768,
              533931.5047717365
            ],
            [
              209890.83756256715,
              534042.4241058653
            ],
            [
              209849.06641328585,
              534022.3340988016
            ],
            [
              209837.93695726705,
              534011.4245213252
            ],
            [
              209817.32690522625,
              534004.940503831
            ],
            [
              209787.44179674916,
              534005.8282481581
            ],
            [
              209761.01674969273,
              534019.4089552102
            ],
            [
              209740.39428004948,
              534023.5375740144
            ],
            [
              209714.23483854553,
              534008.0498277587
            ],
            [
              209701.26863301746,
              534002.2671076796
            ],
            [
              209686.71852657944,
              533963.9529401386
            ],
            [
              209651.53203146052,
              533941.5335901842
            ],
            [
              209606.14481141546,
              533925.5624178862
            ],
            [
              209585.28046423526,
              533938.458085355
            ],
            [
              209573.67784481694,
              533955.5171286685
            ],
            [
              209556.0737602195,
              533953.6513078602
            ],
            [
              209534.11447288955,
              533911.1759624288
            ],
            [
              209499.1361790621,
              533908.8290181819
            ],
            [
              209455.56051765278,
              533929.3125978912
            ],
            [
              209435.14956970495,
              533951.2067379527
            ],
            [
              209433.50292694735,
              533973.3527526931
            ],
            [
              209417.26175279706,
              533995.4822387719
            ],
            [
              209397.3322974906,
              534001.4581453848
            ],
            [
              209362.1190650263,
              534002.3414179677
            ],
            [
              209341.74415531007,
              533992.3982402924
            ],
            [
              209326.2420383819,
              533975.3086376957
            ],
            [
              209307.05200672496,
              533970.5781102363
            ],
            [
              209281.1050556405,
              533971.472060352
            ],
            [
              209251.20711165917,
              533983.8970419829
            ],
            [
              209233.58439547734,
              533998.8734419623
            ],
            [
              209202.27683763774,
              534029.2920216421
            ],
            [
              209194.61407490756,
              534045.6636322067
            ],
            [
              209190.8816484621,
              534069.191372033
            ],
            [
              209193.18044313107,
              534085.3431722007
            ],
            [
              209197.56769392127,
              534098.2673967485
            ],
            [
              209205.87324777167,
              534129.1907315186
            ],
            [
              209208.6304732046,
              534149.7262631173
            ],
            [
              209219.27285272325,
              534162.1958977291
            ],
            [
              209221.11564565066,
              534171.6566898889
            ],
            [
              209225.95617506912,
              534193.5786288551
            ],
            [
              209233.53060431397,
              534209.7786684663
            ],
            [
              209081.842460779,
              534201.9045398288
            ],
            [
              208976.5885220579,
              534197.1660612433
            ],
            [
              208840.39225100676,
              534176.9805036285
            ],
            [
              208696.4749258027,
              534138.290290752
            ],
            [
              208619.1051343115,
              534112.0033918334
            ],
            [
              208600.6155696797,
              534028.7390306052
            ],
            [
              208583.67994474096,
              533939.3090736676
            ],
            [
              208583.7338186362,
              533886.8944448321
            ],
            [
              208599.25809903978,
              533843.7451364709
            ],
            [
              208664.34091096197,
              533779.0640695355
            ],
            [
              208727.87027131446,
              533720.547962754
            ],
            [
              208792.9453010622,
              533665.1168647704
            ],
            [
              208834.78599527327,
              533623.5362613006
            ],
            [
              208885.95799124998,
              533541.8820890565
            ],
            [
              208912.31921393247,
              533500.284807332
            ],
            [
              208938.7153466762,
              533426.3118501474
            ],
            [
              208961.98765919695,
              533378.5440233363
            ],
            [
              209543.06940919594,
              533389.5039964889
            ]
          ]
        ]
      }
    },
    {
      "type": "Feature",
      "properties": {
        "name": "위례 계획구역 분석경계",
        "source": "wirye_plan_area_outer_boundary",
        "parcel_count": 72,
        "internal_parcels_area_sqm": 682658.3183589932,
        "area_sqm": 6757873.520641949,
        "boundary_method": "all Wirye plan parcels dissolve -> remove holes -> simplify(25)",
        "area_name": "wirye_plan_area",
        "display_name": "위례 계획구역"
      },
      "geometry": {
        "type": "Polygon",
        "coordinates": [
          [
            [
              211248.40395250585,
              541523.3249000751
            ],
            [
              211332.9612247192,
              541647.2956149748
            ],
            [
              211475.95004623954,
              541764.1056207624
            ],
            [
              211514.97321523906,
              541755.602198251
            ],
            [
              211475.9508400745,
              541764.1061757271
            ],
            [
              211511.73865935463,
              541793.1505188887
            ],
            [
              211584.51187753578,
              541785.3636694638
            ],
            [
              211886.96349739845,
              542156.6074814638
            ],
            [
              212124.81854201262,
              542263.4604618296
            ],
            [
              212220.4060923393,
              542359.2712354312
            ],
            [
              212282.27636555038,
              542491.9105637302
            ],
            [
              211990.74772900366,
              542454.4771551754
            ],
            [
              212098.9459514828,
              543225.291808005
            ],
            [
              212168.86012444086,
              543451.3320214789
            ],
            [
              212515.45672833105,
              543589.0755197061
            ],
            [
              212509.63446621728,
              543645.355733452
            ],
            [
              212589.0248407279,
              543495.5580157255
            ],
            [
              212593.8972868258,
              543337.2194183118
            ],
            [
              212728.537337132,
              543220.4320039232
            ],
            [
              212768.31289262595,
              543086.3437436474
            ],
            [
              212979.61092996655,
              543104.7470707529
            ],
            [
              213033.37717007994,
              543302.396335696
            ],
            [
              213322.40052635362,
              543564.8388461332
            ],
            [
              213293.20984083245,
              543629.547853342
            ],
            [
              213484.32486282085,
              543730.0498372376
            ],
            [
              213893.60479963644,
              543463.9794330673
            ],
            [
              213894.625997303,
              543398.1812659417
            ],
            [
              214006.6838096371,
              543392.9915053861
            ],
            [
              214223.01846181264,
              543152.1365712184
            ],
            [
              214470.40720955125,
              543094.0987899594
            ],
            [
              214462.82807178833,
              543051.7295146058
            ],
            [
              214482.17734024918,
              543091.4413077814
            ],
            [
              214625.6273088815,
              542949.1755057259
            ],
            [
              214557.42119992027,
              542741.7059601608
            ],
            [
              214562.64425976676,
              542557.5975702845
            ],
            [
              214518.19545530895,
              542501.4272725596
            ],
            [
              214276.91972681027,
              542433.334411589
            ],
            [
              214129.9301921548,
              542464.3205331316
            ],
            [
              214018.5994736631,
              542669.1372915873
            ],
            [
              213938.91719603047,
              542678.1165172749
            ],
            [
              213916.44913273474,
              542744.4248915354
            ],
            [
              213854.0278153316,
              542766.954106544
            ],
            [
              213702.07711946982,
              542797.5416472501
            ],
            [
              213202.7725245862,
              542718.3742408893
            ],
            [
              213255.74685550173,
              542511.4366009943
            ],
            [
              213591.41293179247,
              542584.2616784985
            ],
            [
              213668.32158534563,
              542543.0632021521
            ],
            [
              213519.55683765974,
              542296.4728066337
            ],
            [
              213227.0113165034,
              542174.5795860818
            ],
            [
              213187.24922721364,
              542083.7318278223
            ],
            [
              213520.33093918525,
              542022.0948079266
            ],
            [
              213549.45419573653,
              541912.5864873532
            ],
            [
              213762.67281370744,
              541800.9507240445
            ],
            [
              213938.82394023432,
              541427.1992708838
            ],
            [
              214437.46364517693,
              541416.7143021532
            ],
            [
              214301.70906495338,
              541116.614479965
            ],
            [
              214321.28006052884,
              541084.4256012198
            ],
            [
              214165.51267020003,
              541082.6130912446
            ],
            [
              214191.61383358462,
              540913.3048180247
            ],
            [
              213930.9918616776,
              540540.2436107835
            ],
            [
              213565.34561999716,
              540580.897255497
            ],
            [
              213480.85542736793,
              540549.9262701625
            ],
            [
              213376.48725092047,
              540475.2251491116
            ],
            [
              213069.96631967317,
              540080.7033939062
            ],
            [
              212981.92785630416,
              540028.2323695255
            ],
            [
              212319.8621719016,
              540485.9406009327
            ],
            [
              211532.1783367937,
              540905.9918266694
            ],
            [
              211218.52922994064,
              541001.6667267892
            ],
            [
              211227.69664063997,
              541031.2506035608
            ],
            [
              211480.65922204466,
              540983.952158335
            ],
            [
              211227.6967200006,
              541031.2506827991
            ],
            [
              211219.85224970372,
              541025.0630386237
            ],
            [
              211248.40395250585,
              541523.3249000751
            ]
          ]
        ]
      }
    }
  ]
}
