{
"type": "FeatureCollection",
"name": "landuse_zones_missing",
"crs": { "type": "name", "properties": { "name": "urn:ogc:def:crs:EPSG::5186" } },
"features": [
{ "type": "Feature", "properties": { "area_sqm": 6.9033141980590074e-09, "area_name": "pangyo_1st_technovalley", "landuse_category": "데이터 없음", "source_layer": "none", "source_version": "no_data" }, "geometry": { "type": "MultiPolygon", "coordinates": [ [ [ [ 209543.0694091959449, 533389.503996488871053 ], [ 209543.077238489757292, 533382.651297147735022 ], [ 209543.174218790780287, 533297.767926829867065 ], [ 209543.0694091959449, 533389.503996488871053 ] ] ], [ [ [ 209998.4252737860661, 533391.97791971731931 ], [ 210000.872373464808334, 533728.28631202748511 ], [ 210001.083903742808616, 533757.357219246565364 ], [ 209998.4252737860661, 533391.97791971731931 ] ] ], [ [ [ 210001.083903742808616, 533757.357219246565364 ], [ 209997.324614630604628, 533771.391533277463168 ], [ 209954.436023657675833, 533931.504771736450493 ], [ 210001.083903742808616, 533757.357219246565364 ] ] ], [ [ [ 209642.716506686061621, 533938.431521695922129 ], [ 209636.401992880477337, 533936.209526432328857 ], [ 209606.144811415462755, 533925.562417886219919 ], [ 209642.716506686061621, 533938.431521695922129 ] ] ], [ [ [ 209585.280464235256659, 533938.458085354999639 ], [ 209580.407000691193389, 533945.623417827533558 ], [ 209573.677844816935249, 533955.51712866849266 ], [ 209585.280464235256659, 533938.458085354999639 ] ] ], [ [ [ 209573.677844816935249, 533955.51712866849266 ], [ 209556.388608795503387, 533953.684678014717065 ], [ 209556.0737602195004, 533953.651307860156521 ], [ 209573.677844816935249, 533955.51712866849266 ] ] ], [ [ [ 209534.114472889545141, 533911.175962428795174 ], [ 209522.793850919260876, 533910.416380822658539 ], [ 209499.136179062101291, 533908.829018181888387 ], [ 209534.114472889545141, 533911.175962428795174 ] ] ], [ [ [ 209499.136179062101291, 533908.829018181888387 ], [ 209475.466305147681851, 533919.95549872983247 ], [ 209455.560517652775161, 533929.312597891199403 ], [ 209499.136179062101291, 533908.829018181888387 ] ] ], [ [ [ 209455.560517652775161, 533929.312597891199403 ], [ 209440.908516879600938, 533945.029308253084309 ], [ 209435.149569704954047, 533951.206737952656113 ], [ 209455.560517652775161, 533929.312597891199403 ] ] ], [ [ [ 209397.332297490589553, 534001.45814538479317 ], [ 209376.137723053951049, 534001.98978037526831 ], [ 209362.119065026286989, 534002.341417967691086 ], [ 209397.332297490589553, 534001.45814538479317 ] ] ], [ [ [ 209326.242038381897146, 533975.308637695736252 ], [ 209321.522850839101011, 533974.145312556065619 ], [ 209307.052006724959938, 533970.578110236325301 ], [ 209326.242038381897146, 533975.308637695736252 ] ] ], [ [ [ 209233.584395477344515, 533998.873441962292418 ], [ 209208.989503755088663, 534022.769961690879427 ], [ 209202.276837637735298, 534029.292021642089821 ], [ 209233.584395477344515, 533998.873441962292418 ] ] ], [ [ [ 209194.614074907556642, 534045.663632206735201 ], [ 209193.055813884537201, 534055.486293273628689 ], [ 209190.881648462091107, 534069.191372032975778 ], [ 209194.614074907556642, 534045.663632206735201 ] ] ], [ [ [ 209197.567693921271712, 534098.26739674853161 ], [ 209202.963452217285521, 534118.356946841347963 ], [ 209205.873247771669412, 534129.190731518552639 ], [ 209197.567693921271712, 534098.26739674853161 ] ] ], [ [ [ 209205.873247771669412, 534129.190731518552639 ], [ 209206.785434681369225, 534135.984605854959227 ], [ 209208.630473204597365, 534149.726263117277995 ], [ 209205.873247771669412, 534129.190731518552639 ] ] ], [ [ [ 209219.272852723253891, 534162.19589772913605 ], [ 209219.696601008530706, 534164.371396883507259 ], [ 209221.115645650657825, 534171.656689888914116 ], [ 209219.272852723253891, 534162.19589772913605 ] ] ], [ [ [ 208880.586206080013653, 534182.937622642377391 ], [ 208879.526372237625765, 534182.780545382294804 ], [ 208840.392251006764127, 534176.980503628496081 ], [ 208880.586206080013653, 534182.937622642377391 ] ] ], [ [ [ 208957.739808930869913, 533387.262992525473237 ], [ 208961.462929802830331, 533379.621062104939483 ], [ 208961.987659196951427, 533378.54402333626058 ], [ 208957.739808930869913, 533387.262992525473237 ] ] ] ] } },
{ "type": "Feature", "properties": { "area_sqm": 2471.7440915817842, "area_name": "wirye_plan_area", "landuse_category": "데이터 없음", "source_layer": "none", "source_version": "no_data" }, "geometry": { "type": "MultiPolygon", "coordinates": [ [ [ [ 212124.803265935537638, 542263.453599270200357 ], [ 212115.905805658519967, 542258.124913608655334 ], [ 212115.812807281123241, 542258.070912538445555 ], [ 212124.803250334021868, 542263.453592261415906 ], [ 212124.803265935537638, 542263.453599270200357 ] ] ], [ [ [ 212271.021577802370302, 542490.465405295835808 ], [ 212268.528817779762903, 542490.597507510101423 ], [ 212269.801808578602504, 542490.535528629203327 ], [ 212271.057658345205709, 542490.470038177561946 ], [ 212271.021577802370302, 542490.465405295835808 ] ] ], [ [ [ 214079.953704283077968, 543311.416891823406331 ], [ 214079.883122409984935, 543311.469321867916733 ], [ 214079.107118637359235, 543312.025335067883134 ], [ 214079.111085532349534, 543312.047307610046118 ], [ 214079.065126039320603, 543312.071293487329967 ], [ 214079.074990642548073, 543312.082930557546206 ], [ 214079.075015783222625, 543312.082903012633324 ], [ 214079.891169781651115, 543311.48651424900163 ], [ 214079.953704283077968, 543311.416891823406331 ] ] ], [ [ [ 214167.46606463030912, 543213.985511421225965 ], [ 214162.000792789796833, 543214.770628426340409 ], [ 214158.91902318756911, 543215.213384935865179 ], [ 214158.298422031104565, 543215.253962923423387 ], [ 214157.513027095788857, 543215.305341374711134 ], [ 214158.298422027757624, 543215.254207062534988 ], [ 214158.943620099889813, 543215.216986379935406 ], [ 214162.000792786333477, 543214.770872565452009 ], [ 214167.466042950953124, 543213.98553555784747 ], [ 214167.46606463030912, 543213.985511421225965 ] ] ], [ [ [ 214212.872735318698687, 543163.432257148553617 ], [ 214212.932900427957065, 543163.201532102189958 ], [ 214212.908446809189627, 543163.261676834779792 ], [ 214212.857670938741649, 543163.449028988834471 ], [ 214212.872735318698687, 543163.432257148553617 ] ] ], [ [ [ 214270.191092389839469, 543141.06979942752514 ], [ 214263.386385988211259, 543140.002673361916095 ], [ 214259.861449264717521, 543140.099661313579418 ], [ 214253.725486686336808, 543141.665528175304644 ], [ 214251.131441912264563, 543142.305495593929663 ], [ 214248.495459878788097, 543143.342431781929918 ], [ 214241.969493907614378, 543144.406892558559775 ], [ 214236.105328582809307, 543145.363393746316433 ], [ 214236.082562591473106, 543145.367238559643738 ], [ 214235.004924332955852, 543145.994413289125077 ], [ 214231.191564389970154, 543148.214121133205481 ], [ 214235.004924330482027, 543145.994596395059489 ], [ 214236.105938931257697, 543145.363393755513243 ], [ 214241.969493901822716, 543144.407136696157977 ], [ 214248.484046289464459, 543143.349023340502754 ], [ 214251.124056660482893, 543142.308852377696894 ], [ 214251.131686031556455, 543142.30647215177305 ], [ 214260.054013486049371, 543140.109246879233979 ], [ 214263.18399493128527, 543140.008712509647012 ], [ 214270.121352929418208, 543141.08616041240748 ], [ 214270.191092389839469, 543141.06979942752514 ] ] ], [ [ [ 214364.554135669226525, 543118.932084131869487 ], [ 214365.613531171344221, 543117.57116258807946 ], [ 214375.828855053754523, 543105.501174187404104 ], [ 214376.410077577806078, 543106.155780381173827 ], [ 214375.828855057101464, 543105.500991083565168 ], [ 214375.817075578816002, 543105.487807404948398 ], [ 214374.354046627006028, 543107.212745345081203 ], [ 214365.611944477102952, 543117.558528386405669 ], [ 214364.541611398599343, 543118.935022345045581 ], [ 214364.554135669226525, 543118.932084131869487 ] ] ], [ [ [ 214516.540596236271085, 543057.361717378837056 ], [ 214514.275722212420078, 543057.949420840363018 ], [ 214511.876738908904372, 543061.987074983888306 ], [ 214516.540596236271085, 543057.361717378837056 ] ] ], [ [ [ 214582.127551309735281, 542992.316176715074107 ], [ 214580.832283622119576, 542992.338419726351276 ], [ 214580.826241190661676, 542992.338419630075805 ], [ 214567.509388526697876, 542992.566839507082477 ], [ 214565.336358460859628, 542993.355799363693222 ], [ 214550.064267876237864, 543008.167382873594761 ], [ 214550.034236595180118, 543008.304405206814408 ], [ 214550.034235385712236, 543008.304410704295151 ], [ 214565.323968103679363, 542993.375391290290281 ], [ 214567.563952244730899, 542992.645392004982568 ], [ 214580.826241188478889, 542992.338663767674007 ], [ 214580.832283617695794, 542992.338663866161369 ], [ 214582.127355806936976, 542992.316370603977703 ], [ 214582.127551309735281, 542992.316176715074107 ] ] ], [ [ [ 214625.597552872466622, 542949.205016101710498 ], [ 214622.518554917362053, 542948.310387381818146 ], [ 214620.969851103407564, 542953.794516609283164 ], [ 214625.597552872466622, 542949.205016101710498 ] ] ], [ [ [ 214625.400675228127511, 542948.486130803474225 ], [ 214622.518638031528099, 542948.310093065490946 ], [ 214622.518563365127193, 542948.310357467387803 ], [ 214625.400769279425731, 542948.486416889005341 ], [ 214625.400675228127511, 542948.486130803474225 ] ] ], [ [ [ 214083.695508946722839, 542549.37915909930598 ], [ 214083.61921046464704, 542549.807820620015264 ], [ 214078.486084428091999, 542560.253695082152262 ], [ 214077.613868334214203, 542573.729528827010654 ], [ 214073.806669219542528, 542587.682356011937372 ], [ 214071.884995019121561, 542590.35950056090951 ], [ 214073.806892511987826, 542587.682095590396784 ], [ 214077.614095043594716, 542573.729266938287765 ], [ 214078.486315775022376, 542560.253376604290679 ], [ 214083.61943961418001, 542549.807560194982216 ], [ 214083.695780001202365, 542549.378660436486825 ], [ 214083.695508946722839, 542549.37915909930598 ] ] ], [ [ [ 214041.255286893632729, 542627.457059132866561 ], [ 214038.231100670411251, 542639.950348572339863 ], [ 214027.519449008570518, 542662.766683591296896 ], [ 214025.927785109292017, 542666.156922791618854 ], [ 214021.604900435893796, 542672.045585584128276 ], [ 214021.604954144859221, 542672.045558929792605 ], [ 214025.928013038384961, 542666.156638440093957 ], [ 214038.23131785885198, 542639.950079115224071 ], [ 214041.255574260314461, 542627.4565304601565 ], [ 214041.255286893632729, 542627.457059132866561 ] ] ], [ [ [ 213336.335997864807723, 542739.551441885181703 ], [ 213344.174235449667322, 542742.787974683800712 ], [ 213345.06820423953468, 542743.157004747889005 ], [ 213355.698110967117827, 542743.95917250146158 ], [ 213355.720940075436374, 542743.961171176983044 ], [ 213355.942596807668451, 542742.660172711592168 ], [ 213336.335997864807723, 542739.551441885181703 ] ] ], [ [ [ 213202.772524586209329, 542718.374240889330395 ], [ 213213.47999810721376, 542676.546826340025291 ], [ 213206.490214066841872, 542686.585208359523676 ], [ 213200.890196176129393, 542691.965079056448303 ], [ 213198.110098738718079, 542697.545006044674665 ], [ 213198.162094296014402, 542697.91402246337384 ], [ 213200.269866891409038, 542712.894892700016499 ], [ 213202.679731771873776, 542718.38487766077742 ], [ 213208.949626528105, 542722.984978747204877 ], [ 213226.009496637561824, 542722.415252488455735 ], [ 213226.410827899613651, 542722.12221994518768 ], [ 213202.772524586209329, 542718.374240889330395 ] ] ], [ [ [ 213255.746426674566464, 542511.438276154338382 ], [ 213255.657696958369343, 542511.451432583853602 ], [ 213253.892664596496616, 542513.417391532217152 ], [ 213247.76264303305652, 542517.477256987127475 ], [ 213240.26259601287893, 542524.087067450862378 ], [ 213238.092589493433479, 542526.617041160119697 ], [ 213231.101473973569227, 542595.756323367939331 ], [ 213231.51142609710223, 542606.109293903457001 ], [ 213255.746426674566464, 542511.438276154338382 ] ] ], [ [ [ 213324.332480011507869, 542526.316726730554365 ], [ 213325.983625681110425, 542520.328038988867775 ], [ 213323.357812538626604, 542510.094079041853547 ], [ 213318.051488797966158, 542504.637581473449245 ], [ 213319.582281695882557, 542504.726509561645798 ], [ 213318.052082993061049, 542504.637496222741902 ], [ 213317.948263121303171, 542504.631513145635836 ], [ 213317.088285464327782, 542504.581511821015738 ], [ 213315.549297786317766, 542504.491460753139108 ], [ 213311.607316471840022, 542504.262394816381857 ], [ 213299.55741417768877, 542504.942186736734584 ], [ 213255.751267969200853, 542511.437558309640735 ], [ 213324.332480011507869, 542526.316726730554365 ] ] ], [ [ [ 213611.859536237752764, 542573.308828452602029 ], [ 213609.953730579727562, 542573.276573790819384 ], [ 213605.783769973320886, 542572.906509190564975 ], [ 213495.984880738978973, 542558.62484491604846 ], [ 213392.676372837770032, 542520.103496678522788 ], [ 213392.67637507643667, 542520.103544571087696 ], [ 213495.984922241244931, 542558.624887152342126 ], [ 213605.783805370272603, 542572.906566075631417 ], [ 213609.953787951992126, 542573.276628235005774 ], [ 213611.859436525817728, 542573.308881866279989 ], [ 213611.859536237752764, 542573.308828452602029 ] ] ], [ [ [ 213637.551835058548022, 542559.545961514348164 ], [ 213643.963846698577981, 542553.147339460556395 ], [ 213647.903893667738885, 542548.377432045876049 ], [ 213650.193920739926398, 542544.897507010027766 ], [ 213651.933963181974832, 542541.11755106667988 ], [ 213652.984013656969182, 542537.107626079465263 ], [ 213653.33409641488106, 542532.957653032033704 ], [ 213653.104144437296782, 542528.827680191490799 ], [ 213651.944230842636898, 542524.89769676560536 ], [ 213650.284288628201466, 542521.097706630709581 ], [ 213648.174370864144294, 542517.51769277441781 ], [ 213558.137291625636863, 542382.447319790488109 ], [ 213555.157414376502857, 542376.94731587683782 ], [ 213525.968520259164507, 542323.047296062344685 ], [ 213523.328625136462506, 542317.42727055225987 ], [ 213522.35864328299067, 542315.807270344579592 ], [ 213519.738729247124866, 542311.947266356321052 ], [ 213519.738698782341089, 542311.947236719192006 ], [ 213522.358604222274153, 542315.807231771410443 ], [ 213523.328570203244453, 542317.427234416478314 ], [ 213525.968458005576394, 542323.047231853939593 ], [ 213555.157350900990423, 542376.947269976837561 ], [ 213558.137237917428138, 542382.447273891186342 ], [ 213648.174328141147271, 542517.517643215600401 ], [ 213650.284253226564033, 542521.09764852351509 ], [ 213651.944178354373435, 542524.897644762997515 ], [ 213653.104105376172811, 542528.827631850610487 ], [ 213653.334036603861023, 542532.957602250971831 ], [ 213652.983972153393552, 542537.107563090510666 ], [ 213651.933915575849824, 542541.117513712146319 ], [ 213650.193868251808453, 542544.897455008933321 ], [ 213647.903830192517489, 542548.377389808883891 ], [ 213643.963784443389159, 542553.147287457250059 ], [ 213637.551602034334792, 542559.546086340909824 ], [ 213637.551835058548022, 542559.545961514348164 ] ] ], [ [ [ 213227.002574562997324, 542174.559612642275169 ], [ 213226.927920547896065, 542174.590224169427529 ], [ 213220.508116459008306, 542165.670192133751698 ], [ 213200.973481911874842, 542152.767179755843244 ], [ 213196.738661139417673, 542149.969933715532534 ], [ 213186.271077001700178, 542123.964350705617107 ], [ 213186.25449619803112, 542123.973454723949544 ], [ 213190.022319818235701, 542133.330434892675839 ], [ 213196.724022911104839, 542149.973414546344429 ], [ 213201.363889795728028, 542153.033462585299276 ], [ 213220.493536728085019, 542165.673624135670252 ], [ 213225.389383604837349, 542172.464664286701009 ], [ 213226.923333413258661, 542174.593700278433971 ], [ 213227.00315345270792, 542174.560935279820114 ], [ 213227.002574562997324, 542174.559612642275169 ] ] ], [ [ [ 213201.282194992003497, 542115.794118490652181 ], [ 213196.87248575486592, 542118.194254435482435 ], [ 213188.072272301651537, 542122.984001855365932 ], [ 213196.872548007115256, 542118.194368927041069 ], [ 213201.28313856080058, 542115.796274340944365 ], [ 213201.282194992003497, 542115.794118490652181 ] ] ], [ [ [ 213195.243735899915919, 542101.997547896578908 ], [ 213184.159529511904111, 542096.410162096959539 ], [ 213187.177192684204783, 542083.741397523204796 ], [ 213187.165174786321586, 542083.743752586771734 ], [ 213186.602049081207952, 542083.85576454969123 ], [ 213186.445108336600242, 542083.303703456069343 ], [ 213180.021656922996044, 542050.992769136209972 ], [ 213180.105676409497391, 542050.976030589779839 ], [ 213318.241031616693363, 542023.53532292007003 ], [ 213331.434959612262901, 542020.525556082022376 ], [ 213344.4389304012293, 542016.776815813034773 ], [ 213357.210886993911117, 542012.301052259281278 ], [ 213359.459745420870604, 542011.367408442078158 ], [ 213357.210843782231677, 542012.30100440827664 ], [ 213344.438873516279273, 542016.776761368266307 ], [ 213331.43491688958602, 542020.525520437629893 ], [ 213318.240973755106097, 542023.535282390424982 ], [ 213180.105635173706105, 542050.97582302056253 ], [ 213180.021605721238302, 542050.992671256884933 ], [ 213043.820316275203368, 542078.04839105438441 ], [ 213180.021635571843944, 542050.992821523919702 ], [ 213186.445060729980469, 542083.303664880106226 ], [ 213186.715043178119231, 542084.25366158830002 ], [ 213186.935034128575353, 542084.703661522711627 ], [ 213184.294875617342768, 542095.793529267772101 ], [ 213180.774893274006899, 542096.443466993863694 ], [ 213184.454400993592571, 542125.013296075281687 ], [ 213189.304133097000886, 542139.153260549996048 ], [ 213189.843894852645462, 542153.593152774032205 ], [ 213191.353365179034881, 542185.542919409112073 ], [ 213200.580166354222456, 542378.431512224837206 ], [ 213203.494711053965148, 542380.996860915212892 ], [ 213200.580221282929415, 542378.431553240283392 ], [ 213191.353429873561254, 542185.542983620311134 ], [ 213189.843954664363991, 542153.593210879829712 ], [ 213189.304173377895495, 542139.153317434363998 ], [ 213184.454453484388068, 542125.013345634797588 ], [ 213180.774949423561338, 542096.44351289246697 ], [ 213184.294911016622791, 542095.793593476875685 ], [ 213184.144974032824393, 542096.42359401891008 ], [ 213195.251519595796708, 542102.01533195504453 ], [ 213195.243735899915919, 542101.997547896578908 ] ] ], [ [ [ 213351.389031021361006, 542053.357634375570342 ], [ 213363.004287197720259, 542050.476973838522099 ], [ 213363.006901824730448, 542050.476393862976693 ], [ 213363.004271707934095, 542050.476911391946487 ], [ 213351.388482784095686, 542053.357735827332363 ], [ 213351.389031021361006, 542053.357634375570342 ] ] ], [ [ [ 213520.268165532615967, 542022.106424237950705 ], [ 213520.348494907811983, 542022.028795470483601 ], [ 213520.355869705585064, 542022.001064996118657 ], [ 213520.243462828540942, 542022.109692835714668 ], [ 213520.238434884435264, 542022.111925916629843 ], [ 213520.268165532615967, 542022.106424237950705 ] ] ], [ [ [ 213541.660385744617088, 541941.892517795902677 ], [ 213539.94927890735562, 541936.06722015410196 ], [ 213540.129323801054852, 541933.207246138248593 ], [ 213541.149363916105358, 541930.227286700042896 ], [ 213547.482749506249093, 541919.99945524695795 ], [ 213547.496801003231667, 541919.946619265829213 ], [ 213541.134615896007745, 541930.220574738457799 ], [ 213540.207780225202441, 541931.716702440287918 ], [ 213540.114556245040148, 541933.200697749969549 ], [ 213539.93470177979907, 541936.060657119844109 ], [ 213541.654372619639616, 541941.915128152584657 ], [ 213541.660385744617088, 541941.892517795902677 ] ] ], [ [ [ 213549.412021935422672, 541912.745067906216718 ], [ 213549.379583506757626, 541912.607562161283568 ], [ 213549.511525916401297, 541912.556470751180314 ], [ 213549.600795212143566, 541912.5097316527972 ], [ 213549.364999054989312, 541912.601038189488463 ], [ 213549.405107702885289, 541912.771066578221507 ], [ 213549.412021935422672, 541912.745067906216718 ] ] ], [ [ [ 213568.452460966596846, 541902.639486192259938 ], [ 213572.079605639766669, 541900.028031421243213 ], [ 213588.209605996322352, 541892.038357213372365 ], [ 213674.429669372388162, 541845.540129235130735 ], [ 213712.257106270757504, 541827.347086782450788 ], [ 213712.687604769715108, 541827.121688883285969 ], [ 213674.405124060605885, 541845.533597779925913 ], [ 213631.731081399135292, 541868.550726076122373 ], [ 213616.334036389627727, 541876.854425742407329 ], [ 213588.195038632868091, 541892.031825917540118 ], [ 213582.176056575030088, 541895.012722418410704 ], [ 213572.06503339408664, 541900.021490361192264 ], [ 213568.36610184921301, 541902.684701596386731 ], [ 213568.452460966596846, 541902.639486192259938 ] ] ], [ [ [ 213762.329836457036436, 541801.130298077478074 ], [ 213762.609685892530251, 541800.971917450078763 ], [ 213762.931231975322589, 541800.40242097619921 ], [ 213763.073913562693633, 541800.099684049841017 ], [ 213762.58513325691456, 541800.965378668042831 ], [ 213761.847872225800529, 541801.382642105221748 ], [ 213762.329836457036436, 541801.130298077478074 ] ] ], [ [ [ 213786.270930679689627, 541750.881044195499271 ], [ 213790.420735067629721, 541722.483000903972425 ], [ 213802.551235571125289, 541691.77344503859058 ], [ 213823.761488070769701, 541659.544048533658497 ], [ 213832.911737285205163, 541639.644357215962373 ], [ 213847.842022887372877, 541614.644800657522865 ], [ 213861.142690275883069, 541566.885401137638837 ], [ 213870.183016677561682, 541542.275745980907232 ], [ 213890.559753736131825, 541486.722523887176067 ], [ 213896.453937282029074, 541472.483734147506766 ], [ 213897.573972229263745, 541469.773774136672728 ], [ 213906.259146707365289, 541454.717036206973717 ], [ 213914.506173971487442, 541448.963216201169416 ], [ 213916.832270913146203, 541441.831311365356669 ], [ 213938.772332229593303, 541427.216784633346833 ], [ 213938.815630700497422, 541427.216901769279502 ], [ 213938.819506220926996, 541427.208678822265938 ], [ 213938.73974302073475, 541427.211235947557725 ], [ 213916.799679345509503, 541441.820748074329458 ], [ 213914.459616726031527, 541448.950657580164261 ], [ 213906.229609086265555, 541454.690468208631501 ], [ 213897.529422147548757, 541469.770222800318152 ], [ 213890.479213702550624, 541486.870007372926921 ], [ 213880.19881300025736, 541514.869615132920444 ], [ 213870.139428568043513, 541542.268218127312139 ], [ 213861.10815741380793, 541566.868886690586805 ], [ 213852.567689446557779, 541597.558503374457359 ], [ 213851.462653448194033, 541601.531414872966707 ], [ 213847.817450884671416, 541614.62823510018643 ], [ 213832.887172603746876, 541639.627791660022922 ], [ 213823.736898976174416, 541659.527507392107509 ], [ 213802.526585541520035, 541691.756884362897836 ], [ 213790.396179990784731, 541722.476471886853687 ], [ 213787.050804092723411, 541745.370215042494237 ], [ 213786.23401767318137, 541750.95936495391652 ], [ 213786.270930679689627, 541750.881044195499271 ] ] ], [ [ [ 213947.687207782379119, 541427.012901683454402 ], [ 213945.909733354958007, 541426.981373507645912 ], [ 213939.66385521722259, 541427.181609870749526 ], [ 213947.687207782379119, 541427.012901683454402 ] ] ], [ [ [ 213996.32585704443045, 541425.990169815951958 ], [ 214006.688868931261823, 541422.290924795321189 ], [ 214012.858855302300071, 541420.087042528670281 ], [ 214027.242859311867505, 541412.740334800328128 ], [ 214044.503839415527182, 541405.449673236929812 ], [ 214050.313876233354677, 541400.309808798250742 ], [ 214123.169243394106161, 541403.414964321418665 ], [ 214167.68585694822832, 541405.298670513788238 ], [ 214271.542955089593306, 541409.713317957473919 ], [ 214405.044795859284932, 541415.39043576119002 ], [ 214433.660547402483644, 541416.606889728223905 ], [ 214436.604321134625934, 541416.732371283345856 ], [ 214437.166606882587075, 541416.720548020093702 ], [ 214371.686508538987255, 541413.94833902339451 ], [ 214319.746957131690579, 541411.73755415843334 ], [ 214271.555419995886041, 541409.690769160864875 ], [ 214167.722276170883561, 541405.281102045439184 ], [ 214121.344688168581342, 541403.311372251948342 ], [ 214050.279326282325201, 541400.293277259450406 ], [ 214044.469291905406862, 541405.433156346902251 ], [ 214027.249280080257449, 541412.702777239610441 ], [ 214012.95929772593081, 541420.022494032164104 ], [ 214006.664328762330115, 541422.268406649469398 ], [ 213996.223699088906869, 541425.992317905998789 ], [ 213996.32585704443045, 541425.990169815951958 ] ] ], [ [ [ 214437.399589953070972, 541416.715649051591754 ], [ 214437.258168427681085, 541416.260074120480567 ], [ 214437.169154498493299, 541416.063299438683316 ], [ 214437.371849802613724, 541416.7162323477678 ], [ 214437.399589953070972, 541416.715649051591754 ] ] ], [ [ [ 214410.103860905044712, 541356.23261246306356 ], [ 214181.044461812853115, 541320.46893042314332 ], [ 214075.515572357486235, 541303.997353165992536 ], [ 214028.056068462639814, 541296.796642196597531 ], [ 213867.276814283046406, 541330.113768748939037 ], [ 213826.577002222649753, 541338.603040934889577 ], [ 213826.577560456760693, 541338.617281795828603 ], [ 213867.07190532569075, 541330.170878736302257 ], [ 214027.851188802946126, 541296.853744860622101 ], [ 214075.310653634049231, 541304.054468037793413 ], [ 214180.839572388562374, 541320.52601599949412 ], [ 214410.147221074556001, 541356.328464692342095 ], [ 214410.103860905044712, 541356.23261246306356 ] ] ], [ [ [ 211227.690211692155572, 541031.229856895748526 ], [ 211227.842724612914026, 541031.194933218299411 ], [ 211227.626564177247928, 541031.024461904773489 ], [ 211227.690211692155572, 541031.229856895748526 ] ] ], [ [ [ 211220.859723938658135, 541042.644686595420353 ], [ 211220.948585933627328, 541042.628646493772976 ], [ 211220.948576922935899, 541042.628493976662867 ], [ 211220.905649495805847, 541042.636242369306274 ], [ 211220.547900862526149, 541037.202995518920943 ], [ 211220.859723938658135, 541042.644686595420353 ] ] ], [ [ [ 211220.972193957131822, 541044.607424900401384 ], [ 211223.731835967540974, 541091.525893388781697 ], [ 211224.108003722823923, 541093.489788396516815 ], [ 211224.0522007404943, 541092.617143532494083 ], [ 211223.831834518350661, 541091.565894682193175 ], [ 211223.582852253020974, 541085.277490168111399 ], [ 211220.88654263530043, 541043.112705396604724 ], [ 211220.972193957131822, 541044.607424900401384 ] ] ], [ [ [ 214230.823339955240954, 543148.355105235008523 ], [ 214230.452552047790959, 543148.49706585064996 ], [ 214225.561566187010612, 543150.582968234317377 ], [ 214223.083534725621575, 543152.060943467193283 ], [ 214220.914694996667095, 543154.148904139292426 ], [ 214220.938132672570646, 543154.12650479900185 ], [ 214223.014137051737634, 543152.138517399202101 ], [ 214225.604168455902254, 543150.578574431012385 ], [ 214230.823523056402337, 543148.355288340826519 ], [ 214230.831518649385544, 543148.352114669396542 ], [ 214231.191564389970154, 543148.214121133205481 ], [ 214230.823339955240954, 543148.355105235008523 ] ] ], [ [ [ 213079.304435531492345, 542605.479222855181433 ], [ 213070.605627971177455, 542587.778697060071863 ], [ 213071.048943036003038, 542588.735595905804075 ], [ 213079.007093396357959, 542604.92755358084105 ], [ 213079.304435531492345, 542605.479222855181433 ] ] ], [ [ [ 213069.005314317357261, 542584.207644587848336 ], [ 213061.566843636363046, 542565.711297728237696 ], [ 213061.800885504257167, 542566.365059121628292 ], [ 213068.54605125208036, 542583.134767807787284 ], [ 213069.005314317357261, 542584.207644587848336 ] ] ], [ [ [ 213060.202001819299767, 542561.898813679232262 ], [ 213055.302715991012519, 542546.502895797835663 ], [ 213055.274700946902158, 542546.510890884441324 ], [ 213055.072747489990434, 542545.877897114958614 ], [ 213054.738029186206404, 542544.824880299391225 ], [ 213054.738874010072323, 542544.827786921174265 ], [ 213055.072619072569069, 542545.877802877454087 ], [ 213055.274607200175524, 542546.510801039403304 ], [ 213057.207493339548819, 542552.582783336867578 ], [ 213059.935748145740945, 542561.155073363916017 ], [ 213060.202001819299767, 542561.898813679232262 ] ] ], [ [ [ 213052.743948346062098, 542537.642245910246857 ], [ 213052.708888570719864, 542537.494930889923126 ], [ 213052.705898049578536, 542537.483944599633105 ], [ 213052.73788011824945, 542537.489926516194828 ], [ 213052.734889599378221, 542537.47894022881519 ], [ 213052.732875632413197, 542537.467953957035206 ], [ 213048.720942666084738, 542520.616507651167922 ], [ 213048.867987742036348, 542521.370977868908085 ], [ 213052.705774028494488, 542537.483832293306477 ], [ 213052.743948346062098, 542537.642245910246857 ] ] ], [ [ [ 213047.642302632535575, 542515.08213816746138 ], [ 213046.453379207465332, 542507.682081936858594 ], [ 213046.419976783538004, 542507.684835147461854 ], [ 213047.451488685474033, 542514.103095249738544 ], [ 213047.642302632535575, 542515.08213816746138 ] ] ], [ [ [ 213044.481029254879104, 542495.325861700577661 ], [ 213044.32692731069983, 542494.115180406253785 ], [ 213044.372534726775484, 542494.651043072110042 ], [ 213044.481029254879104, 542495.325861700577661 ] ] ], [ [ [ 213044.103838657378219, 542491.49400843901094 ], [ 213064.069447813351871, 542490.533427345333621 ], [ 213064.069443640764803, 542490.533395456848666 ], [ 213044.103834782727063, 542491.493962913868017 ], [ 213044.103838657378219, 542491.49400843901094 ] ] ], [ [ [ 212743.133940910571255, 541877.689143022056669 ], [ 212743.253657445515273, 541877.992724335868843 ], [ 212743.552357632841449, 541878.74959036288783 ], [ 212743.371930341178086, 541878.224142560269684 ], [ 212743.133940910571255, 541877.689143022056669 ] ] ], [ [ [ 212748.053672363079386, 541891.83910851366818 ], [ 212748.122667792398715, 541892.087107630097307 ], [ 212748.08067086423398, 541891.918108312645927 ], [ 212748.053672363079386, 541891.83910851366818 ] ] ], [ [ [ 212751.436602883884916, 541905.398777726688422 ], [ 212751.637001321738353, 541906.370884960051626 ], [ 212751.661406218598131, 541906.48904871637933 ], [ 212751.579415264975978, 541905.971051570493728 ], [ 212751.436602883884916, 541905.398777726688422 ] ] ], [ [ [ 212753.811168575688498, 541920.099973692093045 ], [ 212753.881156712886877, 541920.797969190985896 ], [ 212753.83916551823495, 541920.274972733110189 ], [ 212753.811168575688498, 541920.099973692093045 ] ] ], [ [ [ 212757.94486380869057, 541998.62140692898538 ], [ 212769.918848180386703, 541998.048176770447753 ], [ 212769.917819058464374, 541998.026647114544176 ], [ 212757.94486380869057, 541998.62140692898538 ] ] ], [ [ [ 212695.737442196143093, 541620.508458264521323 ], [ 212702.896433241025079, 541620.169569332967512 ], [ 212892.035065702017164, 541611.112705492414534 ], [ 212912.114897991763428, 541611.543027229723521 ], [ 212938.054709609859856, 541610.353456944460049 ], [ 212938.240899920871016, 541610.297323282575235 ], [ 212912.31989727562177, 541611.486031009699218 ], [ 212892.240064982266631, 541611.055709273088723 ], [ 212703.101432519906666, 541620.112573110731319 ], [ 212695.921484502439853, 541620.452454096404836 ], [ 212683.708572801959235, 541621.038251592661254 ], [ 212671.951657803991111, 541621.602056650910527 ], [ 212585.552282101707533, 541625.77062389603816 ], [ 212579.562325367471203, 541626.060524557018653 ], [ 212575.360355779586826, 541626.260454900679179 ], [ 212571.572383198799798, 541626.440392110031098 ], [ 212531.632672097592149, 541628.349729956127703 ], [ 212469.183123627444729, 541631.34869453124702 ], [ 212455.416243085579481, 541630.779476207215339 ], [ 212435.063419696234632, 541629.938153438386507 ], [ 212392.823724139889237, 541632.027452632784843 ], [ 212392.800724489148706, 541632.03438708698377 ], [ 212434.877420941746095, 541629.953150306129828 ], [ 212455.503241968224756, 541630.805477406596765 ], [ 212468.99712487027864, 541631.363691397593357 ], [ 212531.446673342376016, 541628.364726824569516 ], [ 212575.421355241065612, 541626.26345586637035 ], [ 212671.765659051103285, 541621.617053517256863 ], [ 212683.7945720803109, 541621.040252969134599 ], [ 212695.735485751996748, 541620.467450964963064 ], [ 212695.737442196143093, 541620.508458264521323 ] ] ], [ [ [ 211798.944786408043001, 540995.25397788756527 ], [ 211793.525091387564316, 540979.088020625873469 ], [ 211793.441089308907976, 540979.258017893997021 ], [ 211793.359087198390625, 540979.429015188943595 ], [ 211793.281085040478501, 540979.601012537023053 ], [ 211793.205082832864719, 540979.775009904056787 ], [ 211793.13208058528835, 540979.950007311301306 ], [ 211793.062078299815767, 540980.126004757476039 ], [ 211792.994075962051284, 540980.304002220509574 ], [ 211792.929073603678262, 540980.481999731739052 ], [ 211792.868071194621734, 540980.660997300990857 ], [ 211792.809068754868349, 540980.840994892059825 ], [ 211792.7520662820898, 540981.021992512163706 ], [ 211792.699063762556762, 540981.203990183887072 ], [ 211792.649061201751465, 540981.386987899430096 ], [ 211792.601058609667234, 540981.570985636091791 ], [ 211792.557055985525949, 540981.754983442253433 ], [ 211792.515053327515488, 540981.93998126743827 ], [ 211792.476050632045371, 540982.125979134230874 ], [ 211792.440047907381086, 540982.311977051431313 ], [ 211792.40704514484969, 540982.498975010355935 ], [ 211792.377042361738859, 540982.685973014566116 ], [ 211792.35003953584237, 540982.87397106050048 ], [ 211792.326036684506107, 540983.061969155911356 ], [ 211792.305033811979229, 540983.249967298121192 ], [ 211792.287030898354715, 540983.438965479959734 ], [ 211792.272027958650142, 540983.627963714883663 ], [ 211792.260024999413872, 540983.816961995908059 ], [ 211792.251021996198688, 540984.006960317143239 ], [ 211792.245018983783666, 540984.195958693628199 ], [ 211792.242015933763469, 540984.385957114049233 ], [ 211792.242012876347871, 540984.574955586227588 ], [ 211792.245009778649546, 540984.764954104321077 ], [ 211792.251006673177471, 540984.953952675568871 ], [ 211792.260003527015215, 540985.143951287143864 ], [ 211792.272000370401656, 540985.33294995687902 ], [ 211792.28599720087368, 540985.521948659908958 ], [ 211792.303993999084923, 540985.710947425104678 ], [ 211792.324990790773882, 540985.898946247179992 ], [ 211792.348987538483925, 540986.087945110863075 ], [ 211792.375984296755632, 540986.274944037781097 ], [ 211792.405981012881966, 540986.462943007121794 ], [ 211792.43797774775885, 540986.648942022584379 ], [ 211792.473974433814874, 540986.835941098164767 ], [ 211792.512971129646758, 540987.020940237562172 ], [ 211792.553967806481523, 540987.205939406063408 ], [ 211792.598964453558438, 540987.390938641736284 ], [ 211792.64596111633, 540987.573937925044447 ], [ 211792.695957755378913, 540987.756937260041013 ], [ 211792.748954385868274, 540987.9389366467949 ], [ 211792.804951007565251, 540988.119936093105935 ], [ 211792.863947604986606, 540988.300935585517436 ], [ 211792.925944215356139, 540988.479935146635398 ], [ 211792.989940820727497, 540988.657934746704996 ], [ 211793.057937412319006, 540988.83493441704195 ], [ 211793.127933990093879, 540989.011934123467654 ], [ 211793.200930571154458, 540989.186933891614899 ], [ 211793.275927155715181, 540989.360933701624162 ], [ 211793.354923741193488, 540989.532933591865003 ], [ 211793.435920310032088, 540989.70493351528421 ], [ 211793.519916883902624, 540989.874933501821943 ], [ 211793.605913478415459, 540990.042933539487422 ], [ 211793.694910046935547, 540990.210933623136953 ], [ 211793.786906624649419, 540990.376933772815391 ], [ 211793.880903220473556, 540990.540933969430625 ], [ 211793.977899803081527, 540990.703934224089608 ], [ 211794.0778963836201, 540990.865934535511769 ], [ 211794.179892992979148, 540991.024934902321547 ], [ 211794.284889577829745, 540991.183935317909345 ], [ 211794.391886198107386, 540991.339935789699666 ], [ 211794.500882816064404, 540991.494936305447482 ], [ 211794.612879444757709, 540991.647936881519854 ], [ 211794.727876079559792, 540991.798937525018118 ], [ 211794.84387272328604, 540991.94893819198478 ], [ 211794.962869393086294, 540992.095938929822296 ], [ 211795.084866053279256, 540992.241939727333374 ], [ 211795.208862746425439, 540992.384940581512637 ], [ 211795.33385944616748, 540992.526941457181238 ], [ 211795.462856149184518, 540992.666942416457459 ], [ 211795.592852876608958, 540992.804943404858932 ], [ 211795.725849625421688, 540992.939944468555041 ], [ 211795.859846385254059, 540993.073945555603132 ], [ 211795.996843168773921, 540993.204946715151891 ], [ 211796.135839967377251, 540993.333947923616506 ], [ 211796.276836783363251, 540993.460949182510376 ], [ 211796.418833623843966, 540993.585950469132513 ], [ 211796.563830472325208, 540993.708951824577525 ], [ 211796.710827353992499, 540993.828953234828077 ], [ 211796.858824260300025, 540993.94695467769634 ], [ 211797.009821190440562, 540994.061956192250364 ], [ 211797.161818145337747, 540994.174957743030973 ], [ 211797.315815115609439, 540994.285959337837994 ], [ 211797.471812119358219, 540994.393960988847539 ], [ 211797.628809145797277, 540994.499962676782161 ], [ 211797.78780620591715, 540994.602964419405907 ], [ 211797.948803283885354, 540994.703966208151542 ], [ 211798.110800400725566, 540994.80196803889703 ], [ 211798.274797549267532, 540994.896969927242026 ], [ 211798.439794723206433, 540994.989971845294349 ], [ 211798.606791915313806, 540995.080973815289326 ], [ 211798.774789160495857, 540995.167975830147043 ], [ 211798.944786408043001, 540995.25397788756527 ] ] ], [ [ [ 211832.124371064797742, 541004.503440202446654 ], [ 211804.872706529597053, 540997.257057655835524 ], [ 211805.142703009216348, 540997.341061345534399 ], [ 211805.411699495540233, 540997.425065022427589 ], [ 211805.680696000112221, 540997.508068706607446 ], [ 211805.950692477083066, 540997.592072399100289 ], [ 211806.219688979937928, 540997.675076079671271 ], [ 211806.489685476612067, 540997.758079780032858 ], [ 211806.759681987168733, 540997.840083489078097 ], [ 211807.028678489848971, 540997.923087173141539 ], [ 211807.298675001075026, 540998.005090879974887 ], [ 211807.56867151154438, 540998.087094587506726 ], [ 211807.838668021257035, 540998.169098295038566 ], [ 211808.108664551808033, 540998.250102009740658 ], [ 211808.378661062248284, 540998.332105719367974 ], [ 211808.648657589103095, 540998.413109432673082 ], [ 211808.919654107536189, 540998.494113167165779 ], [ 211809.189650650252588, 540998.574116888223216 ], [ 211809.459647194569698, 540998.65412061358802 ], [ 211809.73064371541841, 540998.735124345985241 ], [ 211810.000640273530735, 540998.814128077821806 ], [ 211810.271636808116455, 540998.89413181738928 ], [ 211810.542633344331989, 540998.97413555753883 ], [ 211810.812629905121867, 540999.053139288676903 ], [ 211811.083626457548235, 540999.132143036811613 ], [ 211811.354623024642933, 540999.21014679200016 ], [ 211811.625619575905148, 540999.289150541531853 ], [ 211811.896616144164, 540999.367154297418892 ], [ 211812.167612711898983, 540999.445158050511964 ], [ 211812.438609281351091, 540999.523161810007878 ], [ 211812.709605865704361, 540999.600165573763661 ], [ 211812.981602423998993, 540999.67816934606526 ], [ 211813.252599007391836, 540999.755173109821044 ], [ 211813.523595592560014, 540999.832176875090227 ], [ 211813.795592182694236, 540999.908180663012899 ], [ 211814.066588766960194, 540999.985184426768683 ], [ 211814.338585360732395, 541000.061188214691356 ], [ 211814.610581951856147, 541000.137192002614029 ], [ 211814.881578568398254, 541000.212195784202777 ], [ 211815.153575160977198, 541000.28819957212545 ], [ 211815.425571771134855, 541000.363203367916867 ], [ 211815.697568378702272, 541000.438207166502252 ], [ 211815.969564985891338, 541000.513210960896686 ], [ 211816.241561610862846, 541000.587214768049307 ], [ 211816.513558235543314, 541000.661218571709469 ], [ 211816.785554859961849, 541000.735222377465107 ], [ 211817.058551478316076, 541000.80922619602643 ], [ 211817.330548099882435, 541000.883230001782067 ], [ 211817.602544741675956, 541000.956233816104941 ], [ 211817.875541375251487, 541001.029237641720101 ], [ 211818.147538014338352, 541001.102241455344483 ], [ 211818.420534665812738, 541001.174245293717831 ], [ 211818.693531298689777, 541001.247249119449407 ], [ 211818.965527953318087, 541001.319252944434993 ], [ 211819.238524604239501, 541001.391256779315881 ], [ 211819.511521269014338, 541001.46226062416099 ], [ 211819.784517917374615, 541001.534264460555278 ], [ 211820.057514581887517, 541001.60526830679737 ], [ 211820.330511246284004, 541001.676272151060402 ], [ 211820.603507912805071, 541001.747275995207019 ], [ 211820.876504595682491, 541001.817279849317856 ], [ 211821.149501273990609, 541001.887283701449633 ], [ 211821.422497956751613, 541001.95728755556047 ], [ 211821.696494631352834, 541002.02729142527096 ], [ 211821.969491311785532, 541002.097295277984813 ], [ 211822.242488008749206, 541002.166299139382318 ], [ 211822.5164846975822, 541002.23530301626306 ], [ 211822.79048138865619, 541002.304306893143803 ], [ 211823.063478102383669, 541002.372310760081746 ], [ 211823.337474789033877, 541002.441314640571363 ], [ 211823.61147149692988, 541002.509318526019342 ], [ 211823.884468210861087, 541002.577322395867668 ], [ 211824.158464933483629, 541002.6443262884859 ], [ 211824.432461637130473, 541002.712330173118971 ], [ 211824.706458360014949, 541002.779334067134187 ], [ 211824.980455080774846, 541002.846337961149402 ], [ 211825.254451801651157, 541002.913341853767633 ], [ 211825.528448541939724, 541002.979345755651593 ], [ 211825.803445269644726, 541003.045349673717283 ], [ 211826.077442010282539, 541003.111353575601242 ], [ 211826.351438748912187, 541003.177357474574819 ], [ 211826.62543550261762, 541003.242361386422999 ], [ 211826.900432231137529, 541003.308365303091705 ], [ 211827.174428985337727, 541003.373369213542901 ], [ 211827.449425731465453, 541003.438373140292242 ], [ 211827.723422503448091, 541003.502377057098784 ], [ 211827.998419262934476, 541003.56638099020347 ], [ 211828.273416027222993, 541003.630384926218539 ], [ 211828.548412791831652, 541003.694388858624734 ], [ 211828.822409562882967, 541003.758392777643166 ], [ 211829.097406338813016, 541003.821396717918105 ], [ 211829.372403117391514, 541003.884400658193044 ], [ 211829.647399896348361, 541003.947404603357427 ], [ 211829.922396675683558, 541004.010408544330858 ], [ 211830.197393468464725, 541004.072412493871525 ], [ 211830.472390263952548, 541004.134416445624083 ], [ 211830.74838704924332, 541004.19642041134648 ], [ 211831.023383845604258, 541004.258424359490164 ], [ 211831.298380640189862, 541004.320428311941214 ], [ 211831.574377444514539, 541004.381432287744246 ], [ 211831.849374255514704, 541004.442436241544783 ], [ 211832.124371064797742, 541004.503440202446654 ] ] ], [ [ [ 212263.336436519370181, 540543.3822343806969 ], [ 212263.336381438566605, 540543.38213796063792 ], [ 212261.674856240890222, 540544.252309108967893 ], [ 212263.336436519370181, 540543.3822343806969 ] ] ], [ [ [ 212041.329638518218417, 540758.262430132017471 ], [ 212041.337680526368786, 540758.277812321903184 ], [ 212083.902699963073246, 540736.023680658545345 ], [ 212282.302790849469602, 540632.296728018904105 ], [ 212306.606066300766543, 540619.571713923360221 ], [ 212282.220881443732651, 540632.320823178859428 ], [ 212083.782802273868583, 540736.066775049781427 ], [ 212083.754787120939, 540736.08178912254516 ], [ 212041.329638518218417, 540758.262430132017471 ] ] ], [ [ [ 212104.765832451288588, 541644.312689619604498 ], [ 212098.70840282633435, 541644.603725949535146 ], [ 212113.197764340555295, 541644.347825845354237 ], [ 212163.709357287356397, 541644.498642402119003 ], [ 212173.629285595932743, 541644.018806881271303 ], [ 212224.458917621610453, 541641.599649355281144 ], [ 212236.518806130363373, 541642.519837183644995 ], [ 212344.940022110764403, 541637.309634688543156 ], [ 212362.367896094219759, 541636.47192363278009 ], [ 212380.797762414149474, 541635.612228981917724 ], [ 212380.822563180321595, 541635.60475148668047 ], [ 212362.55389484736952, 541636.456926765735261 ], [ 212236.704804882436292, 541642.504840316600166 ], [ 212224.644916375575121, 541641.584652487537824 ], [ 212173.815284351265291, 541644.00381001282949 ], [ 212163.895356042165076, 541644.483645535074174 ], [ 212113.255764120433014, 541644.332826903555542 ], [ 212104.765832451288588, 541644.312689619604498 ] ] ], [ [ [ 211707.245992294716416, 541089.711731690447778 ], [ 211707.888033232680755, 541086.86376506369561 ], [ 211707.252992786758114, 541089.677732079173438 ], [ 211705.167859876994044, 541098.923623715643771 ], [ 211707.245992294716416, 541089.711731690447778 ] ] ], [ [ [ 211705.131929751252756, 541098.99199551763013 ], [ 211704.825851679343032, 541099.599612723919563 ], [ 211699.503164469904732, 541109.703030272852629 ], [ 211698.467707232513931, 541111.673412390984595 ], [ 211704.827851599984569, 541099.603612727136351 ], [ 211705.167859876994044, 541098.923623715643771 ], [ 211705.131929751252756, 541098.99199551763013 ] ] ], [ [ [ 211737.685431850084569, 541024.810947837308049 ], [ 211737.47848985568271, 541025.225344558479264 ], [ 211737.478793642279925, 541025.224741353304125 ], [ 211739.720841690286761, 541021.145810553221963 ], [ 211748.086043430841528, 541004.538079938851297 ], [ 211743.132108163816156, 541002.989012271515094 ], [ 211689.080814488785109, 540986.086273998138495 ], [ 211685.938856978435069, 540985.015231799567118 ], [ 211681.360918880149256, 540983.455170309171081 ], [ 211673.787028413295047, 540980.434072131756693 ], [ 211666.375142846402014, 540977.029979662969708 ], [ 211666.348143270763103, 540977.016979333828203 ], [ 211659.296255725959782, 540973.556893142405897 ], [ 211653.584346788091352, 540970.755823319079354 ], [ 211646.441460669186199, 540967.252736003720202 ], [ 211622.820837282517459, 540955.666447293013334 ], [ 211641.449674191273516, 540964.935004839673638 ], [ 211667.036932068847818, 540977.487757438328117 ], [ 211673.105735197488684, 540980.276705205207691 ], [ 211681.155919985816581, 540983.488166727591306 ], [ 211688.874815586052136, 540986.120270393788815 ], [ 211747.879044472560054, 541004.57607628183905 ], [ 211737.685431850084569, 541024.810947837308049 ] ] ], [ [ [ 211226.05311429296853, 541122.362359284306876 ], [ 211225.981623323867097, 541121.108569063711911 ], [ 211225.874340184760513, 541121.111689183511771 ], [ 211225.869864486361621, 541121.041698386077769 ], [ 211228.25066457153298, 541161.697399944649078 ], [ 211227.876786503271433, 541154.34545325464569 ], [ 211226.55529148093774, 541131.16941359010525 ], [ 211226.018318777409149, 541122.363681406830437 ], [ 211226.05311429296853, 541122.362359284306876 ] ] ], [ [ [ 211231.870666487870039, 541221.598974847234786 ], [ 211231.731556351238396, 541216.054179350612685 ], [ 211229.661353024741402, 541182.105235691764392 ], [ 211228.643552661902504, 541168.420352018089034 ], [ 211231.849641319422517, 541223.164961863309145 ], [ 211235.238734560174635, 541277.534577675047331 ], [ 211235.540682632534299, 541280.594557849690318 ], [ 211235.279735703312326, 541277.443579072831199 ], [ 211233.324267068237532, 541245.567804825142957 ], [ 211231.921636003273306, 541223.457960661733523 ], [ 211231.870666487870039, 541221.598974847234786 ] ] ], [ [ [ 212091.003931463201297, 541645.006461221142672 ], [ 212091.313560986483935, 541644.959019822068512 ], [ 212080.734526377927978, 541645.467301980941556 ], [ 212091.003931463201297, 541645.006461221142672 ] ] ], [ [ [ 211751.305090377893066, 541353.038155526155606 ], [ 211751.313380582287209, 541352.88932066981215 ], [ 211750.188765523489565, 541329.659489982877858 ], [ 211749.539687183598289, 541316.255250639631413 ], [ 211750.18276574506308, 541329.648489975137636 ], [ 211751.305090377893066, 541353.038155526155606 ] ] ], [ [ [ 211750.657253883051453, 541361.043244230328128 ], [ 211750.302605183824198, 541365.893794281873852 ], [ 211750.303178295464022, 541365.889199381344952 ], [ 211751.073312756983796, 541357.199281992274337 ], [ 211751.194537060335279, 541355.022930129547603 ], [ 211750.657253883051453, 541361.043244230328128 ] ] ], [ [ [ 211740.428361924539786, 541668.376597375259735 ], [ 211736.848582240141695, 541656.536635035881773 ], [ 211731.350442670722259, 541544.307452222215943 ], [ 211730.02088980510598, 541517.337648452492431 ], [ 211728.803736736706924, 541492.542938405298628 ], [ 211728.791293100366602, 541493.02682482637465 ], [ 211736.915549963130616, 541658.497620286070742 ], [ 211739.276386549201561, 541667.425586407771334 ], [ 211740.398359801183688, 541668.522595711285248 ], [ 211740.522443587891757, 541670.286418585572392 ], [ 211740.428361924539786, 541668.376597375259735 ] ] ], [ [ [ 211908.679065425443696, 541665.188346670242026 ], [ 211883.031180410209345, 541670.779886336880736 ], [ 211822.98344966120203, 541683.869808605406433 ], [ 211810.557554442231776, 541683.547610064269975 ], [ 211775.389727332425537, 541691.211949422955513 ], [ 211776.057677194534335, 541693.042974931420758 ], [ 211810.625522188987816, 541685.506595345097594 ], [ 211822.989417062781285, 541685.880792467505671 ], [ 211883.037147796538193, 541672.791870188200846 ], [ 211946.849844400712755, 541659.950006881146692 ], [ 211966.536741076473845, 541656.58935271401424 ], [ 211966.928753379150294, 541655.635366761591285 ], [ 211966.929790153750218, 541655.635247242869809 ], [ 211966.933753548684763, 541655.622366947936825 ], [ 211946.843877015140606, 541657.938023029011674 ], [ 211908.679065425443696, 541665.188346670242026 ] ] ], [ [ [ 212021.336387498129625, 541651.311282461625524 ], [ 212021.192065007082419, 541651.321681733475998 ], [ 212022.027380641084164, 541651.278132637147792 ], [ 212021.336387498129625, 541651.311282461625524 ] ] ], [ [ [ 211725.556975092447829, 541267.10659625462722 ], [ 211724.493504905782174, 541264.229630087967962 ], [ 211725.394632634008303, 541267.356435302412137 ], [ 211727.701837516797241, 541274.546570913982578 ], [ 211725.556975092447829, 541267.10659625462722 ] ] ], [ [ [ 211731.110570309334435, 541289.371506417402998 ], [ 211728.632476301252609, 541278.323794144205749 ], [ 211731.109570313768927, 541289.371506401104853 ], [ 211733.326331103075063, 541303.056431814096868 ], [ 211731.110570309334435, 541289.371506417402998 ] ] ], [ [ [ 211734.717096770997159, 541316.848342993645929 ], [ 211734.717991505836835, 541316.848300013574772 ], [ 211733.326331103075063, 541303.056431814096868 ], [ 211734.717096770997159, 541316.848342993645929 ] ] ], [ [ [ 212033.524106180178933, 542465.624903271789663 ], [ 212028.93316149734892, 542464.481838160310872 ], [ 212028.96816103902529, 542464.492838638368994 ], [ 212033.523106138483854, 542465.627903232700191 ], [ 212038.923055070219561, 542466.107986801536754 ], [ 212033.524106180178933, 542465.624903271789663 ] ] ], [ [ [ 212441.228179891651962, 540406.102123610675335 ], [ 212432.443150702340063, 540412.247931894729845 ], [ 212441.663181334704859, 540405.79813309921883 ], [ 212446.35319689870812, 540402.518235440133139 ], [ 212441.228179891651962, 540406.102123610675335 ] ] ], [ [ [ 212204.183841917809332, 542335.701716598705389 ], [ 212204.006519184913486, 542335.470765197649598 ], [ 212202.48812267309404, 542333.49520488223061 ], [ 212208.365716923086438, 542341.350738695939071 ], [ 212204.183841917809332, 542335.701716598705389 ] ] ], [ [ [ 212150.645148698618868, 542281.501287356251851 ], [ 212148.388082586287055, 542279.803056670236401 ], [ 212150.642148724058643, 542281.501287309569307 ], [ 212158.613980450027157, 542287.947364338790067 ], [ 212150.645148698618868, 542281.501287356251851 ] ] ], [ [ [ 212214.553523771377513, 542350.215767301386222 ], [ 212212.853578108653892, 542347.701760075986385 ], [ 212209.011697268142598, 542342.244741935050115 ], [ 212214.553523771377513, 542350.215767301386222 ] ] ], [ [ [ 212230.812951426429208, 542377.511810146737844 ], [ 212230.689956039714161, 542377.28780996450223 ], [ 212235.529761755111394, 542386.889810787164606 ], [ 212237.177690492710099, 542390.474808517843485 ], [ 212235.532761699490948, 542386.891810818808153 ], [ 212230.812951426429208, 542377.511810146737844 ] ] ], [ [ [ 212263.190855987253599, 542490.880418769083917 ], [ 212265.898836564127123, 542490.739463767269626 ], [ 212265.940836308931466, 542490.734464488457888 ], [ 212263.190855987253599, 542490.880418769083917 ] ] ], [ [ [ 212836.783881935843965, 540129.406011397368275 ], [ 212837.244857682235306, 540129.080627952003852 ], [ 212837.056495851284126, 540129.210761190857738 ], [ 212836.783881935843965, 540129.406011397368275 ] ] ], [ [ [ 212861.544573510065675, 540112.317293628701009 ], [ 212854.777552074403502, 540116.984146505827084 ], [ 212841.404509713698644, 540126.206855764961801 ], [ 212861.544573510065675, 540112.317293628701009 ] ] ], [ [ [ 213318.59837181479088, 541815.058034922578372 ], [ 213318.598348093539244, 541815.057969895191491 ], [ 213305.118295950436732, 541824.937671824125573 ], [ 213300.308278729207814, 541828.377566155046225 ], [ 213295.418264417065075, 541831.677460317616351 ], [ 213290.438252769061364, 541834.857353989849798 ], [ 213285.388243624707684, 541837.917247496079654 ], [ 213280.258237390691647, 541840.837140835472383 ], [ 213275.048233738983981, 541843.637033845996484 ], [ 213269.778232835175004, 541846.296927013900131 ], [ 213264.438234763860237, 541848.816820179228671 ], [ 213259.038239275367232, 541851.206713421968743 ], [ 213253.578246537945233, 541853.456606819410808 ], [ 213248.05825654452201, 541855.566500374232419 ], [ 213242.49826914377627, 541857.53639441228006 ], [ 213236.878284488600912, 541859.366288607008755 ], [ 213231.218302423571004, 541861.056183284148574 ], [ 213225.518323106400203, 541862.596078520989977 ], [ 213219.778346540377242, 541863.985974322189577 ], [ 213214.008372322976356, 541865.245870683924295 ], [ 213208.198400852910709, 541866.355767609435134 ], [ 213202.368432137242053, 541867.305665501509793 ], [ 213196.518465849017957, 541868.115564199746586 ], [ 213190.648502309602918, 541868.765463863848709 ], [ 213184.768541124125477, 541869.275364498374984 ], [ 213178.86858268774813, 541869.62526609946508 ], [ 213066.379395967669552, 541875.013400389812887 ], [ 213034.168628825427731, 541876.558866147068329 ], [ 213035.84304938884452, 541911.505611310945824 ], [ 213035.856044879212277, 541911.777609327458777 ], [ 213035.856062888895394, 541911.777608464239165 ], [ 213035.843087960791308, 541911.50565134990029 ], [ 213034.16867349963286, 541876.558925962308422 ], [ 213066.37943991276552, 541875.013449949445203 ], [ 213178.868621748639271, 541869.625308334361762 ], [ 213184.768592391221318, 541869.275418941164389 ], [ 213190.648556021857075, 541868.765513426973484 ], [ 213196.518517118354794, 541868.115601553581655 ], [ 213202.368471199297346, 541867.305704077589326 ], [ 213208.198448460258078, 541866.355830597691238 ], [ 213214.00841870898148, 541865.245910478523001 ], [ 213219.778402694035321, 541863.986039751325734 ], [ 213225.518374376464635, 541862.596136626088992 ], [ 213231.218359794671414, 541861.056221855920739 ], [ 213236.878328431892442, 541859.366325960145332 ], [ 213242.498310643917648, 541857.536453737528063 ], [ 213248.0582968252711, 541855.566543833469041 ], [ 213253.578296583902556, 541853.456657599075697 ], [ 213259.038300306798192, 541851.206764201633632 ], [ 213264.438277486537118, 541848.816863636951894 ], [ 213269.778288988251006, 541846.296991224400699 ], [ 213275.048269138875185, 541843.637080966727808 ], [ 213280.258283777569886, 541840.837194058811292 ], [ 213285.388292451185407, 541837.917309262906201 ], [ 213290.438295494241174, 541834.857416979502887 ], [ 213295.418327893508831, 541831.677496452000923 ], [ 213300.308319011761341, 541828.377608391223475 ], [ 213305.118335012841271, 541824.937712840968743 ], [ 213318.59837181479088, 541815.058034922578372 ] ] ], [ [ [ 213039.369829689559992, 541985.152103694505058 ], [ 213039.369828276889166, 541985.152074207202531 ], [ 213015.333073020214215, 541986.310466839233413 ], [ 213015.333079725824064, 541986.310511899413541 ], [ 213039.369829689559992, 541985.152103694505058 ] ] ], [ [ [ 213371.137826832506107, 542006.465277131763287 ], [ 213369.725664849684108, 542007.105073606362566 ], [ 213371.092767940659542, 542006.537482541054487 ], [ 213371.066826849099016, 542006.499275707057677 ], [ 213371.137826832506107, 542006.465277131763287 ] ] ], [ [ [ 213423.624140129861189, 542022.917994812945835 ], [ 213382.234476437501144, 542022.947323956293985 ], [ 213382.2345076034253, 542022.947369858855382 ], [ 213423.624184074898949, 542022.918056578957476 ], [ 213423.974257559515536, 542017.418075735797174 ], [ 213472.22390633545001, 542017.178864693967625 ], [ 213481.943901439459296, 542009.939069380285218 ], [ 213481.943883567670127, 542009.939044452970847 ], [ 213472.223844078747788, 542017.178828561678529 ], [ 213423.974226431455463, 542017.418044849880971 ], [ 213423.624140129861189, 542022.917994812945835 ] ] ], [ [ [ 213506.103974508092506, 541992.38957747828681 ], [ 213482.323878504132153, 542010.469041345873848 ], [ 213482.323921989795053, 542010.469101998838596 ], [ 213506.104039202444255, 541992.389624597737566 ], [ 213523.604108281549998, 541979.480025710072368 ], [ 213520.474693877826212, 541944.730255283997394 ], [ 213500.683207178546581, 541917.716056826873682 ], [ 213500.688265791919548, 541917.712149917380884 ], [ 213500.700912769709248, 541917.702968026627786 ], [ 213500.688227707985789, 541917.71209205663763 ], [ 213500.68314761162037, 541917.715982676600106 ], [ 213486.169171543850098, 541928.351770995184779 ], [ 213500.683227685774909, 541917.716091944486834 ], [ 213520.474631624412723, 541944.730194735922851 ], [ 213523.604043586499756, 541979.479965164093301 ], [ 213506.103974508092506, 541992.38957747828681 ] ] ], [ [ [ 213568.194488875975367, 541868.24358480644878 ], [ 213553.227699553011917, 541879.211401147651486 ], [ 213568.194548202474834, 541868.243626799085177 ], [ 213578.619589714333415, 541860.154866318451241 ], [ 213588.58364474461996, 541851.505085312062874 ], [ 213598.057717239455087, 541842.320314110256732 ], [ 213607.012811124819564, 541832.629547853488475 ], [ 213615.384910722641507, 541822.505755922407843 ], [ 213615.384852238465101, 541822.505718268803321 ], [ 213607.012755218253005, 541832.629500979091972 ], [ 213598.05766987730749, 541842.32027773221489 ], [ 213588.583596889860928, 541851.505050154868513 ], [ 213578.619536493642954, 541860.154818955459632 ], [ 213568.194488875975367, 541868.24358480644878 ] ] ], [ [ [ 213642.515352147485828, 541839.973017009440809 ], [ 213619.303875382436672, 541825.028884014231153 ], [ 213642.515403414290631, 541839.973072674474679 ], [ 213663.005414076411398, 541828.893485479056835 ], [ 213717.125399490003474, 541802.914581653196365 ], [ 213727.995395293255569, 541797.654795314301737 ], [ 213734.865402366791386, 541793.674948490574025 ], [ 213747.905436481669312, 541786.335205536568537 ], [ 213750.385478645184776, 541781.905285103945062 ], [ 213751.775513407977996, 541779.525324374320917 ], [ 213756.865565117041115, 541772.765456471126527 ], [ 213765.98583852709271, 541751.235793705680408 ], [ 213770.946360034926329, 541717.276136890053749 ], [ 213784.666829460824374, 541682.506629751762375 ], [ 213787.806855508679291, 541677.916734722792171 ], [ 213792.206943009514362, 541671.096857336116955 ], [ 213806.157179850677494, 541649.967251268564723 ], [ 213815.177406916074688, 541630.217556632473134 ], [ 213829.037695428472944, 541606.997983034932986 ], [ 213830.087736658402719, 541603.558026558370329 ], [ 213839.288207695237361, 541570.318417931091972 ], [ 213841.978341308946256, 541560.818538092891686 ], [ 213853.548735317453975, 541529.128979771165177 ], [ 213861.049005664535798, 541508.739288829499856 ], [ 213861.349040477944072, 541507.949280528002419 ], [ 213872.289434228354366, 541478.319694154779427 ], [ 213873.099484040518291, 541474.769741994678043 ], [ 213873.809515534201637, 541471.269781707320362 ], [ 213875.25959460818558, 541466.049861920881085 ], [ 213879.179777632263722, 541452.290031451033428 ], [ 213883.900007508113049, 541436.750244154827669 ], [ 213888.100202291214373, 541423.030406906502321 ], [ 213888.940205378370592, 541421.37044732295908 ], [ 213892.900291942933109, 541414.750567276845686 ], [ 213893.770308303559432, 541413.160580760799348 ], [ 213897.330379863909911, 541406.910688807955012 ], [ 213900.03044035405037, 541402.220769130159169 ], [ 213900.940444922453025, 541400.660797663847916 ], [ 213901.470483358483762, 541398.930829962715507 ], [ 213906.990689497120911, 541382.201033467776142 ], [ 213908.060799462225987, 541375.111125029390678 ], [ 213909.520944251882611, 541366.131200300296769 ], [ 213907.92120741555118, 541357.231180443661287 ], [ 213907.838177262980025, 541356.768309762352146 ], [ 213906.341499982721871, 541356.291441886452958 ], [ 213907.921049961005338, 541357.231208742712624 ], [ 213909.520892984874081, 541366.1311629464617 ], [ 213908.060759179992601, 541375.111066922778264 ], [ 213906.9906528776919, 541382.200992451631464 ], [ 213901.470425987732597, 541398.930768193793483 ], [ 213900.94040219928138, 541400.66074566275347 ], [ 213900.030384202924324, 541402.220718347700313 ], [ 213897.330329818942118, 541406.910636805463582 ], [ 213893.770257034193492, 541413.16052875679452 ], [ 213892.900238233589334, 541414.750501848408021 ], [ 213888.940162655519089, 541421.370384335401468 ], [ 213888.100142480601789, 541423.030357346171513 ], [ 213883.899953798856586, 541436.750178724178113 ], [ 213879.179739790735766, 541452.289977005450055 ], [ 213875.259548221889418, 541466.049802592140622 ], [ 213873.809475252346601, 541471.269737030961551 ], [ 213873.099424226558767, 541474.769697317620739 ], [ 213872.289373191073537, 541478.319655579514802 ], [ 213861.348980664799456, 541507.949239511159249 ], [ 213861.048970264091622, 541508.739228284917772 ], [ 213853.548699918988859, 541529.128942418145016 ], [ 213841.978279054485029, 541560.818499518325552 ], [ 213839.288146660721395, 541570.31837935722433 ], [ 213830.087681727862218, 541603.557962347869761 ], [ 213829.03763439602335, 541606.997917604399845 ], [ 213815.177369073324371, 541630.217505848617293 ], [ 213806.157121256343089, 541649.967200487502851 ], [ 213792.206890520988964, 541671.096804112079553 ], [ 213787.806815227348125, 541677.916677838540636 ], [ 213784.666765984642552, 541682.506589954951778 ], [ 213770.946312426793156, 541717.276087327627465 ], [ 213765.98580190713983, 541751.235733159002848 ], [ 213756.865526053647045, 541772.765411792672239 ], [ 213751.7754572587437, 541779.525274811894633 ], [ 213750.385429816931719, 541781.905233100638725 ], [ 213747.905377886170754, 541786.335157196386717 ], [ 213734.86536330456147, 541793.674886720953509 ], [ 213727.995353790931404, 541797.654743314604275 ], [ 213717.125355546944775, 541802.914524768828414 ], [ 213663.005367690871935, 541828.893438361817971 ], [ 213642.515352147485828, 541839.973017009440809 ] ] ], [ [ [ 213895.684163629251998, 541353.87118985678535 ], [ 213897.430120151373558, 541353.961010262253694 ], [ 213897.15929310611682, 541353.894136464572512 ], [ 213895.684163629251998, 541353.87118985678535 ] ] ], [ [ [ 213868.661762827512575, 541352.610629812232219 ], [ 213870.451201547199162, 541352.72062441369053 ], [ 213869.535511390247848, 541352.608726119506173 ], [ 213868.661762827512575, 541352.610629812232219 ] ] ], [ [ [ 213829.041734054801054, 541353.939957270165905 ], [ 213854.04862748546293, 541352.869456712855026 ], [ 213829.041726549214218, 541353.939781848108396 ], [ 213827.252927440684289, 541354.016174502088688 ], [ 213827.256745690829121, 541354.102927037747577 ], [ 213826.146751975087682, 541354.262907765572891 ], [ 213825.056756481091725, 541354.522888012812473 ], [ 213824.974023791553918, 541354.550721816252917 ], [ 213825.941752691724105, 541354.319903984200209 ], [ 213827.051746406999882, 541354.159923256374896 ], [ 213829.041734054801054, 541353.939957270165905 ] ] ], [ [ [ 213068.02416283704224, 542505.910335396882147 ], [ 213066.102228836331051, 542506.068298610975035 ], [ 213066.102235733444104, 542506.068351320340298 ], [ 213068.024221429077443, 542505.910373728605919 ], [ 213083.75910897916765, 542504.618643011315726 ], [ 213115.151884571096161, 542503.113173107616603 ], [ 213127.831789179268526, 542502.505367356119677 ], [ 213254.937867065920727, 542496.411502524395473 ], [ 213328.827339416573523, 542492.902723315404728 ], [ 213326.798025917203631, 542450.6330218258081 ], [ 213346.777842977637192, 542449.673345198389143 ], [ 213346.777841166680446, 542449.673306219512597 ], [ 213326.797985634359065, 542450.632974708452821 ], [ 213328.827284485392738, 542492.902666431036778 ], [ 213254.937819462851621, 542496.411440756171942 ], [ 213127.831738887180109, 542502.50533195596654 ], [ 213115.151830615795916, 542503.11312159220688 ], [ 213083.759057711926289, 542504.618600777117535 ], [ 213068.02416283704224, 542505.910335396882147 ] ] ], [ [ [ 213391.716672699520132, 542499.57363172469195 ], [ 213349.197028617898468, 542501.742922593140975 ], [ 213349.197030586510664, 542501.742964965989813 ], [ 213391.716675101954024, 542499.573683119378984 ], [ 213391.716672699520132, 542499.57363172469195 ] ] ], [ [ [ 213041.768902030948084, 541608.958148004254326 ], [ 212997.979313276795438, 541605.207469012937509 ], [ 212991.199376939854119, 541604.62736387969926 ], [ 212981.049449279671535, 541605.177195050520822 ], [ 212949.56967357773101, 541606.886671407264657 ], [ 212949.384125881828368, 541606.942611330072396 ], [ 212980.844449997763149, 541605.234191272058524 ], [ 212990.994377656839788, 541604.68436010053847 ], [ 212997.774313994450495, 541605.264465231564827 ], [ 213041.563902746449457, 541609.015144224278629 ], [ 213048.67383595983847, 541609.625254461774603 ], [ 213053.67379982676357, 541609.385337383602746 ], [ 213159.873032245610375, 541604.297098572249524 ], [ 213160.058870873006526, 541604.241020380752161 ], [ 213053.878799107973464, 541609.328341161366552 ], [ 213048.878835240728222, 541609.568258243845776 ], [ 213041.768902030948084, 541608.958148004254326 ] ] ], [ [ [ 213236.92759503054549, 541597.588507258682512 ], [ 213228.316695340909064, 541598.001328315585852 ], [ 213228.314584412408294, 541597.95725845254492 ], [ 213211.807706756808329, 541598.730984700960107 ], [ 213171.907994666486047, 541600.670322763267905 ], [ 213171.722208499297267, 541600.726385124609806 ], [ 213211.602707473677583, 541598.787980920285918 ], [ 213228.316592903953278, 541598.004396555013955 ], [ 213228.316593352414202, 541598.004405915271491 ], [ 213238.472512837703107, 541597.528426323435269 ], [ 213253.641383011417929, 541596.7873885150766 ], [ 213236.92759503054549, 541597.588507258682512 ] ] ], [ [ [ 213219.40527234779438, 541411.957512460532598 ], [ 213219.319671530392952, 541411.961612484767102 ], [ 213228.314295765216229, 541597.951232363353483 ], [ 213219.40527234779438, 541411.957512460532598 ] ] ], [ [ [ 213310.92609009379521, 541595.396899679442868 ], [ 213331.011796082544606, 541596.059937186539173 ], [ 213586.949946936219931, 541583.794182317564264 ], [ 213587.138227068237029, 541583.737987357424572 ], [ 213331.216795364511199, 541596.002940967795439 ], [ 213310.923051040561404, 541595.333456067019142 ], [ 213310.92609009379521, 541595.396899679442868 ] ] ], [ [ [ 213675.409355865675025, 541576.595673520700075 ], [ 213675.407084692531498, 541576.548515032976866 ], [ 213641.494601868325844, 541578.158111450145952 ], [ 213601.10489357681945, 541580.097441448480822 ], [ 213599.014908678364009, 541580.197406782768667 ], [ 213598.826622282387689, 541580.253603612422012 ], [ 213600.899894293223042, 541580.154437667806633 ], [ 213641.289602587843547, 541578.215107670170255 ], [ 213675.409355865675025, 541576.595673520700075 ] ] ], [ [ [ 213700.077428002638044, 541374.770700024091639 ], [ 213672.037547308718786, 541381.250193536398001 ], [ 213670.15755683608586, 541381.590160340652801 ], [ 213668.267568391456734, 541381.810127949109301 ], [ 213666.077584123966517, 541381.920091584790498 ], [ 213666.081386223027948, 541381.966603454085998 ], [ 213668.062569106026785, 541381.867124169133604 ], [ 213669.952557554555824, 541381.647156560095027 ], [ 213671.832548025937285, 541381.307189756422304 ], [ 213699.872428718052106, 541374.827696244115941 ], [ 213701.342421334644314, 541374.557722233934328 ], [ 213702.812412493891316, 541374.377747499383986 ], [ 213704.302402033354156, 541374.28777236409951 ], [ 213705.79239027958829, 541374.277796584414318 ], [ 213707.282376903865952, 541374.367819996899925 ], [ 213708.76236215166864, 541374.54784252285026 ], [ 213709.992349558859132, 541374.717861077631824 ], [ 213712.462326239678077, 541374.937899319804274 ], [ 213714.942305107542779, 541375.017938853241503 ], [ 213717.43228632651153, 541374.947979755466804 ], [ 213719.902270136168227, 541374.728021544404328 ], [ 213722.362256292253733, 541374.368064298876561 ], [ 213724.792245119344443, 541373.858107777778059 ], [ 213727.192236289993161, 541373.218151816399768 ], [ 213727.226510022941511, 541373.206679447670467 ], [ 213724.997244401660282, 541373.801111557637341 ], [ 213722.567255576548632, 541374.311068080831319 ], [ 213720.107269421452656, 541374.671025325078517 ], [ 213717.637285611621337, 541374.890983536140993 ], [ 213715.147304393816739, 541374.960942633100785 ], [ 213712.66732552179019, 541374.880903100478463 ], [ 213710.197348842630163, 541374.660864860401489 ], [ 213708.967361433256883, 541374.490846302825958 ], [ 213707.487376186298206, 541374.310823776759207 ], [ 213705.997389562835451, 541374.220800363575108 ], [ 213704.507401317183394, 541374.230776144075207 ], [ 213703.017411778593669, 541374.3207512779627 ], [ 213701.54742061815341, 541374.500726013211533 ], [ 213700.077428002638044, 541374.770700024091639 ] ] ], [ [ [ 213761.727243519388139, 541355.721852328977548 ], [ 213760.527252467873041, 541355.761832565884106 ], [ 213759.327260442805709, 541355.861812318093143 ], [ 213758.137267044250621, 541356.041791588184424 ], [ 213756.967272355686873, 541356.291770618059672 ], [ 213756.78090044594137, 541356.344786946079694 ], [ 213757.932267762429547, 541356.098787808208726 ], [ 213759.122261161770439, 541355.918808536836877 ], [ 213760.32225318273413, 541355.818828784511425 ], [ 213761.522244233870879, 541355.778848546207882 ], [ 213762.732233911199728, 541355.818867828580551 ], [ 213763.922222772525856, 541355.918886302039027 ], [ 213797.181891492800787, 541359.949392666341737 ], [ 213798.221881393168587, 541360.059408628963865 ], [ 213800.311862084257882, 541360.219441197928973 ], [ 213802.401844562788028, 541360.269474658183753 ], [ 213804.491828496218659, 541360.229508840711787 ], [ 213806.581814210570883, 541360.079543908126652 ], [ 213808.661801464360906, 541359.839579540654086 ], [ 213810.731790416612057, 541359.499615817330778 ], [ 213812.77178107041982, 541359.06965233408846 ], [ 213814.801773581682937, 541358.529689574264921 ], [ 213814.857876422262052, 541358.512298691086471 ], [ 213812.976780352095375, 541359.012656113947742 ], [ 213810.936789702711394, 541359.442619597306475 ], [ 213808.866800747899106, 541359.782583321328275 ], [ 213806.786813493905356, 541360.02254768810235 ], [ 213804.696827781532193, 541360.172512619290501 ], [ 213802.60684384603519, 541360.212478436762467 ], [ 213800.51686136983335, 541360.162444978603162 ], [ 213798.426880674844142, 541360.002412407426164 ], [ 213797.38689077438903, 541359.892396447015926 ], [ 213764.127222055627499, 541355.861890082713217 ], [ 213762.93723319293349, 541355.761871608556248 ], [ 213761.727243519388139, 541355.721852328977548 ] ] ], [ [ [ 213513.488877806026721, 542305.867205589544028 ], [ 213512.349397831072565, 542304.756816863082349 ], [ 213513.488836303644348, 542305.867168235010467 ], [ 213515.698069879348623, 542308.016380202374421 ], [ 213513.488877806026721, 542305.867205589544028 ] ] ], [ [ [ 213133.39806879684329, 542666.528157432563603 ], [ 213136.321149806812173, 542671.95624543284066 ], [ 213133.398071923729731, 542666.528157282853499 ], [ 213133.39806879684329, 542666.528157432563603 ] ] ], [ [ [ 213492.203384589200141, 543003.166643020231277 ], [ 213498.394587803049944, 543007.437260954640806 ], [ 213492.204706607823027, 543003.167195097077638 ], [ 213492.203384589200141, 543003.166643020231277 ] ] ], [ [ [ 213426.970953545009252, 542958.480498525779694 ], [ 213434.748334833333502, 542963.845184688572772 ], [ 213434.747804295358947, 542963.844581267563626 ], [ 213426.970953545009252, 542958.480498525779694 ] ] ], [ [ [ 213186.581714004219975, 542725.795599493314512 ], [ 213191.679907500540139, 542735.262721794424579 ], [ 213186.581779243686469, 542725.795567697146907 ], [ 213186.581714004219975, 542725.795599493314512 ] ] ], [ [ [ 213169.735652273026062, 542734.006141983205453 ], [ 213178.590218339115381, 542729.690467871609144 ], [ 213169.735554790997412, 542734.006024120259099 ], [ 213169.735551796009531, 542734.006018558633514 ], [ 213150.145654534659116, 542743.553747434401885 ], [ 213169.735652273026062, 542734.006141983205453 ] ] ], [ [ [ 213140.972004011768149, 542726.521736296708696 ], [ 213139.8850454496569, 542724.501734993653372 ], [ 213124.827619147661608, 542696.540716756368056 ], [ 213140.972004011768149, 542726.521736296708696 ] ] ], [ [ [ 213367.631234150088858, 542529.009374539833516 ], [ 213367.634922819270287, 542529.011484116781503 ], [ 213350.776831012772163, 542517.572919685160741 ], [ 213350.775576647400158, 542517.572314062388614 ], [ 213350.77677349181613, 542517.573004453675821 ], [ 213367.631234150088858, 542529.009374539833516 ] ] ], [ [ [ 214132.565418139129179, 542466.948075955733657 ], [ 214132.56516545440536, 542466.948270990862511 ], [ 214137.014876461296808, 542484.158215301809832 ], [ 214134.700838567980099, 542489.531969070318155 ], [ 214134.701001427398296, 542489.531835930305533 ], [ 214137.015034857351566, 542484.157954387483187 ], [ 214132.565418139129179, 542466.948075955733657 ] ] ], [ [ [ 214113.841736717353342, 542502.825665087206289 ], [ 214113.841722534358269, 542502.825673436047509 ], [ 214104.14379535720218, 542515.36616748443339 ], [ 214104.143820418335963, 542515.366154146613553 ], [ 214113.841736717353342, 542502.825665087206289 ] ] ], [ [ [ 214062.243735681287944, 542603.790786968893372 ], [ 214070.780992961372249, 542591.89749132678844 ], [ 214062.243657990795327, 542603.790832001483068 ], [ 214062.243735681287944, 542603.790786968893372 ] ] ], [ [ [ 213975.610838163469452, 542679.403072361950763 ], [ 213954.735864256799687, 542677.620877881417982 ], [ 213955.112561572779668, 542676.556970985489897 ], [ 213954.735587145958561, 542677.621395227033645 ], [ 213975.610838163469452, 542679.403072361950763 ] ] ], [ [ [ 214259.323721872759052, 542746.594702218542807 ], [ 214255.227728820638731, 542748.188622947665863 ], [ 214250.92174899566453, 542749.070546018192545 ], [ 214248.920761188084725, 542749.30651166907046 ], [ 214242.794793597102398, 542750.332404065062292 ], [ 214236.796815416601021, 542751.948293780907989 ], [ 214230.285833546746289, 542754.045171295641921 ], [ 214224.361843670951203, 542756.346056680311449 ], [ 214218.748840279789874, 542759.326941623352468 ], [ 214213.524823431536788, 542762.945827727438882 ], [ 214207.518795175972627, 542767.654692358104512 ], [ 214203.823775540455244, 542770.690607955446467 ], [ 214200.272752061078791, 542773.892524545197375 ], [ 214190.39367988347658, 542783.223289090907201 ], [ 214186.137656261271331, 542786.782191370730288 ], [ 214181.483644530177116, 542789.804091531434096 ], [ 214176.499644910538336, 542792.241991050774232 ], [ 214167.477656207163818, 542796.000814446131699 ], [ 214164.2176621913095, 542797.241751578054391 ], [ 214160.885672088217689, 542798.276689201476984 ], [ 214100.463891152205179, 542815.005572784575634 ], [ 214100.463944723480381, 542815.005609739106148 ], [ 214160.885730682231952, 542798.276734125800431 ], [ 214164.217705887247575, 542797.241809928207658 ], [ 214167.477704789926065, 542796.000858878251165 ], [ 214176.499710340896854, 542792.242049401625991 ], [ 214181.483683836762793, 542789.804155740421265 ], [ 214186.137691415293375, 542786.782238733023405 ], [ 214190.393736279016593, 542783.223325953935273 ], [ 214200.27279209747212, 542773.892564585665241 ], [ 214203.823828273365507, 542770.690665327711031 ], [ 214207.518851572705898, 542767.654744361410849 ], [ 214213.524870552209904, 542762.945887544075958 ], [ 214218.748886909947032, 542759.326992164365947 ], [ 214224.361908855469665, 542756.34609818586614 ], [ 214230.285873829154298, 542754.045230620773509 ], [ 214236.796879383386113, 542751.94833015743643 ], [ 214242.794850482663605, 542750.33245704555884 ], [ 214248.920806354261003, 542749.306564159574918 ], [ 214250.921812958986266, 542749.070587032241747 ], [ 214255.227777404623339, 542748.188684961525723 ], [ 214259.323774603719357, 542746.594767159083858 ], [ 214263.091783799638506, 542744.332834542030469 ], [ 214266.425795741408365, 542741.467916595051065 ], [ 214269.229836228943896, 542738.082984482869506 ], [ 214273.979909062094521, 542731.245110314921476 ], [ 214273.97984966650256, 542731.245069056982175 ], [ 214269.229780567693524, 542738.082931504468434 ], [ 214266.425748136040056, 542741.467858730698936 ], [ 214263.091728379193228, 542744.33278156153392 ], [ 214259.323721872759052, 542746.594702218542807 ] ] ], [ [ [ 213951.988987964752596, 542758.596622607554309 ], [ 213941.709077497303952, 542758.151459544315003 ], [ 213931.421193826128729, 542758.294291104422882 ], [ 213931.421195647213608, 542758.29433457844425 ], [ 213941.709128032787703, 542758.151499828323722 ], [ 213951.989053148776293, 542758.596666551777162 ], [ 213962.22595419982099, 542759.628815391450189 ], [ 213972.387840287468862, 542761.244981007417664 ], [ 214016.384358253591927, 542769.534628125955351 ], [ 214024.532237941690255, 542771.365742273395881 ], [ 214032.532135090063093, 542773.758855346939526 ], [ 214040.34702602768084, 542776.701954878168181 ], [ 214047.937910541222664, 542780.182040100335144 ], [ 214055.267795550636947, 542784.182126662344672 ], [ 214062.302652860642411, 542788.681216132012196 ], [ 214092.315287033939967, 542809.384508829796687 ], [ 214062.302616973116528, 542788.681168281123973 ], [ 214055.267746235331288, 542784.182090529357083 ], [ 214047.937869770656107, 542780.182003968046047 ], [ 214040.346986965858378, 542776.701908981660381 ], [ 214032.532097251416417, 542773.75880602945108 ], [ 214024.532200100715272, 542771.365695641143247 ], [ 214016.384295024210587, 542769.534578320686705 ], [ 213972.387781692377757, 542761.24493193498347 ], [ 213962.225889262161218, 542759.628780234837905 ], [ 213951.988987964752596, 542758.596622607554309 ] ] ], [ [ [ 213912.004556661733659, 542748.446180818951689 ], [ 213914.776374421955552, 542745.902597546461038 ], [ 213912.003762328677112, 542748.446362299728207 ], [ 213910.851608333119657, 542748.986015535308979 ], [ 213912.004556661733659, 542748.446180818951689 ] ] ], [ [ [ 214010.648780862014974, 543362.396761303651147 ], [ 214075.977579255151795, 543267.692000411683694 ], [ 214075.977466507203644, 543267.691922638099641 ], [ 214010.648775692330673, 543362.396755172754638 ], [ 214010.648780862014974, 543362.396761303651147 ] ] ], [ [ [ 214018.547476030944381, 543368.991849651327357 ], [ 214016.08573374140542, 543367.142825635382906 ], [ 214014.444715350284241, 543365.865831795614213 ], [ 214011.911171108105918, 543363.893896078225225 ], [ 214013.445653065718943, 543365.713718677987345 ], [ 214015.514596974244341, 543368.150732552399859 ], [ 214017.913480704213725, 543369.977705350960605 ], [ 214018.53222161004669, 543369.013414520770311 ], [ 214018.547447805700358, 543368.991829795064405 ], [ 214019.427646249270765, 543369.652869326178916 ], [ 214018.547476030944381, 543368.991849651327357 ] ] ], [ [ [ 214037.181871275504818, 543344.984350049169734 ], [ 214031.783066923322622, 543351.455828906851821 ], [ 214031.541059752868023, 543351.746411015628837 ], [ 214028.920771627366776, 543356.055171629181132 ], [ 214031.541209100367269, 543351.746535158134066 ], [ 214031.752370547619648, 543351.492746011121199 ], [ 214031.783079273445765, 543351.455839175963774 ], [ 214037.181871275504818, 543344.984350049169734 ] ] ], [ [ [ 214038.269906485860702, 543343.6526399764698 ], [ 214039.42929578825715, 543342.258691096445546 ], [ 214039.312938984658103, 543342.375396882998757 ], [ 214038.269906485860702, 543343.6526399764698 ] ] ], [ [ [ 214048.683144935988821, 543332.815756747731939 ], [ 214051.523003900365438, 543329.929711473640054 ], [ 214048.683014038571855, 543332.815628449199721 ], [ 214047.288953221781412, 543334.238437897758558 ], [ 214048.683144935988821, 543332.815756747731939 ] ] ], [ [ [ 214054.960462210001424, 543327.038188998121768 ], [ 214053.741040904482361, 543327.635759615572169 ], [ 214053.364267349330476, 543328.039986081770621 ], [ 214053.316049123823177, 543328.091742696473375 ], [ 214053.364300708344672, 543328.040018778294325 ], [ 214053.73261004712549, 543327.664319169474766 ], [ 214054.960500941582723, 543327.038264976115897 ], [ 214056.034070542256813, 543326.511843471322209 ], [ 214054.960462210001424, 543327.038188998121768 ] ] ], [ [ [ 214061.906956560822437, 543323.826667684013955 ], [ 214063.113049469771795, 543323.048973523662426 ], [ 214061.906869768397883, 543323.826535578700714 ], [ 214061.70035156866652, 543323.959497112547979 ], [ 214061.712706269405317, 543323.954478525673039 ], [ 214061.906956560822437, 543323.826667684013955 ] ] ], [ [ [ 214068.292079510516487, 543319.631299456348643 ], [ 214065.300067065167241, 543321.606027476373129 ], [ 214068.292206955200527, 543319.631493438966572 ], [ 214070.358063869411126, 543318.280147577635944 ], [ 214068.292079510516487, 543319.631299456348643 ] ] ], [ [ [ 214070.950146544579184, 543317.88529461401049 ], [ 214072.762635457300348, 543316.694716324331239 ], [ 214072.813913324120222, 543316.657558686449192 ], [ 214070.950045513163786, 543317.885140834725462 ], [ 214070.358063869411126, 543318.280147577635944 ], [ 214070.950146544579184, 543317.88529461401049 ] ] ], [ [ [ 214111.501826042047469, 543262.571242522564717 ], [ 214116.718994494643994, 543251.861345350975171 ], [ 214111.501642936491407, 543262.571242520352826 ], [ 214100.399428489647107, 543285.362625456415117 ], [ 214111.501826042047469, 543262.571242522564717 ] ] ], [ [ [ 214119.406511387613136, 543242.236146673560143 ], [ 214119.44490320640034, 543242.173525730962865 ], [ 214118.023876687075244, 543243.246492073871195 ], [ 214118.02397421922069, 543243.246714176260866 ], [ 214119.406511387613136, 543242.236146673560143 ] ] ], [ [ [ 214140.822182292555226, 543215.274126139935106 ], [ 214124.572181982599432, 543223.320794748724438 ], [ 214124.556983025395311, 543223.402580949361436 ], [ 214121.73797502394882, 543238.448617397109047 ], [ 214124.557166124955984, 543223.402764057391323 ], [ 214141.223791820462793, 543215.186731014866382 ], [ 214144.033773031493183, 543214.806774763972498 ], [ 214154.804063788149506, 543215.344298594980501 ], [ 214155.825050747138448, 543215.403335671755485 ], [ 214154.804063794144895, 543215.343932388117537 ], [ 214153.505064195342129, 543215.268289374420419 ], [ 214143.978172630944755, 543214.672131393454038 ], [ 214141.259194271784509, 543215.04207943577785 ], [ 214140.822182292555226, 543215.274126139935106 ] ] ], [ [ [ 214148.374863220524276, 543162.741545193828642 ], [ 214101.45576380181592, 543130.375045612221584 ], [ 214099.751737403334118, 543132.844998043496162 ], [ 214075.881195583584486, 543116.377743893535808 ], [ 214040.675650135613978, 543167.412761095329188 ], [ 214006.039113488688599, 543217.624794130795635 ], [ 214005.187100291397655, 543218.859770346898586 ], [ 214005.187217151047662, 543218.859850957291201 ], [ 214006.039044144796208, 543217.625315122539178 ], [ 214040.675750227790559, 543167.413086289539933 ], [ 214075.881068625370972, 543116.378241445170715 ], [ 214099.751643159193918, 543132.845475577516481 ], [ 214101.455649050301872, 543130.375552441575564 ], [ 214148.374826786777703, 543162.741733118193224 ], [ 214148.374919371271972, 543162.741598903667182 ], [ 214169.933485553454375, 543177.612814308842644 ], [ 214171.369478271284606, 543178.436848762561567 ], [ 214172.922445751319174, 543179.012863684794866 ], [ 214174.549434739659773, 543179.324893407640047 ], [ 214176.205423773964867, 543179.363920679665171 ], [ 214177.844402981572784, 543179.128925960627384 ], [ 214178.339742526150076, 543178.971093030413613 ], [ 214177.844361476047197, 543179.128890801221132 ], [ 214176.205370795360068, 543179.363862328114919 ], [ 214174.549384691927116, 543179.324835791136138 ], [ 214172.922402782074641, 543179.012811923748814 ], [ 214171.369424559612526, 543178.436791390995495 ], [ 214169.933449422358535, 543177.6127747555729 ], [ 214148.374863220524276, 543162.741545193828642 ] ] ], [ [ [ 214214.218850595469121, 543160.146305748494342 ], [ 214215.73012641488458, 543158.507130382815376 ], [ 214214.233499234862393, 543160.126713857869618 ], [ 214214.218667494424153, 543160.146305745700374 ], [ 214214.167977824865375, 543160.21341159613803 ], [ 214214.218850595469121, 543160.146305748494342 ] ] ], [ [ [ 213245.299052465736168, 542736.29639124928508 ], [ 213245.299035150994314, 542736.296395026263781 ], [ 213260.348438200540841, 542764.126367232296616 ], [ 213260.348444880539319, 542764.126363620045595 ], [ 213245.299052465736168, 542736.29639124928508 ] ] ], [ [ [ 213617.406039390160004, 542800.694905001902953 ], [ 213617.405978590337327, 542800.694893238483928 ], [ 213612.912644753028871, 542823.920598791795783 ], [ 213612.912721474393038, 542823.920584078761749 ], [ 213617.406039390160004, 542800.694905001902953 ] ] ], [ [ [ 213632.150412688322831, 542820.817952485987917 ], [ 213632.150104422384175, 542820.817974484758452 ], [ 213629.922303853469202, 542821.110002010711469 ], [ 213632.150412688322831, 542820.817952485987917 ] ] ], [ [ [ 213751.0982758080645, 542812.376974175334908 ], [ 213743.475796098064166, 542813.674161633243784 ], [ 213751.098725022486178, 542812.376931948238052 ], [ 213759.292765012418386, 542810.631706747924909 ], [ 213751.0982758080645, 542812.376974175334908 ] ] ], [ [ [ 214354.0592977971246, 542790.891925646341406 ], [ 214353.70933931574109, 542789.256928279763088 ], [ 214353.093355523946229, 542787.702953286003321 ], [ 214352.225395163084613, 542786.273942683939822 ], [ 214351.132415650499752, 542785.007939570699818 ], [ 214351.132412405015202, 542785.00793688709382 ], [ 214352.225334862188902, 542786.273888484807685 ], [ 214353.093304744950728, 542787.702891031978652 ], [ 214353.709274617489427, 542789.256888483650982 ], [ 214354.059245306794764, 542790.891880968469195 ], [ 214354.13021764633595, 542792.562868640758097 ], [ 214353.923192408372415, 542794.221851899521425 ], [ 214346.399674924614374, 542829.853442458901554 ], [ 214346.03965707149473, 542831.132426302763633 ], [ 214345.512641509470996, 542832.35240791621618 ], [ 214344.828628501592902, 542833.492387627833523 ], [ 214328.880383923184127, 542856.451943795778789 ], [ 214327.349351121898508, 542859.230896547669545 ], [ 214326.276311283028917, 542862.217855050810613 ], [ 214325.690265404526144, 542865.336820384603925 ], [ 214325.604214666207554, 542868.508793398854323 ], [ 214326.02116032099002, 542871.65477477828972 ], [ 214326.931103730254108, 542874.695764999371022 ], [ 214353.709770067944191, 542943.726642295136116 ], [ 214357.02860476859496, 542952.282627083943225 ], [ 214358.292551534221275, 542954.941626126528718 ], [ 214359.933498768135905, 542957.385633015655912 ], [ 214379.341941815859172, 542982.15074793912936 ], [ 214379.341949109948473, 542982.150745109422132 ], [ 214359.933558334509144, 542957.385675251251087 ], [ 214358.292615496466169, 542954.941683497978374 ], [ 214357.028649687592406, 542952.282686164835468 ], [ 214353.709830128820613, 542943.726686240755953 ], [ 214326.931149137788452, 542874.695806017029099 ], [ 214326.021219155809376, 542871.654838500893675 ], [ 214325.604277409613132, 542868.508828555350192 ], [ 214325.690327418560628, 542865.336857007583603 ], [ 214326.276372562919278, 542862.217912913067266 ], [ 214327.349411424715072, 542859.230954654281959 ], [ 214328.880447153380373, 542856.452006051898934 ], [ 214344.828690753842238, 542833.492438897490501 ], [ 214345.512683743523667, 542832.352451859042048 ], [ 214346.039718590996927, 542831.132484897971153 ], [ 214346.399729123164434, 542829.853505202103406 ], [ 214353.9232517319615, 542794.221905123558827 ], [ 214354.130262080521788, 542792.562923570745625 ], [ 214354.0592977971246, 542790.891925646341406 ] ] ], [ [ [ 214462.714186542405514, 543051.641584000200965 ], [ 214462.826442788616987, 543035.768720966996625 ], [ 214451.933120658446569, 542999.900843212148175 ], [ 214444.476570894039469, 542976.734901377698407 ], [ 214440.099831882194849, 542962.363929984276183 ], [ 214440.09979059419129, 542962.363940077950247 ], [ 214444.476508149964502, 542976.734847910702229 ], [ 214451.933072809741134, 542999.900781934033148 ], [ 214462.826403972314438, 543035.768669209443033 ], [ 214462.714147477585357, 543051.641539321048185 ], [ 214411.712226174247917, 543071.971548159956001 ], [ 214410.391228902502917, 543072.455522830132395 ], [ 214387.082399845094187, 543076.008109772577882 ], [ 214387.082417990604881, 543076.008151314686984 ], [ 214410.391268939769361, 543072.45556873024907 ], [ 214411.712288672977593, 543071.971589666092768 ], [ 214462.714186542405514, 543051.641584000200965 ] ] ], [ [ [ 214365.516271283151582, 543094.470658943406306 ], [ 214373.767410029860912, 543082.998892890522256 ], [ 214342.666818725963822, 543011.796949882525951 ], [ 214346.765803057933226, 543010.709049302502535 ], [ 214350.772772466531023, 543009.322113508125767 ], [ 214356.913729401188903, 543006.940207025036216 ], [ 214356.913719438598491, 543006.940184216713533 ], [ 214350.772729988530045, 543009.3220654114848 ], [ 214346.765739582217066, 543010.70898924220819 ], [ 214342.66675476077944, 543011.796913993079215 ], [ 214373.767351191898342, 543082.99884381738957 ], [ 214365.516231242654612, 543094.470617438666523 ], [ 214353.968102445884142, 543108.116320046945475 ], [ 214350.501058019901393, 543112.568227896466851 ], [ 214314.500071540591307, 543129.513507319730707 ], [ 214305.080117451521801, 543131.334339862922207 ], [ 214264.108548685384449, 543124.974726761574857 ], [ 214257.57261748611927, 543123.959628961863928 ], [ 214251.571675114042591, 543123.369536411133595 ], [ 214245.541722076624865, 543123.451437965151854 ], [ 214239.559757775248727, 543124.204334884649143 ], [ 214233.697781749157002, 543125.621228389209136 ], [ 214228.030793731712038, 543127.681119868182577 ], [ 214222.629793533385964, 543130.361010656226426 ], [ 214217.559781200310681, 543133.625902088358998 ], [ 214212.885756842821138, 543137.436795536545105 ], [ 214208.666720798268216, 543141.743692361167632 ], [ 214204.952673510066234, 543146.494593789917417 ], [ 214201.792615542188287, 543151.630501094623469 ], [ 214192.067547116806963, 543160.654270560247824 ], [ 214184.307387686858419, 543174.320034422911704 ], [ 214183.37237300875131, 543175.687008227338083 ], [ 214182.225362820434384, 543176.881979981902987 ], [ 214180.896357445162721, 543177.869950455613434 ], [ 214180.503262909245677, 543178.071693557198159 ], [ 214180.896399923862191, 543177.869999529444613 ], [ 214182.225425563054159, 543176.882041017175652 ], [ 214183.372422080225078, 543175.687065600999631 ], [ 214184.307435537921265, 543174.320089599234052 ], [ 214192.06759984861128, 543160.65431792405434 ], [ 214201.792656068340875, 543151.630555049516261 ], [ 214204.95273112464929, 543146.494654581649229 ], [ 214208.666773041943088, 543141.743734351708554 ], [ 214212.885806157952175, 543137.436834113206714 ], [ 214217.55983613038552, 543133.625953603768721 ], [ 214222.629852128244238, 543130.361054843408056 ], [ 214228.030852813099045, 543127.6811677190708 ], [ 214233.697836921870476, 543125.621277463040315 ], [ 214239.55981270497432, 543124.204387863050215 ], [ 214245.541774320503464, 543123.451495583867654 ], [ 214251.571711490600137, 543123.3695784030715 ], [ 214257.572672663605772, 543123.95968438393902 ], [ 214264.10860923078144, 543124.974789504776709 ], [ 214305.0801704308833, 543131.334376486600377 ], [ 214314.500115972856293, 543129.513551998999901 ], [ 214350.501121250912547, 543112.568280630512163 ], [ 214353.968155667651445, 543108.116359598003328 ], [ 214365.516271283151582, 543094.470658943406306 ] ] ], [ [ [ 214518.719483185937861, 543054.701470518251881 ], [ 214518.731123122299323, 543054.663753005443141 ], [ 214519.773588853277033, 543051.294168193824589 ], [ 214525.514427831280045, 543045.050537256989628 ], [ 214519.780791764700552, 543051.243570573744364 ], [ 214518.719483185937861, 543054.701470518251881 ] ] ], [ [ [ 214541.793563250801526, 543031.914676786400378 ], [ 214541.808334106492111, 543031.886051765177399 ], [ 214539.412755207886221, 543033.688427572837099 ], [ 214541.793563250801526, 543031.914676786400378 ] ] ], [ [ [ 214060.101208337960998, 542817.535937846056186 ], [ 214060.101162416569423, 542817.535906168981455 ], [ 214058.398140430013882, 542820.005852219066583 ], [ 214058.398192774009658, 542820.005888326792046 ], [ 214060.101208337960998, 542817.535937846056186 ] ] ], [ [ [ 214407.07790098755504, 543097.711949876160361 ], [ 214398.859179380757269, 543098.518205589265563 ], [ 214394.483491319610039, 543098.763699652045034 ], [ 214398.859161418513395, 543098.518265509977937 ], [ 214407.07790098755504, 543097.711949876160361 ] ] ], [ [ [ 214417.859756215184461, 543102.467618033057079 ], [ 214419.362627404305385, 543097.832142274128273 ], [ 214418.666423393267905, 543097.016096817911603 ], [ 214419.362508370453725, 543097.832103560678661 ], [ 214417.859756215184461, 543102.467618033057079 ] ] ], [ [ [ 214128.415406849788269, 543242.516258764197119 ], [ 214127.64112467461382, 543243.754130015149713 ], [ 214128.415492403612006, 543242.516217611380853 ], [ 214130.776658959541237, 543240.40908320620656 ], [ 214128.415406849788269, 543242.516258764197119 ] ] ], [ [ [ 214010.800022996321786, 543384.060042034019716 ], [ 214009.464391212532064, 543383.830507843755186 ], [ 214009.458165437477874, 543383.893834790331312 ], [ 214010.768038563546725, 543384.139166490873322 ], [ 214010.800022996321786, 543384.060042034019716 ] ] ] ] } }
]
}
