{
  "type": "FeatureCollection",
  "name": "pangyo_boundary",
  "crs": {
    "type": "name",
    "properties": {
      "name": "urn:ogc:def:crs:EPSG::5186"
    }
  },
  "features": [
    {
      "type": "Feature",
      "properties": {
        "name": "제1판교테크노밸리 사용자 보정 분석경계",
        "display_name": "판교 제1테크노밸리",
        "area_name": "pangyo_1st_technovalley",
        "boundary_version": "user_drawn_refined2",
        "source": "manual user-drawn boundary based on dashboard editor, second draft",
        "area_sqm": 860504.888
      },
      "geometry": {
        "type": "Polygon",
        "coordinates": [
          [
            [
              209543.06940919594,
              533389.5039964889
            ],
            [
              209543.17421879078,
              533297.7679268299
            ],
            [
              209712.58502912405,
              533295.8543071166
            ],
            [
              209714.59226165706,
              533390.7561596668
            ],
            [
              209998.42527378607,
              533391.9779197173
            ],
            [
              210001.0839037428,
              533757.3572192466
            ],
            [
              209954.43602365768,
              533931.5047717365
            ],
            [
              209890.83756256715,
              534042.4241058653
            ],
            [
              209849.06641328585,
              534022.3340988016
            ],
            [
              209837.93695726705,
              534011.4245213252
            ],
            [
              209817.32690522625,
              534004.940503831
            ],
            [
              209787.44179674916,
              534005.8282481581
            ],
            [
              209761.01674969273,
              534019.4089552102
            ],
            [
              209740.39428004948,
              534023.5375740144
            ],
            [
              209714.23483854553,
              534008.0498277587
            ],
            [
              209701.26863301746,
              534002.2671076796
            ],
            [
              209686.71852657944,
              533963.9529401386
            ],
            [
              209651.53203146052,
              533941.5335901842
            ],
            [
              209606.14481141546,
              533925.5624178862
            ],
            [
              209585.28046423526,
              533938.458085355
            ],
            [
              209573.67784481694,
              533955.5171286685
            ],
            [
              209556.0737602195,
              533953.6513078602
            ],
            [
              209534.11447288955,
              533911.1759624288
            ],
            [
              209499.1361790621,
              533908.8290181819
            ],
            [
              209455.56051765278,
              533929.3125978912
            ],
            [
              209435.14956970495,
              533951.2067379527
            ],
            [
              209433.50292694735,
              533973.3527526931
            ],
            [
              209417.26175279706,
              533995.4822387719
            ],
            [
              209397.3322974906,
              534001.4581453848
            ],
            [
              209362.1190650263,
              534002.3414179677
            ],
            [
              209341.74415531007,
              533992.3982402924
            ],
            [
              209326.2420383819,
              533975.3086376957
            ],
            [
              209307.05200672496,
              533970.5781102363
            ],
            [
              209281.1050556405,
              533971.472060352
            ],
            [
              209251.20711165917,
              533983.8970419829
            ],
            [
              209233.58439547734,
              533998.8734419623
            ],
            [
              209202.27683763774,
              534029.2920216421
            ],
            [
              209194.61407490756,
              534045.6636322067
            ],
            [
              209190.8816484621,
              534069.191372033
            ],
            [
              209193.18044313107,
              534085.3431722007
            ],
            [
              209197.56769392127,
              534098.2673967485
            ],
            [
              209205.87324777167,
              534129.1907315186
            ],
            [
              209208.6304732046,
              534149.7262631173
            ],
            [
              209219.27285272325,
              534162.1958977291
            ],
            [
              209221.11564565066,
              534171.6566898889
            ],
            [
              209225.95617506912,
              534193.5786288551
            ],
            [
              209233.53060431397,
              534209.7786684663
            ],
            [
              209081.842460779,
              534201.9045398288
            ],
            [
              208976.5885220579,
              534197.1660612433
            ],
            [
              208840.39225100676,
              534176.9805036285
            ],
            [
              208696.4749258027,
              534138.290290752
            ],
            [
              208619.1051343115,
              534112.0033918334
            ],
            [
              208600.6155696797,
              534028.7390306052
            ],
            [
              208583.67994474096,
              533939.3090736676
            ],
            [
              208583.7338186362,
              533886.8944448321
            ],
            [
              208599.25809903978,
              533843.7451364709
            ],
            [
              208664.34091096197,
              533779.0640695355
            ],
            [
              208727.87027131446,
              533720.547962754
            ],
            [
              208792.9453010622,
              533665.1168647704
            ],
            [
              208834.78599527327,
              533623.5362613006
            ],
            [
              208885.95799124998,
              533541.8820890565
            ],
            [
              208912.31921393247,
              533500.284807332
            ],
            [
              208938.7153466762,
              533426.3118501474
            ],
            [
              208961.98765919695,
              533378.5440233363
            ],
            [
              209543.06940919594,
              533389.5039964889
            ]
          ]
        ]
      }
    }
  ]
}
