{
"type": "FeatureCollection",
"name": "wirye_final_selected_parcels_4326",
"crs": { "type": "name", "properties": { "name": "urn:ogc:def:crs:OGC:1.3:CRS84" } },
"features": [
{ "type": "Feature", "properties": { "zoneCode": "11710KL2006001", "zoneName": "위례 택지개발사업 예정지구", "blockName": "업무2-2", "blockType": "업무시설", "lotName": "업무2-2", "parcel_id": "업무2-2", "area_sqm": 17921.980129089992 }, "geometry": { "type": "Polygon", "coordinates": [ [ [ 127.142669638003923, 37.463786592531704 ], [ 127.142669705377557, 37.463786556167342 ], [ 127.143204431143729, 37.463502857900494 ], [ 127.142443247280951, 37.462591140564399 ], [ 127.142309945377647, 37.462571117019337 ], [ 127.141157600005883, 37.463213871422198 ], [ 127.14115753353056, 37.463213909212932 ], [ 127.141136901025078, 37.463302501295871 ], [ 127.141887313189287, 37.464201355580727 ], [ 127.14188737966461, 37.464201319929586 ], [ 127.142669638003923, 37.463786592531704 ] ] ] } },
{ "type": "Feature", "properties": { "zoneCode": "11710KL2006001", "zoneName": "위례 택지개발사업 예정지구", "blockName": "일상3", "blockType": "일반상업", "lotName": "1-1", "parcel_id": "일상3-1-1", "area_sqm": 2784.6229623286936 }, "geometry": { "type": "Polygon", "coordinates": [ [ [ 127.141734226790149, 37.464725472688727 ], [ 127.141209966397071, 37.465004242232794 ], [ 127.14120991339648, 37.465004272179435 ], [ 127.141483515079187, 37.465332233550065 ], [ 127.141594322269469, 37.465350122310717 ], [ 127.14159436808356, 37.465350097355298 ], [ 127.141986170989668, 37.465142336059706 ], [ 127.142008499514361, 37.465054011398337 ], [ 127.141734226790149, 37.464725472688727 ] ] ] } },
{ "type": "Feature", "properties": { "zoneCode": "11710KL2006001", "zoneName": "위례 택지개발사업 예정지구", "blockName": "지원2", "blockType": "도시지원시설용지", "lotName": "지원2", "parcel_id": "지원2", "area_sqm": 49348.995718153332 }, "geometry": { "type": "Polygon", "coordinates": [ [ [ 127.135992261969378, 37.466353871788009 ], [ 127.135741237644694, 37.465971360683717 ], [ 127.13519077878469, 37.466201610673806 ], [ 127.135052190295895, 37.466263393861979 ], [ 127.134917908330593, 37.46633067211085 ], [ 127.134788157467597, 37.466403529539797 ], [ 127.134663275473429, 37.466481607492916 ], [ 127.134543602809586, 37.466564724138721 ], [ 127.134429476344309, 37.46665260852059 ], [ 127.134321236539122, 37.466745175061803 ], [ 127.134219220262182, 37.466842055838164 ], [ 127.134123541599607, 37.46694298488508 ], [ 127.134034652403898, 37.46704778108522 ], [ 127.133952664066243, 37.467156085785867 ], [ 127.133877802962033, 37.467267621617282 ], [ 127.133609448338902, 37.467693603498802 ], [ 127.13354350660714, 37.467798279577579 ], [ 127.133459674926499, 37.467931348812435 ], [ 127.133396016712211, 37.468032393318495 ], [ 127.133398368501645, 37.468033002921885 ], [ 127.133853361599805, 37.468151264461611 ], [ 127.134250429531789, 37.468254434789685 ], [ 127.135053152391606, 37.468329574743287 ], [ 127.135912526606447, 37.46834986268891 ], [ 127.136485394839553, 37.468337048237025 ], [ 127.136568206034013, 37.468247934511368 ], [ 127.136607347427585, 37.468246648287518 ], [ 127.13656912501051, 37.467627770994845 ], [ 127.13656542125662, 37.46757984448481 ], [ 127.136560361944944, 37.467532006354951 ], [ 127.136553832989478, 37.467484168907497 ], [ 127.136545721202438, 37.467436606644355 ], [ 127.136536367045423, 37.46738913490104 ], [ 127.136525430056778, 37.467341934777934 ], [ 127.136513137510448, 37.467294916438327 ], [ 127.136499375320312, 37.467248170432804 ], [ 127.136484257572377, 37.467201603359683 ], [ 127.136467671078975, 37.4671554925742 ], [ 127.136449728129506, 37.467109562148082 ], [ 127.136430429622237, 37.467064083733014 ], [ 127.136420103488049, 37.46704174842727 ], [ 127.136304192070313, 37.466890244491225 ], [ 127.136256010930026, 37.466812632552632 ], [ 127.136066495151212, 37.466524797529758 ], [ 127.135992261969378, 37.466353871788009 ] ] ] } },
{ "type": "Feature", "properties": { "zoneCode": "11710KL2006001", "zoneName": "위례 택지개발사업 예정지구", "blockName": "업무1", "blockType": "업무시설", "lotName": "업무1", "parcel_id": "업무1", "area_sqm": 30004.832778457552 }, "geometry": { "type": "Polygon", "coordinates": [ [ [ 127.139306667177053, 37.486951445798361 ], [ 127.139306632142763, 37.48695136097448 ], [ 127.138687381196604, 37.485463353028599 ], [ 127.137405071162803, 37.485513760088821 ], [ 127.137271258118048, 37.485546078613012 ], [ 127.136936833304105, 37.485559257216288 ], [ 127.136849804519386, 37.485642158760655 ], [ 127.136884103993552, 37.485852323005126 ], [ 127.136952319361285, 37.486248324279337 ], [ 127.136978589693456, 37.486385499961052 ], [ 127.137001846177853, 37.486506948661152 ], [ 127.137027997932421, 37.48664350657549 ], [ 127.137111023824218, 37.487037779380238 ], [ 127.137111064248401, 37.487037776529029 ], [ 127.139306667177053, 37.486951445798361 ] ] ] } },
{ "type": "Feature", "properties": { "zoneCode": "11710KL2006001", "zoneName": "위례 택지개발사업 예정지구", "blockName": "E1-2", "blockType": "복합용지", "lotName": "E1-2", "parcel_id": "E1-2", "area_sqm": 99444.27110683854 }, "geometry": { "type": "Polygon", "coordinates": [ [ [ 127.131456478555322, 37.470311666407248 ], [ 127.131410801019783, 37.470343498848258 ], [ 127.131356942526921, 37.470379688199145 ], [ 127.131322840682088, 37.470401889896301 ], [ 127.1312638959281, 37.470438986108498 ], [ 127.13120709455437, 37.470473466440481 ], [ 127.131149499968259, 37.470507227377084 ], [ 127.131091226255748, 37.470540087826798 ], [ 127.130972638756788, 37.47060337819569 ], [ 127.130912212680869, 37.470633808117 ], [ 127.130851219768047, 37.470663337555713 ], [ 127.130789546830528, 37.470692057059033 ], [ 127.130727307954359, 37.470719965914853 ], [ 127.130664500444666, 37.470746975004062 ], [ 127.130601014706897, 37.470773082901708 ], [ 127.130536962132211, 37.470798291034619 ], [ 127.130472455009965, 37.470822598690809 ], [ 127.130407381949084, 37.470846005158172 ], [ 127.130335866171023, 37.470870410474276 ], [ 127.130241414607099, 37.470901687995209 ], [ 127.130071490186253, 37.470957374355535 ], [ 127.129960090107886, 37.470993535603846 ], [ 127.129882921231712, 37.471017406153301 ], [ 127.129805297808005, 37.471040195851209 ], [ 127.129727108445692, 37.471061904698523 ], [ 127.129648576825232, 37.471082532696229 ], [ 127.129551398874412, 37.471106334773395 ], [ 127.129541855172832, 37.471078413228568 ], [ 127.129461736229288, 37.471095800118263 ], [ 127.12947162039238, 37.471124530862703 ], [ 127.129311378911979, 37.471157500836362 ], [ 127.129149771992374, 37.471186056882779 ], [ 127.128987027805621, 37.471210019342088 ], [ 127.12882337182883, 37.471229567170667 ], [ 127.128658915453116, 37.471244430874677 ], [ 127.128586688209353, 37.471249463629484 ], [ 127.127478346811785, 37.471290114216551 ], [ 127.12721226043476, 37.471303462165707 ], [ 127.127204696620041, 37.471309237102915 ], [ 127.127167006903989, 37.471349551142829 ], [ 127.127135538919603, 37.47139229205775 ], [ 127.127110292666856, 37.47143754967577 ], [ 127.127091832287761, 37.471484871979776 ], [ 127.127080156884006, 37.471533538883243 ], [ 127.127076042599995, 37.471574808871694 ], [ 127.127122389380446, 37.471708828877546 ], [ 127.127167931270378, 37.472509411230298 ], [ 127.127195264309577, 37.472967541766401 ], [ 127.127162877348638, 37.473069750109708 ], [ 127.127162883636842, 37.473069822116464 ], [ 127.127163339082685, 37.473075604759536 ], [ 127.127295049171323, 37.473216111227181 ], [ 127.127365698075153, 37.473279737262082 ], [ 127.127435434290661, 37.473338498168893 ], [ 127.127506634760081, 37.473394014461043 ], [ 127.127579412671139, 37.473445923974886 ], [ 127.127653879414936, 37.473493958654636 ], [ 127.12771464595231, 37.473529303079268 ], [ 127.127780384664845, 37.4735636508059 ], [ 127.127851207841829, 37.473596101401121 ], [ 127.127867949743774, 37.473602661100742 ], [ 127.127921344705953, 37.473623597097301 ], [ 127.127990455694018, 37.473646498643973 ], [ 127.12806329289387, 37.47366615277523 ], [ 127.128139853610605, 37.473682288579312 ], [ 127.128217764495176, 37.473694188848434 ], [ 127.128296459609018, 37.47370176232927 ], [ 127.128375599388932, 37.473704921332491 ], [ 127.128454844271729, 37.473703754975205 ], [ 127.128533856490861, 37.473698263970107 ], [ 127.12861218239712, 37.473688359199706 ], [ 127.128689371036188, 37.473674220321243 ], [ 127.128760223857597, 37.47365720546933 ], [ 127.128816268849874, 37.473641106732337 ], [ 127.128885643044313, 37.473618416925156 ], [ 127.129160387384076, 37.473506486335872 ], [ 127.129423020637176, 37.473386459485333 ], [ 127.130722169590953, 37.472792276112244 ], [ 127.130909111696539, 37.472704314108384 ], [ 127.130998229064289, 37.472659707460764 ], [ 127.131083614830374, 37.472614293022389 ], [ 127.131165040822651, 37.472567621637623 ], [ 127.131244201263812, 37.472517889556691 ], [ 127.131321770788588, 37.472463654487406 ], [ 127.131390749724304, 37.472410058890141 ], [ 127.131443803326675, 37.47236477049141 ], [ 127.131515241849627, 37.472294954595554 ], [ 127.131548979876783, 37.472258786847405 ], [ 127.13158124736178, 37.472221810600395 ], [ 127.131612156594073, 37.472184114258852 ], [ 127.13164159528425, 37.472145699247491 ], [ 127.131669562533958, 37.472106475020901 ], [ 127.13169606013993, 37.472066711785068 ], [ 127.131720973117666, 37.4720263189947 ], [ 127.131744415553342, 37.471985298074664 ], [ 127.131766274259164, 37.47194373742964 ], [ 127.131786326452968, 37.471903530652632 ], [ 127.131806036388568, 37.471861341853256 ], [ 127.131824050304971, 37.471818614752607 ], [ 127.131840479593194, 37.471775528300313 ], [ 127.131855326948241, 37.471732083921729 ], [ 127.131868476487355, 37.471688280903273 ], [ 127.131879930905541, 37.471644118531323 ], [ 127.131889801593886, 37.471599778608145 ], [ 127.131897863973563, 37.471555169875423 ], [ 127.131905120564426, 37.47150245341119 ], [ 127.131908340126401, 37.471468932476519 ], [ 127.131910876968774, 37.471432439221601 ], [ 127.13191238164687, 37.47138747747659 ], [ 127.131912528970602, 37.471342427298126 ], [ 127.131910744916439, 37.471291522303396 ], [ 127.131908190107751, 37.47125233185043 ], [ 127.131902336685343, 37.471201431785026 ], [ 127.131895820306283, 37.471159632576637 ], [ 127.131887264751526, 37.47111504211815 ], [ 127.131880771728632, 37.47108675768132 ], [ 127.131878720874852, 37.471077569799967 ], [ 127.131871552318898, 37.471050367618709 ], [ 127.13186086057037, 37.471013077785379 ], [ 127.131848471005966, 37.470974168092013 ], [ 127.131832909490328, 37.470931026968103 ], [ 127.131814856946363, 37.470885906644554 ], [ 127.131782175338003, 37.470814222838356 ], [ 127.13172025087222, 37.470697521192449 ], [ 127.131648373073062, 37.470577767173445 ], [ 127.131456478555322, 37.470311666407248 ] ] ] } },
{ "type": "Feature", "properties": { "zoneCode": "11710KL2006001", "zoneName": "위례 택지개발사업 예정지구", "blockName": "업무8", "blockType": "업무시설", "lotName": "업무8", "parcel_id": "업무8", "area_sqm": 1828.2147331150813 }, "geometry": { "type": "Polygon", "coordinates": [ [ [ 127.147753111670269, 37.486922053951773 ], [ 127.147553848272253, 37.486796412480487 ], [ 127.147444743389443, 37.486726054789465 ], [ 127.147444716439992, 37.486726037682097 ], [ 127.147084643826346, 37.487107269294647 ], [ 127.147399709047619, 37.487296224966769 ], [ 127.147399753065045, 37.487296179347403 ], [ 127.147753111670269, 37.486922053951773 ] ] ] } },
{ "type": "Feature", "properties": { "zoneCode": "11710KL2006001", "zoneName": "위례 택지개발사업 예정지구", "blockName": "업무25", "blockType": "업무시설", "lotName": "업무25", "parcel_id": "업무25", "area_sqm": 3462.0530579845245 }, "geometry": { "type": "Polygon", "coordinates": [ [ [ 127.14312962753165, 37.471906060910428 ], [ 127.143129626633325, 37.471906034531294 ], [ 127.143107358295794, 37.471546227307464 ], [ 127.142918710289507, 37.471553557176101 ], [ 127.142494883341811, 37.471570023533339 ], [ 127.142494807883324, 37.471570025672229 ], [ 127.142244732179591, 37.471579834474738 ], [ 127.142129995758239, 37.471584333205499 ], [ 127.142129922096387, 37.471584336057326 ], [ 127.142152300926753, 37.471944259308401 ], [ 127.14312962753165, 37.471906060910428 ] ] ] } },
{ "type": "Feature", "properties": { "zoneCode": "11710KL2006001", "zoneName": "위례 택지개발사업 예정지구", "blockName": "근상2", "blockType": "근린상업", "lotName": "1-5", "parcel_id": "근상2-1-5", "area_sqm": 1400.772416032921 }, "geometry": { "type": "Polygon", "coordinates": [ [ [ 127.150289460857564, 37.472443167320925 ], [ 127.150271710147507, 37.472156685763089 ], [ 127.150188048248509, 37.472096152965158 ], [ 127.149853870471205, 37.47210945514172 ], [ 127.149853839030186, 37.472109455854671 ], [ 127.149853795911042, 37.472109457993497 ], [ 127.149875625870763, 37.472459275584171 ], [ 127.149875668989907, 37.472459286991295 ], [ 127.149875700430925, 37.4724592855654 ], [ 127.150289460857564, 37.472443167320925 ] ] ] } },
{ "type": "Feature", "properties": { "zoneCode": "11710KL2006001", "zoneName": "위례 택지개발사업 예정지구", "blockName": "업무34", "blockType": "업무시설", "lotName": "업무34", "parcel_id": "업무34", "area_sqm": 35318.390248966447 }, "geometry": { "type": "Polygon", "coordinates": [ [ [ 127.140919229350303, 37.490648699465723 ], [ 127.140919227553681, 37.490648671667664 ], [ 127.140795904136553, 37.488659888131117 ], [ 127.139437673884828, 37.488713469222986 ], [ 127.139303823110851, 37.488745772107166 ], [ 127.139303744957431, 37.488745790639669 ], [ 127.139050634744663, 37.48875563425284 ], [ 127.139050595218791, 37.48875563639119 ], [ 127.138989929292691, 37.488808984332657 ], [ 127.138989859224097, 37.488809045632429 ], [ 127.139025162116425, 37.489379956886616 ], [ 127.139025166608036, 37.48938005881454 ], [ 127.139108240110573, 37.490719838934744 ], [ 127.139108245500466, 37.490719928743772 ], [ 127.140919229350303, 37.490648699465723 ] ] ] } },
{ "type": "Feature", "properties": { "zoneCode": "11710KL2006001", "zoneName": "위례 택지개발사업 예정지구", "blockName": "일상11", "blockType": "일반상업", "lotName": "1-1", "parcel_id": "일상11-1-1", "area_sqm": 4655.9407916383025 }, "geometry": { "type": "Polygon", "coordinates": [ [ [ 127.1431950446473, 37.472964646519607 ], [ 127.143165075951089, 37.472480213326897 ], [ 127.142188045790192, 37.472518603926233 ], [ 127.14218797123003, 37.47251860677801 ], [ 127.142218043232489, 37.4730025891444 ], [ 127.142218116894341, 37.473002586292637 ], [ 127.1431950446473, 37.472964646519607 ] ] ] } },
{ "type": "Feature", "properties": { "zoneCode": "11710KL2006001", "zoneName": "위례 택지개발사업 예정지구", "blockName": "근상2", "blockType": "근린상업", "lotName": "1-3", "parcel_id": "근상2-1-3", "area_sqm": 1613.5306803848384 }, "geometry": { "type": "Polygon", "coordinates": [ [ [ 127.150341431989986, 37.473283646292202 ], [ 127.150316907084402, 37.472887146402805 ], [ 127.149903371236633, 37.472903445638302 ], [ 127.149903339795586, 37.472903447064176 ], [ 127.14990329667647, 37.472903436370053 ], [ 127.149928047957474, 37.473299937598924 ], [ 127.149928122517636, 37.473299935460119 ], [ 127.150341431989986, 37.473283646292202 ] ] ] } },
{ "type": "Feature", "properties": { "zoneCode": "11710KL2006001", "zoneName": "위례 택지개발사업 예정지구", "blockName": "근상2", "blockType": "근린상업", "lotName": "1-2", "parcel_id": "근상2-1-2", "area_sqm": 1321.0559895339759 }, "geometry": { "type": "Polygon", "coordinates": [ [ [ 127.149928047957474, 37.473299937598924 ], [ 127.14990329667647, 37.472903436370053 ], [ 127.149564367709658, 37.472917116261087 ], [ 127.149564294047806, 37.472917118399884 ], [ 127.149588812665158, 37.47331190708374 ], [ 127.14958888722532, 37.47331190423197 ], [ 127.149829252140847, 37.473303857322016 ], [ 127.149928047957474, 37.473299937598924 ] ] ] } },
{ "type": "Feature", "properties": { "zoneCode": "11710KL2006001", "zoneName": "위례 택지개발사업 예정지구", "blockName": "근상2", "blockType": "근린상업", "lotName": "1-1", "parcel_id": "근상2-1-1", "area_sqm": 2965.0402004873854 }, "geometry": { "type": "Polygon", "coordinates": [ [ [ 127.150341431989986, 37.473283646292202 ], [ 127.149928122517636, 37.473299935460119 ], [ 127.149928047957474, 37.473299937598924 ], [ 127.149829252140847, 37.473303857322016 ], [ 127.14958888722532, 37.47331190423197 ], [ 127.149588812665158, 37.47331190708374 ], [ 127.149611698145335, 37.473680117699686 ], [ 127.149661849291036, 37.473716455863801 ], [ 127.150286394907482, 37.473691344247968 ], [ 127.150286428145137, 37.473691315730669 ], [ 127.150362457957513, 37.473624664358141 ], [ 127.150341431989986, 37.473283646292202 ] ] ] } },
{ "type": "Feature", "properties": { "zoneCode": "11710KL2006001", "zoneName": "위례 택지개발사업 예정지구", "blockName": "근상2", "blockType": "근린상업", "lotName": "1-4", "parcel_id": "근상2-1-4", "area_sqm": 1808.0979639883178 }, "geometry": { "type": "Polygon", "coordinates": [ [ [ 127.150316907084402, 37.472887146402805 ], [ 127.150289460857564, 37.472443167320925 ], [ 127.149875700430925, 37.4724592855654 ], [ 127.149875668989907, 37.472459286991295 ], [ 127.149875625870763, 37.472459275584171 ], [ 127.14990329667647, 37.472903436370053 ], [ 127.149903339795586, 37.472903447064176 ], [ 127.149903371236633, 37.472903445638302 ], [ 127.150316907084402, 37.472887146402805 ] ] ] } },
{ "type": "Feature", "properties": { "zoneCode": "11710KL2006001", "zoneName": "위례 택지개발사업 예정지구", "blockName": "업무23", "blockType": "업무시설", "lotName": "업무23", "parcel_id": "업무23", "area_sqm": 18263.836271439501 }, "geometry": { "type": "Polygon", "coordinates": [ [ [ 127.148929004580552, 37.479268442431895 ], [ 127.148846012824706, 37.479207278792259 ], [ 127.147854053562114, 37.47924680226599 ], [ 127.147854012239605, 37.479246803691758 ], [ 127.147777376064425, 37.479313122126051 ], [ 127.147869719282369, 37.480807228506656 ], [ 127.147954855316783, 37.480866768358183 ], [ 127.148945183238808, 37.480827875913434 ], [ 127.14894521467987, 37.480827847398849 ], [ 127.149021593038569, 37.480761376330051 ], [ 127.148929004580552, 37.479268442431895 ] ] ] } },
{ "type": "Feature", "properties": { "zoneCode": "11710KL2006001", "zoneName": "위례 택지개발사업 예정지구", "blockName": "일상10", "blockType": "일반상업", "lotName": "일상10", "parcel_id": "일상10", "area_sqm": 9397.7608698852637 }, "geometry": { "type": "Polygon", "coordinates": [ [ [ 127.143255449163632, 37.473941815537827 ], [ 127.143255449163632, 37.47394178987232 ], [ 127.1431950446473, 37.472964646519607 ], [ 127.142218116894341, 37.473002586292637 ], [ 127.142218043232489, 37.4730025891444 ], [ 127.142278773837276, 37.473980541889262 ], [ 127.142278847499128, 37.473980539037541 ], [ 127.143255449163632, 37.473941815537827 ] ] ] } },
{ "type": "Feature", "properties": { "zoneCode": "11710KL2006001", "zoneName": "위례 택지개발사업 예정지구", "blockName": "일상6", "blockType": "일반상업", "lotName": "2-2", "parcel_id": "일상6-2-2", "area_sqm": 1337.4070606203156 }, "geometry": { "type": "Polygon", "coordinates": [ [ [ 127.142738859484766, 37.48556182978087 ], [ 127.142651743563462, 37.485352547191852 ], [ 127.142539806292518, 37.485291412768447 ], [ 127.142278239339703, 37.485301724447822 ], [ 127.142278190830638, 37.48530172587347 ], [ 127.142214333190367, 37.485376043913774 ], [ 127.142335744094282, 37.485668076122124 ], [ 127.142335864468507, 37.485668364100697 ], [ 127.142335939927008, 37.485668344141772 ], [ 127.142738859484766, 37.48556182978087 ] ] ] } },
{ "type": "Feature", "properties": { "zoneCode": "11710KL2006001", "zoneName": "위례 택지개발사업 예정지구", "blockName": "일상5", "blockType": "일반상업", "lotName": "2-2", "parcel_id": "일상5-2-2", "area_sqm": 2050.0094565308464 }, "geometry": { "type": "Polygon", "coordinates": [ [ [ 127.142146767304581, 37.485643086850274 ], [ 127.14203591609683, 37.485376797365561 ], [ 127.141923979724226, 37.485315662249171 ], [ 127.141570268081125, 37.48532959505814 ], [ 127.141570219572088, 37.485329597196603 ], [ 127.141493544769332, 37.485418746155652 ], [ 127.141493500751878, 37.485418796765927 ], [ 127.141642160253298, 37.485776104355232 ], [ 127.14164228691574, 37.485776408015354 ], [ 127.141642363272553, 37.485776388056458 ], [ 127.142146767304581, 37.485643086850274 ] ] ] } },
{ "type": "Feature", "properties": { "zoneCode": "11710KL2006001", "zoneName": "위례 택지개발사업 예정지구", "blockName": "일상6", "blockType": "일반상업", "lotName": "2-1", "parcel_id": "일상6-2-1", "area_sqm": 1300.1889754709412 }, "geometry": { "type": "Polygon", "coordinates": [ [ [ 127.142862093968716, 37.485857932157508 ], [ 127.142738859484766, 37.48556182978087 ], [ 127.142335939927008, 37.485668344141772 ], [ 127.142335864468507, 37.485668364100697 ], [ 127.142459097155822, 37.485964466055073 ], [ 127.142459175309284, 37.485964446096247 ], [ 127.142862093968716, 37.485857932157508 ] ] ] } },
{ "type": "Feature", "properties": { "zoneCode": "11710KL2006001", "zoneName": "위례 택지개발사업 예정지구", "blockName": "근상3", "blockType": "근린상업", "lotName": "1-1", "parcel_id": "근상3-1-1", "area_sqm": 3874.9881141149262 }, "geometry": { "type": "Polygon", "coordinates": [ [ [ 127.142736824800664, 37.481356597712612 ], [ 127.142736823902339, 37.481356572762543 ], [ 127.142720149374028, 37.48108667802726 ], [ 127.14272022303588, 37.481086673750099 ], [ 127.142787981161135, 37.48108397770627 ], [ 127.142771192546775, 37.480814064164754 ], [ 127.142003278505939, 37.480844258960822 ], [ 127.14200323448847, 37.480844261812273 ], [ 127.142032729772552, 37.481320405835326 ], [ 127.142116394366511, 37.481381034526677 ], [ 127.142736824800664, 37.481356597712612 ] ] ] } },
{ "type": "Feature", "properties": { "zoneCode": "11710KL2006001", "zoneName": "위례 택지개발사업 예정지구", "blockName": "근상1", "blockType": "근린상업", "lotName": "2-3", "parcel_id": "근상1-2-3", "area_sqm": 1926.6582216994464 }, "geometry": { "type": "Polygon", "coordinates": [ [ [ 127.139006021712703, 37.464860042589123 ], [ 127.138744017280317, 37.46449580068996 ], [ 127.138579637261415, 37.464564617799553 ], [ 127.138579563599563, 37.464564647033356 ], [ 127.138357135345316, 37.464662902483148 ], [ 127.1383570634801, 37.464662934568985 ], [ 127.138339844572741, 37.464670145325449 ], [ 127.1385816000803, 37.465037470878222 ], [ 127.138581627928076, 37.465037458043945 ], [ 127.139006021712703, 37.464860042589123 ] ] ] } },
{ "type": "Feature", "properties": { "zoneCode": "11710KL2006001", "zoneName": "위례 택지개발사업 예정지구", "blockName": "업무31", "blockType": "업무시설", "lotName": "업무31", "parcel_id": "업무31", "area_sqm": 26535.19037458075 }, "geometry": { "type": "Polygon", "coordinates": [ [ [ 127.138674505643621, 37.488562899492713 ], [ 127.13867450205035, 37.48856285244851 ], [ 127.13863105054007, 37.487862872425104 ], [ 127.138631146659819, 37.487862868861129 ], [ 127.139668932578289, 37.487822020577433 ], [ 127.139668958629457, 37.487822014875029 ], [ 127.139306667177053, 37.486951445798361 ], [ 127.137111064248401, 37.487037776529029 ], [ 127.137111023824218, 37.487037779380238 ], [ 127.137162772174491, 37.487267024287057 ], [ 127.137178155823705, 37.487333410447 ], [ 127.137278202095217, 37.487759558806125 ], [ 127.137278584777505, 37.48776090742038 ], [ 127.137298140202958, 37.48782979078419 ], [ 127.13729891275409, 37.487832515809288 ], [ 127.137300677045332, 37.487837090543806 ], [ 127.137324858794457, 37.487899809569953 ], [ 127.137326518881125, 37.487904113437551 ], [ 127.137328910196373, 37.487908975424816 ], [ 127.137358140477431, 37.487968418379118 ], [ 127.137360793202447, 37.487973811395364 ], [ 127.137363307586952, 37.487977970561104 ], [ 127.137398236780101, 37.488035751221119 ], [ 127.137401506647734, 37.488041159201252 ], [ 127.137403491026205, 37.488043887782595 ], [ 127.13744792619174, 37.488104965068388 ], [ 127.13744866101365, 37.488105977237204 ], [ 127.137450614849385, 37.488108250340211 ], [ 127.137499299944565, 37.488164941749716 ], [ 127.137501690361503, 37.488167724498915 ], [ 127.13750576152637, 37.488171768893942 ], [ 127.137556952022848, 37.488222626038002 ], [ 127.137560479706977, 37.488226130845156 ], [ 127.13756453470215, 37.488229591458932 ], [ 127.137619844872503, 37.488276799774738 ], [ 127.137624577197414, 37.488280839174308 ], [ 127.137628334850262, 37.488283599822601 ], [ 127.137687358656009, 37.488326959735907 ], [ 127.137693643269728, 37.488331575069331 ], [ 127.137696870018246, 37.48833360011362 ], [ 127.13776595944671, 37.488376957146713 ], [ 127.137767448853467, 37.488377892330263 ], [ 127.137770716026154, 37.488379646512193 ], [ 127.137841756595478, 37.488417785881573 ], [ 127.137845318415543, 37.488419699015175 ], [ 127.137850534932383, 37.488422063346036 ], [ 127.137922348052868, 37.48845460727977 ], [ 127.137927023783902, 37.488456725696444 ], [ 127.13793176868522, 37.488458519792864 ], [ 127.138004256440468, 37.488485909516939 ], [ 127.138011885832171, 37.488488792757735 ], [ 127.138017125705218, 37.488490390835778 ], [ 127.138095196489914, 37.488514208752328 ], [ 127.138099563200512, 37.488515541671568 ], [ 127.13810140834012, 37.488515980038052 ], [ 127.138187292671162, 37.488536420030769 ], [ 127.138189608527966, 37.488536971018064 ], [ 127.138194183647741, 37.488537770769376 ], [ 127.138275615029912, 37.488551993796023 ], [ 127.138281338196606, 37.488552993128565 ], [ 127.138288889434875, 37.488553839923888 ], [ 127.138366657487325, 37.488562558066015 ], [ 127.13837441533812, 37.488563427670492 ], [ 127.138381175160646, 37.488563769809993 ], [ 127.138461618396008, 37.488567852674244 ], [ 127.1384681590296, 37.488568184834641 ], [ 127.138471882546455, 37.488568146343972 ], [ 127.138562134486421, 37.488567263196501 ], [ 127.138580576000862, 37.488566547554782 ], [ 127.138674505643621, 37.488562899492713 ] ] ] } },
{ "type": "Feature", "properties": { "zoneCode": "11710KL2006001", "zoneName": "위례 택지개발사업 예정지구", "blockName": "일상5", "blockType": "일반상업", "lotName": "2-1", "parcel_id": "일상5-2-1", "area_sqm": 2000.0928365933944 }, "geometry": { "type": "Polygon", "coordinates": [ [ [ 127.142298167565954, 37.486007000449106 ], [ 127.142146767304581, 37.485643086850274 ], [ 127.141642363272553, 37.485776388056458 ], [ 127.14164228691574, 37.485776408015354 ], [ 127.141793797669905, 37.486140322390384 ], [ 127.141793874924986, 37.486140302431593 ], [ 127.142298167565954, 37.486007000449106 ] ] ] } },
{ "type": "Feature", "properties": { "zoneCode": "11710KL2006001", "zoneName": "위례 택지개발사업 예정지구", "blockName": "일상6", "blockType": "일반상업", "lotName": "1-2", "parcel_id": "일상6-1-2", "area_sqm": 999.8360823958908 }, "geometry": { "type": "Polygon", "coordinates": [ [ [ 127.142992483533902, 37.486171234262692 ], [ 127.14289764569439, 37.485943484331621 ], [ 127.142494798001849, 37.486049918313157 ], [ 127.142494762069248, 37.486049928292552 ], [ 127.142589391499556, 37.486277446235079 ], [ 127.142589488517643, 37.486277678611941 ], [ 127.142589565772752, 37.486277658653194 ], [ 127.142992483533902, 37.486171234262692 ] ] ] } },
{ "type": "Feature", "properties": { "zoneCode": "11710KL2006001", "zoneName": "위례 택지개발사업 예정지구", "blockName": "일상4", "blockType": "일반상업", "lotName": "1-1", "parcel_id": "일상4-1-1", "area_sqm": 1893.0462235975817 }, "geometry": { "type": "Polygon", "coordinates": [ [ [ 127.139455148812033, 37.464672089013881 ], [ 127.139160960437962, 37.464263019208104 ], [ 127.139160916420536, 37.464263037746669 ], [ 127.139009940163973, 37.464303827607154 ], [ 127.139009863807161, 37.464303848284793 ], [ 127.138795435050568, 37.464385971261102 ], [ 127.138795360490377, 37.464385999068938 ], [ 127.139106094035341, 37.464818119334964 ], [ 127.139106167697193, 37.464818088675223 ], [ 127.139455106591242, 37.464672110404415 ], [ 127.139455148812033, 37.464672089013881 ] ] ] } },
{ "type": "Feature", "properties": { "zoneCode": "11710KL2006001", "zoneName": "위례 택지개발사업 예정지구", "blockName": "일상6", "blockType": "일반상업", "lotName": "1-1", "parcel_id": "일상6-1-1", "area_sqm": 1059.4352308797313 }, "geometry": { "type": "Polygon", "coordinates": [ [ [ 127.142992483533902, 37.486171234262692 ], [ 127.142589565772752, 37.486277658653194 ], [ 127.142589488517643, 37.486277678611941 ], [ 127.142671833486474, 37.486475349778431 ], [ 127.142752288399947, 37.486508230293872 ], [ 127.142752363858435, 37.486508211048005 ], [ 127.143035623328771, 37.486438143912395 ], [ 127.143076880254796, 37.486374042943261 ], [ 127.142992483533902, 37.486171234262692 ] ] ] } },
{ "type": "Feature", "properties": { "zoneCode": "11710KL2006001", "zoneName": "위례 택지개발사업 예정지구", "blockName": "일상5", "blockType": "일반상업", "lotName": "1-2", "parcel_id": "일상5-1-2", "area_sqm": 1677.7697875461743 }, "geometry": { "type": "Polygon", "coordinates": [ [ [ 127.142460587460874, 37.486397300552127 ], [ 127.142333718393303, 37.48609246335073 ], [ 127.14182942485408, 37.486225763755101 ], [ 127.141829347598943, 37.48622578371387 ], [ 127.141936112370502, 37.486482353141263 ], [ 127.141947104156287, 37.486532738129647 ], [ 127.141947176021503, 37.486533066022218 ], [ 127.141947209259172, 37.48653305604288 ], [ 127.142460587460874, 37.486397300552127 ] ] ] } },
{ "type": "Feature", "properties": { "zoneCode": "11710KL2006001", "zoneName": "위례 택지개발사업 예정지구", "blockName": "일상5", "blockType": "일반상업", "lotName": "1-1", "parcel_id": "일상5-1-1", "area_sqm": 1681.1062894188112 }, "geometry": { "type": "Polygon", "coordinates": [ [ [ 127.142583139225209, 37.486691599776094 ], [ 127.142460587460874, 37.486397300552127 ], [ 127.141947209259172, 37.48653305604288 ], [ 127.141947176021503, 37.486533066022218 ], [ 127.141975117220127, 37.486661875658427 ], [ 127.142043151128121, 37.486825236269183 ], [ 127.142043188857357, 37.486825227715499 ], [ 127.142583139225209, 37.486691599776094 ] ] ] } },
{ "type": "Feature", "properties": { "zoneCode": "11710KL2006001", "zoneName": "위례 택지개발사업 예정지구", "blockName": "일상2", "blockType": "일반상업", "lotName": "1-2", "parcel_id": "일상2-1-2", "area_sqm": 1049.5894719095579 }, "geometry": { "type": "Polygon", "coordinates": [ [ [ 127.141114007460118, 37.465214821027772 ], [ 127.140894908362299, 37.464952166427999 ], [ 127.140612740345048, 37.465101354855832 ], [ 127.140612593021345, 37.46510143328743 ], [ 127.140832143073425, 37.465364357594297 ], [ 127.140832256261149, 37.4653642984143 ], [ 127.141114007460118, 37.465214821027772 ] ] ] } },
{ "type": "Feature", "properties": { "zoneCode": "11710KL2006001", "zoneName": "위례 택지개발사업 예정지구", "blockName": "E1-3", "blockType": "복합용지", "lotName": "E1-3", "parcel_id": "E1-3", "area_sqm": 31595.667231527674 }, "geometry": { "type": "Polygon", "coordinates": [ [ [ 127.132330038965165, 37.472789301722194 ], [ 127.131970571816026, 37.472803485683329 ], [ 127.13193851543511, 37.472831992620925 ], [ 127.131872482075224, 37.472889188976239 ], [ 127.131805428229114, 37.472944764063186 ], [ 127.131669277768026, 37.473051683535772 ], [ 127.131531875953769, 37.473153918142678 ], [ 127.131398871392818, 37.473249570778663 ], [ 127.131305268736824, 37.473315897386875 ], [ 127.131213021638629, 37.473381321359952 ], [ 127.131028304659992, 37.473515502814458 ], [ 127.130862036382368, 37.473623433122683 ], [ 127.130739110020585, 37.473703227405267 ], [ 127.130686513660692, 37.473752299948465 ], [ 127.130629749117901, 37.473809035045832 ], [ 127.130593978203265, 37.473848087988479 ], [ 127.130559790120188, 37.473886417286117 ], [ 127.130538017652654, 37.473912569714734 ], [ 127.130496957457652, 37.473965593890696 ], [ 127.13047316288241, 37.473999047403225 ], [ 127.130450836154324, 37.474032859504185 ], [ 127.13041961071508, 37.474085060162153 ], [ 127.13038400688707, 37.474154927855487 ], [ 127.130361601107268, 37.474207209701959 ], [ 127.130350683881616, 37.47423632494408 ], [ 127.130338537760679, 37.474272737695095 ], [ 127.130329882492887, 37.474302030430422 ], [ 127.130315513939934, 37.474361330931472 ], [ 127.130304211337034, 37.474428558403744 ], [ 127.130300758213068, 37.474458566854828 ], [ 127.130297774009691, 37.474497583098881 ], [ 127.130319297643908, 37.474517286911073 ], [ 127.130319399153521, 37.474517381730053 ], [ 127.130505004565975, 37.4746898130349 ], [ 127.130505097990749, 37.474689900724385 ], [ 127.13088294826386, 37.475040843344537 ], [ 127.130883179130905, 37.475041057933318 ], [ 127.131806413681005, 37.474879485941337 ], [ 127.131931586729294, 37.4748298822987 ], [ 127.132381164782942, 37.474751268392559 ], [ 127.132449775409384, 37.474679653169432 ], [ 127.132414422211397, 37.47412152217894 ], [ 127.132330038965165, 37.472789301722194 ] ] ] } },
{ "type": "Feature", "properties": { "zoneCode": "11710KL2006001", "zoneName": "위례 택지개발사업 예정지구", "blockName": "업무4", "blockType": "업무시설", "lotName": "업무4", "parcel_id": "업무4", "area_sqm": 4629.5411678813616 }, "geometry": { "type": "Polygon", "coordinates": [ [ [ 127.142728160549723, 37.487326276721134 ], [ 127.142728236906521, 37.487326256762664 ], [ 127.142996451392477, 37.487255312933748 ], [ 127.142936027113223, 37.487110148311828 ], [ 127.142935915722106, 37.487109881010177 ], [ 127.142745094691165, 37.48665149787557 ], [ 127.142583218276954, 37.486691586232745 ], [ 127.142583139225209, 37.486691599776094 ], [ 127.142043188857357, 37.486825227715499 ], [ 127.142043151128121, 37.486825236269183 ], [ 127.142298935625504, 37.487439684919202 ], [ 127.142727341286189, 37.487326491987446 ], [ 127.142728160549723, 37.487326276721134 ] ] ] } },
{ "type": "Feature", "properties": { "zoneCode": "11710KL2006001", "zoneName": "위례 택지개발사업 예정지구", "blockName": "업무22", "blockType": "업무시설", "lotName": "업무22", "parcel_id": "업무22", "area_sqm": 13123.831211791136 }, "geometry": { "type": "Polygon", "coordinates": [ [ [ 127.149139698142264, 37.479015178814414 ], [ 127.149139696345614, 37.479015153150677 ], [ 127.149122059721648, 37.478727332323345 ], [ 127.149115699649428, 37.478597234367797 ], [ 127.149060615854523, 37.478469901474 ], [ 127.1490185055289, 37.47821253746234 ], [ 127.148962101210586, 37.47798735748286 ], [ 127.148887179919257, 37.477946996407951 ], [ 127.148238105803983, 37.47805096876251 ], [ 127.148112441377194, 37.478098759525551 ], [ 127.148112366817003, 37.478098788041166 ], [ 127.147779911110149, 37.478150909580009 ], [ 127.147779859007869, 37.478150917421793 ], [ 127.147710581831475, 37.478222092317445 ], [ 127.147752128913368, 37.478889052830617 ], [ 127.147758349746681, 37.479006174405441 ], [ 127.147842017035629, 37.47906679855862 ], [ 127.149139698142264, 37.479015178814414 ] ] ] } },
{ "type": "Feature", "properties": { "zoneCode": "11710KL2006001", "zoneName": "위례 택지개발사업 예정지구", "blockName": "업무36", "blockType": "업무시설", "lotName": "업무36", "parcel_id": "업무36", "area_sqm": 1499.7167116035741 }, "geometry": { "type": "Polygon", "coordinates": [ [ [ 127.139956301841053, 37.488512570758488 ], [ 127.139956291061296, 37.488512543672421 ], [ 127.139843641426324, 37.488241859351326 ], [ 127.139336139104898, 37.488261823985816 ], [ 127.139336098680701, 37.488261825411399 ], [ 127.139353122653631, 37.48853625109934 ], [ 127.13953776147882, 37.488529002016207 ], [ 127.139956301841053, 37.488512570758488 ] ] ] } },
{ "type": "Feature", "properties": { "zoneCode": "11710KL2006001", "zoneName": "위례 택지개발사업 예정지구", "blockName": "일상9", "blockType": "일반상업", "lotName": "1-1", "parcel_id": "일상9-1-1", "area_sqm": 7526.693364388243 }, "geometry": { "type": "Polygon", "coordinates": [ [ [ 127.157583563572288, 37.487970729264553 ], [ 127.156881528381106, 37.487586129802196 ], [ 127.156881496041763, 37.487586111982189 ], [ 127.15639356351879, 37.488151902601032 ], [ 127.156393523094593, 37.488151949645477 ], [ 127.156515549344476, 37.488217923024173 ], [ 127.156322600204604, 37.488441111282178 ], [ 127.156322546305674, 37.488441173295058 ], [ 127.156413672306428, 37.48849105943399 ], [ 127.156612179322991, 37.488577925829404 ], [ 127.156882838124801, 37.488726144751261 ], [ 127.156916458472622, 37.488744571057985 ], [ 127.156916486320398, 37.488744539695261 ], [ 127.157583563572288, 37.487970729264553 ] ] ] } },
{ "type": "Feature", "properties": { "zoneCode": "11710KL2006001", "zoneName": "위례 택지개발사업 예정지구", "blockName": "지원3", "blockType": "도시지원시설용지", "lotName": "지원3", "parcel_id": "지원3", "area_sqm": 6482.8268155080932 }, "geometry": { "type": "Polygon", "coordinates": [ [ [ 127.131270036811372, 37.467583676809987 ], [ 127.131307088723588, 37.467597120248755 ], [ 127.131900917347195, 37.467810004675329 ], [ 127.131913945613775, 37.467814303996199 ], [ 127.131995717457443, 37.467841289180711 ], [ 127.132012213221017, 37.467846732845864 ], [ 127.132031165876896, 37.467851934094668 ], [ 127.132106367442603, 37.467872576524933 ], [ 127.132125986648376, 37.46787796100984 ], [ 127.132468645420261, 37.467962996890435 ], [ 127.132524816176655, 37.467964011471082 ], [ 127.13252486917726, 37.467964012184069 ], [ 127.1325250542302, 37.467964015748997 ], [ 127.132602273412047, 37.467841393989985 ], [ 127.132602383904796, 37.467840929834608 ], [ 127.132602833960789, 37.467839050397544 ], [ 127.13281002678778, 37.467510224470352 ], [ 127.132774495723353, 37.467424669016388 ], [ 127.132769405868942, 37.467422602764834 ], [ 127.1326882996769, 37.467390166601284 ], [ 127.132649501439786, 37.467375342771462 ], [ 127.13261013906066, 37.46736151142472 ], [ 127.132570101148474, 37.467348850809906 ], [ 127.132529614078578, 37.467337273229383 ], [ 127.13248856107009, 37.467326776544738 ], [ 127.132447173888337, 37.46731754256966 ], [ 127.132405448041709, 37.467309390204349 ], [ 127.132363271240791, 37.467302318736145 ], [ 127.132320871657697, 37.467296507839706 ], [ 127.132278247495805, 37.467291871243141 ], [ 127.132235398755057, 37.46728831411847 ], [ 127.132192553607567, 37.467286018992283 ], [ 127.132149482982953, 37.467284895314435 ], [ 127.13210652824101, 37.467284942371968 ], [ 127.132063463904601, 37.467286252141164 ], [ 127.132020511857604, 37.467288642095504 ], [ 127.131977789779313, 37.467292293335298 ], [ 127.1319351817871, 37.467297115310146 ], [ 127.131892802865238, 37.467303018182662 ], [ 127.131850652115475, 37.467310183052945 ], [ 127.131808954116636, 37.467318428107284 ], [ 127.131767598375887, 37.467327933732626 ], [ 127.131726583096651, 37.467338431130123 ], [ 127.13168613555267, 37.467350189097658 ], [ 127.131646254845634, 37.467362936697384 ], [ 127.131606940975544, 37.467376855028959 ], [ 127.131568193942357, 37.467391854967616 ], [ 127.131492854036139, 37.467424914285694 ], [ 127.131456261163038, 37.467443064926712 ], [ 127.131420572893433, 37.467462116072028 ], [ 127.131385678734532, 37.467482155418992 ], [ 127.131352274880669, 37.467502757310889 ], [ 127.131351577788038, 37.467503187244738 ], [ 127.13128692693536, 37.467552871326774 ], [ 127.131286812849297, 37.467553080233174 ], [ 127.131270062862527, 37.467583630465619 ], [ 127.131270036811372, 37.467583676809987 ] ] ] } },
{ "type": "Feature", "properties": { "zoneCode": "11710KL2006001", "zoneName": "위례 택지개발사업 예정지구", "blockName": "E1-1", "blockType": "복합용지", "lotName": "E1-1", "parcel_id": "E1-1", "area_sqm": 20632.048166141794 }, "geometry": { "type": "Polygon", "coordinates": [ [ [ 127.156043260982173, 37.488763822769435 ], [ 127.155850911916886, 37.488986801262747 ], [ 127.155850872391014, 37.488986848306666 ], [ 127.15572976781263, 37.488920516362342 ], [ 127.155729737269908, 37.488920499255435 ], [ 127.154973976536539, 37.489796592942689 ], [ 127.154974007977572, 37.489796610049382 ], [ 127.156454379463511, 37.490607441436481 ], [ 127.156454417192748, 37.490607392255285 ], [ 127.156508297245182, 37.4905325683619 ], [ 127.156509874686833, 37.490530379439704 ], [ 127.156511476382974, 37.490527687300549 ], [ 127.156556631099036, 37.49045184334981 ], [ 127.156557666856571, 37.490450107035848 ], [ 127.156558181591237, 37.490449034313116 ], [ 127.156597008574451, 37.49036806259118 ], [ 127.15659746581693, 37.490367113177072 ], [ 127.156598070383097, 37.490365480926037 ], [ 127.156628074113598, 37.490284484879197 ], [ 127.156629030819374, 37.490281900360074 ], [ 127.156629623707474, 37.490279673653511 ], [ 127.156652171421101, 37.490194987477516 ], [ 127.156663253936742, 37.490143556466471 ], [ 127.156663949232794, 37.490140901377714 ], [ 127.156684600602844, 37.490062051969517 ], [ 127.156685253678063, 37.490059558678084 ], [ 127.156687078156395, 37.490054446646283 ], [ 127.156713361963284, 37.489980807547241 ], [ 127.156714712131162, 37.489977025552122 ], [ 127.156717424145029, 37.489971073863217 ], [ 127.156749316134238, 37.489901118317803 ], [ 127.156751478379121, 37.489896374781303 ], [ 127.15675475004339, 37.489890534992121 ], [ 127.156792375979038, 37.489823357782129 ], [ 127.156795367368957, 37.489818017645 ], [ 127.15679883037437, 37.489812858553307 ], [ 127.156842480412365, 37.489747828877427 ], [ 127.156846155420169, 37.489742354019661 ], [ 127.15684943247436, 37.489738212771648 ], [ 127.156899695011106, 37.48967468414542 ], [ 127.156903584716304, 37.489669767389024 ], [ 127.156906256305945, 37.48966687065095 ], [ 127.156964073674246, 37.489604193024164 ], [ 127.156967361508208, 37.489600629120858 ], [ 127.156969079985359, 37.489599020374854 ], [ 127.157036127543179, 37.48953625644458 ], [ 127.157037160605768, 37.4895352877748 ], [ 127.157139139153458, 37.489446449511725 ], [ 127.157126298634779, 37.489356931860812 ], [ 127.156043926633828, 37.488764186291654 ], [ 127.156043294219842, 37.48876383987637 ], [ 127.156043260982173, 37.488763822769435 ] ] ] } },
{ "type": "Feature", "properties": { "zoneCode": "11710KL2006001", "zoneName": "위례 택지개발사업 예정지구", "blockName": "일상2", "blockType": "일반상업", "lotName": "1-1", "parcel_id": "일상2-1-1", "area_sqm": 1055.0058098177155 }, "geometry": { "type": "Polygon", "coordinates": [ [ [ 127.141114007460118, 37.465214821027772 ], [ 127.140832256261149, 37.4653642984143 ], [ 127.140832143073425, 37.465364357594297 ], [ 127.141062231262083, 37.465639878425094 ], [ 127.141062291449188, 37.465639832792512 ], [ 127.141067445083976, 37.465635313739703 ], [ 127.141084352275939, 37.465620485996894 ], [ 127.141084421446209, 37.465620449633413 ], [ 127.141272941891756, 37.465520511311482 ], [ 127.14129538090927, 37.465432196366052 ], [ 127.141114007460118, 37.465214821027772 ] ] ] } },
{ "type": "Feature", "properties": { "zoneCode": "11710KL2006001", "zoneName": "위례 택지개발사업 예정지구", "blockName": "일상4", "blockType": "일반상업", "lotName": "1-2", "parcel_id": "일상4-1-2", "area_sqm": 1925.2898985991078 }, "geometry": { "type": "Polygon", "coordinates": [ [ [ 127.139844660115884, 37.46450650169583 ], [ 127.139518174612405, 37.464115397046768 ], [ 127.139449353780165, 37.46414724995185 ], [ 127.139449282813231, 37.464147282750965 ], [ 127.139376618988209, 37.464180220863788 ], [ 127.1393765489196, 37.464180252949838 ], [ 127.139303547328069, 37.464212564301043 ], [ 127.139303473666217, 37.464212594961019 ], [ 127.139230018425451, 37.464244365827177 ], [ 127.139229946560206, 37.464244396487125 ], [ 127.139160990980685, 37.464263011364871 ], [ 127.139160960437962, 37.464263019208104 ], [ 127.139455148812033, 37.464672089013881 ], [ 127.139455176659823, 37.464672077605577 ], [ 127.139530441107539, 37.464639766452954 ], [ 127.139530514769419, 37.464639735080134 ], [ 127.139735894796218, 37.464553752094467 ], [ 127.139735966661434, 37.464553720721611 ], [ 127.139792254198809, 37.464529628498028 ], [ 127.139792326962365, 37.464529597125157 ], [ 127.139844660115884, 37.46450650169583 ] ] ] } },
{ "type": "Feature", "properties": { "zoneCode": "11710KL2006001", "zoneName": "위례 택지개발사업 예정지구", "blockName": "일상2", "blockType": "일반상업", "lotName": "1-3", "parcel_id": "일상2-1-3", "area_sqm": 1049.3443097440493 }, "geometry": { "type": "Polygon", "coordinates": [ [ [ 127.140894908362299, 37.464952166427999 ], [ 127.140675758958849, 37.464689408230846 ], [ 127.14041615392658, 37.464826953616175 ], [ 127.140393624179254, 37.464838889519939 ], [ 127.140393496618486, 37.464838958682591 ], [ 127.140612593021345, 37.46510143328743 ], [ 127.140612740345048, 37.465101354855832 ], [ 127.140894908362299, 37.464952166427999 ] ] ] } },
{ "type": "Feature", "properties": { "zoneCode": "11710KL2006001", "zoneName": "위례 택지개발사업 예정지구", "blockName": "업무21", "blockType": "업무시설", "lotName": "업무21", "parcel_id": "업무21", "area_sqm": 10132.044669555657 }, "geometry": { "type": "Polygon", "coordinates": [ [ [ 127.156454379463511, 37.490607441436481 ], [ 127.154974007977572, 37.489796610049382 ], [ 127.154973976536539, 37.489796592942689 ], [ 127.154548202939637, 37.490290147869622 ], [ 127.154548163413764, 37.49029019419995 ], [ 127.155527478888743, 37.490826592559308 ], [ 127.155665324470789, 37.490867130571189 ], [ 127.155866966607661, 37.490977185524599 ], [ 127.155980020484492, 37.490978908283729 ], [ 127.155980088756465, 37.490978874070862 ], [ 127.156005034971884, 37.490966347180567 ], [ 127.156005102345532, 37.490966311542159 ], [ 127.156091532852287, 37.490919225383905 ], [ 127.156093288160335, 37.490918268849128 ], [ 127.156096427772255, 37.490916269534551 ], [ 127.15617373858224, 37.490867016528235 ], [ 127.156176790159265, 37.490865072095481 ], [ 127.15618069962737, 37.490862174691031 ], [ 127.156251393446993, 37.490809778337187 ], [ 127.156255069353122, 37.490807054133512 ], [ 127.156258479357902, 37.490804118950024 ], [ 127.156324283647436, 37.490747475873526 ], [ 127.156327693652273, 37.490744539974941 ], [ 127.156329978068015, 37.49074225198396 ], [ 127.156392263656571, 37.49067987034644 ], [ 127.156394254323232, 37.490677878153207 ], [ 127.156395208334061, 37.490676761241978 ], [ 127.156454379463511, 37.490607441436481 ] ] ] } },
{ "type": "Feature", "properties": { "zoneCode": "11710KL2006001", "zoneName": "위례 택지개발사업 예정지구", "blockName": "업무9", "blockType": "업무시설", "lotName": "업무9", "parcel_id": "업무9", "area_sqm": 2029.8789630626827 }, "geometry": { "type": "Polygon", "coordinates": [ [ [ 127.1443292144059, 37.481023206201378 ], [ 127.143555791895722, 37.481053777304183 ], [ 127.143555715538923, 37.481053780155648 ], [ 127.143572505949919, 37.481323672871156 ], [ 127.143572506848216, 37.481323699246978 ], [ 127.144265967620001, 37.481296374618701 ], [ 127.144265999061034, 37.481296347530034 ], [ 127.144342042348143, 37.481229699375746 ], [ 127.1443292144059, 37.481023206201378 ] ] ] } },
{ "type": "Feature", "properties": { "zoneCode": "11710KL2006001", "zoneName": "위례 택지개발사업 예정지구", "blockName": "업무2-1", "blockType": "업무시설", "lotName": "업무2-1", "parcel_id": "업무2-1", "area_sqm": 5459.8931581889374 }, "geometry": { "type": "Polygon", "coordinates": [ [ [ 127.143204431143729, 37.463502857900494 ], [ 127.142669705377557, 37.463786556167342 ], [ 127.142669638003923, 37.463786592531704 ], [ 127.143284918396532, 37.464523868723511 ], [ 127.143284985770165, 37.464523831646453 ], [ 127.143445040400977, 37.464438890250761 ], [ 127.143538592751298, 37.464356877137888 ], [ 127.143538661023257, 37.464356841486804 ], [ 127.143734284447731, 37.464253117465589 ], [ 127.143757064825024, 37.464164881594648 ], [ 127.143204431143729, 37.463502857900494 ] ] ] } },
{ "type": "Feature", "properties": { "zoneCode": "11710KL2006001", "zoneName": "위례 택지개발사업 예정지구", "blockName": "업무24", "blockType": "업무시설", "lotName": "업무24", "parcel_id": "업무24", "area_sqm": 13516.898695628024 }, "geometry": { "type": "Polygon", "coordinates": [ [ [ 127.141669258832152, 37.474004524840559 ], [ 127.14154850908831, 37.472058683277702 ], [ 127.140842884229286, 37.472086454737266 ], [ 127.140842810567392, 37.472086457589079 ], [ 127.140963314172851, 37.474032357602006 ], [ 127.14096331507119, 37.474032390396751 ], [ 127.140963388733041, 37.4740323868321 ], [ 127.141360907619301, 37.47401669739741 ], [ 127.141669258832152, 37.474004524840559 ] ] ] } },
{ "type": "Feature", "properties": { "zoneCode": "11710KL2006001", "zoneName": "위례 택지개발사업 예정지구", "blockName": "일상3", "blockType": "일반상업", "lotName": "2-1", "parcel_id": "일상3-2-1", "area_sqm": 1891.7663753576965 }, "geometry": { "type": "Polygon", "coordinates": [ [ [ 127.140659573114064, 37.464080337658622 ], [ 127.140330726838002, 37.463685928035147 ], [ 127.140330705278473, 37.463685903792182 ], [ 127.140330664854233, 37.463685927322103 ], [ 127.140278225699547, 37.46371595434654 ], [ 127.140278158325913, 37.46371599285002 ], [ 127.140195683999664, 37.463762723951447 ], [ 127.140195617524327, 37.463762761741883 ], [ 127.140112914127712, 37.46380913416165 ], [ 127.140112848550686, 37.463809170525998 ], [ 127.140029695098079, 37.463855092284376 ], [ 127.140029628622756, 37.463855129361733 ], [ 127.139995141400675, 37.463873964661467 ], [ 127.139995074925352, 37.463874000312764 ], [ 127.140320995388535, 37.464264654168403 ], [ 127.140321060965533, 37.464264617091231 ], [ 127.140506521749231, 37.464161541080308 ], [ 127.140506590021204, 37.464161505429161 ], [ 127.140659531791556, 37.464080361188387 ], [ 127.140659573114064, 37.464080337658622 ] ] ] } },
{ "type": "Feature", "properties": { "zoneCode": "11710KL2006001", "zoneName": "위례 택지개발사업 예정지구", "blockName": "근상3", "blockType": "근린상업", "lotName": "1-2", "parcel_id": "근상3-1-2", "area_sqm": 899.97363613112077 }, "geometry": { "type": "Polygon", "coordinates": [ [ [ 127.143075642376374, 37.481343308587668 ], [ 127.143075640579738, 37.481343281499015 ], [ 127.143058851965392, 37.481073296895097 ], [ 127.142788055721297, 37.481083981270601 ], [ 127.142787981161135, 37.48108397770627 ], [ 127.14272022303588, 37.481086673750099 ], [ 127.142720149374028, 37.48108667802726 ], [ 127.142736823902339, 37.481356572762543 ], [ 127.142736824800664, 37.481356597712612 ], [ 127.143075642376374, 37.481343308587668 ] ] ] } },
{ "type": "Feature", "properties": { "zoneCode": "11710KL2006001", "zoneName": "위례 택지개발사업 예정지구", "blockName": "업무3", "blockType": "업무시설", "lotName": "업무3", "parcel_id": "업무3", "area_sqm": 11470.810914942977 }, "geometry": { "type": "Polygon", "coordinates": [ [ [ 127.139108245500466, 37.490719928743772 ], [ 127.139108240110573, 37.490719838934744 ], [ 127.139025166608036, 37.48938005881454 ], [ 127.138858082660136, 37.489386530169149 ], [ 127.138854967302734, 37.489386650629406 ], [ 127.138854892742572, 37.489386652767784 ], [ 127.137937207085983, 37.489422763044381 ], [ 127.13793714779716, 37.489422765895512 ], [ 127.137940984501753, 37.489480604598931 ], [ 127.138214118162182, 37.490446342171026 ], [ 127.139029325807812, 37.490722993654686 ], [ 127.139108245500466, 37.490719928743772 ] ] ] } },
{ "type": "Feature", "properties": { "zoneCode": "11710KL2006001", "zoneName": "위례 택지개발사업 예정지구", "blockName": "일상3", "blockType": "일반상업", "lotName": "1-3", "parcel_id": "일상3-1-3", "area_sqm": 2818.8290530720683 }, "geometry": { "type": "Polygon", "coordinates": [ [ [ 127.14141769821326, 37.4643463450967 ], [ 127.141099927266339, 37.463965684717039 ], [ 127.140891313304522, 37.464076448824912 ], [ 127.140891246829199, 37.464076483763108 ], [ 127.140609005150083, 37.464226257190901 ], [ 127.140608936878152, 37.464226292842056 ], [ 127.14059760193588, 37.46427036547739 ], [ 127.140892482911042, 37.464623831907289 ], [ 127.14089255926784, 37.46462379269127 ], [ 127.14141769821326, 37.4643463450967 ] ] ] } },
{ "type": "Feature", "properties": { "zoneCode": "11710KL2006001", "zoneName": "위례 택지개발사업 예정지구", "blockName": "업무26", "blockType": "업무시설", "lotName": "업무26", "parcel_id": "업무26", "area_sqm": 22859.616353166606 }, "geometry": { "type": "Polygon", "coordinates": [ [ [ 127.149864161571116, 37.481815213646549 ], [ 127.149864236131279, 37.481815210795133 ], [ 127.150699505852131, 37.481782536367966 ], [ 127.150699504953806, 37.481782509992328 ], [ 127.150675797515163, 37.48140171385355 ], [ 127.150649167856855, 37.480972960782822 ], [ 127.150607275821912, 37.480942649842049 ], [ 127.147967458680213, 37.481047132002232 ], [ 127.147967417357705, 37.48104713414083 ], [ 127.147889195656049, 37.481113183654152 ], [ 127.147912652464726, 37.481488331863346 ], [ 127.147924521904585, 37.481660498297003 ], [ 127.147905173989997, 37.481769543153781 ], [ 127.147912722533349, 37.481813773679512 ], [ 127.147917750403977, 37.481840526409073 ], [ 127.147923228330583, 37.481867189309405 ], [ 127.147928929937677, 37.481891599580877 ], [ 127.147929008989422, 37.481891596729461 ], [ 127.149864161571116, 37.481815213646549 ] ] ] } },
{ "type": "Feature", "properties": { "zoneCode": "11710KL2006001", "zoneName": "위례 택지개발사업 예정지구", "blockName": "업무15", "blockType": "업무시설", "lotName": "업무15", "parcel_id": "업무15", "area_sqm": 30050.507530002316 }, "geometry": { "type": "Polygon", "coordinates": [ [ [ 127.142219030480987, 37.488603871396755 ], [ 127.140795976900066, 37.488659885279951 ], [ 127.140795904136553, 37.488659888131117 ], [ 127.140919227553681, 37.490648671667664 ], [ 127.140919229350303, 37.490648699465723 ], [ 127.141598158974034, 37.490967210342156 ], [ 127.142029621601637, 37.490950299928073 ], [ 127.142029642262898, 37.490950272130128 ], [ 127.142141412447174, 37.490808529565641 ], [ 127.14227314409537, 37.490386705175929 ], [ 127.142214519141646, 37.489454510364631 ], [ 127.142257275355888, 37.489221281291584 ], [ 127.142219030480987, 37.488603871396755 ] ] ] } },
{ "type": "Feature", "properties": { "zoneCode": "11710KL2006001", "zoneName": "위례 택지개발사업 예정지구", "blockName": "업무14", "blockType": "업무시설", "lotName": "업무14", "parcel_id": "업무14", "area_sqm": 1994.0251349653929 }, "geometry": { "type": "Polygon", "coordinates": [ [ [ 127.151116489433974, 37.471807021466475 ], [ 127.151116487637339, 37.471806994374369 ], [ 127.151096752548867, 37.471489803479002 ], [ 127.150458280350534, 37.471514753994107 ], [ 127.150458206688711, 37.471514756845934 ], [ 127.150478393629811, 37.471832334767342 ], [ 127.150478467291634, 37.471832331915536 ], [ 127.151116489433974, 37.471807021466475 ] ] ] } },
{ "type": "Feature", "properties": { "zoneCode": "11710KL2006001", "zoneName": "위례 택지개발사업 예정지구", "blockName": "업무10", "blockType": "업무시설", "lotName": "업무10", "parcel_id": "업무10", "area_sqm": 1810.4758321063025 }, "geometry": { "type": "Polygon", "coordinates": [ [ [ 127.142494807883324, 37.471570025672229 ], [ 127.142463790853185, 37.471066221656308 ], [ 127.142098642758199, 37.471080259075215 ], [ 127.142098569096319, 37.471080261927035 ], [ 127.142129922096387, 37.471584336057326 ], [ 127.142129995758239, 37.471584333205499 ], [ 127.142244732179591, 37.471579834474738 ], [ 127.142494807883324, 37.471570025672229 ] ] ] } },
{ "type": "Feature", "properties": { "zoneCode": "11710KL2006001", "zoneName": "위례 택지개발사업 예정지구", "blockName": "근상1", "blockType": "근린상업", "lotName": "1-2", "parcel_id": "근상1-1-2", "area_sqm": 1598.069644697872 }, "geometry": { "type": "Polygon", "coordinates": [ [ [ 127.136984477251815, 37.465705513750216 ], [ 127.136984464675393, 37.465705495924993 ], [ 127.136743286784565, 37.465338986488177 ], [ 127.136743232885664, 37.465339013582643 ], [ 127.136395072830965, 37.465484891442792 ], [ 127.136395046779825, 37.465484902137959 ], [ 127.136636147415587, 37.465851149898775 ], [ 127.136667623484826, 37.465837989923024 ], [ 127.1369844341327, 37.465705535853466 ], [ 127.136984477251815, 37.465705513750216 ] ] ] } },
{ "type": "Feature", "properties": { "zoneCode": "11710KL2006001", "zoneName": "위례 택지개발사업 예정지구", "blockName": "업무16", "blockType": "업무시설", "lotName": "업무16", "parcel_id": "업무16", "area_sqm": 6143.3185986981025 }, "geometry": { "type": "Polygon", "coordinates": [ [ [ 127.138854892742572, 37.489386652767784 ], [ 127.138817839932031, 37.488788703366353 ], [ 127.138750813035443, 37.488740307867786 ], [ 127.138573190052625, 37.488747271102085 ], [ 127.138572257601353, 37.488747279655527 ], [ 127.138465795562084, 37.488748268293634 ], [ 127.138462269674605, 37.488748301081898 ], [ 127.138456029078313, 37.488747983178108 ], [ 127.138357873760484, 37.488742989379503 ], [ 127.138351448111251, 37.488742662922206 ], [ 127.138343745956021, 37.488741800447706 ], [ 127.138249164136369, 37.48873121125547 ], [ 127.138241521269933, 37.488730356621467 ], [ 127.138235225876429, 37.4887292596392 ], [ 127.138139934387681, 37.488712669473557 ], [ 127.138133050597688, 37.48871147127501 ], [ 127.138129204011648, 37.488710552489756 ], [ 127.138027659350271, 37.488686320505174 ], [ 127.138026718814146, 37.488686088848624 ], [ 127.138026486150466, 37.488686024697579 ], [ 127.137926295250224, 37.488655425354949 ], [ 127.137922972381986, 37.488654409629625 ], [ 127.137885874655709, 37.488641342767565 ], [ 127.137885748891534, 37.488641297861832 ], [ 127.13793714779716, 37.489422765895512 ], [ 127.137937207085983, 37.489422763044381 ], [ 127.138854892742572, 37.489386652767784 ] ] ] } },
{ "type": "Feature", "properties": { "zoneCode": "11710KL2006001", "zoneName": "위례 택지개발사업 예정지구", "blockName": "일상2", "blockType": "일반상업", "lotName": "1-4", "parcel_id": "일상2-1-4", "area_sqm": 1067.5837496417191 }, "geometry": { "type": "Polygon", "coordinates": [ [ [ 127.140675758958849, 37.464689408230846 ], [ 127.140675693381837, 37.464689329085822 ], [ 127.140490923402609, 37.464467900918699 ], [ 127.140379667054688, 37.464451723196362 ], [ 127.140374313993902, 37.464454756385869 ], [ 127.140374248416876, 37.464454793462949 ], [ 127.140316159757333, 37.464486360302367 ], [ 127.140316092383728, 37.464486396666402 ], [ 127.140257326394433, 37.464517423736361 ], [ 127.140257259020814, 37.464517460100396 ], [ 127.140198153468376, 37.464547858274109 ], [ 127.140198084298078, 37.464547893212064 ], [ 127.14016461307061, 37.464564567175167 ], [ 127.14016454390034, 37.464564601400099 ], [ 127.140393496618486, 37.464838958682591 ], [ 127.140393624179254, 37.464838889519939 ], [ 127.14041615392658, 37.464826953616175 ], [ 127.140675758958849, 37.464689408230846 ] ] ] } },
{ "type": "Feature", "properties": { "zoneCode": "11710KL2006001", "zoneName": "위례 택지개발사업 예정지구", "blockName": "근상1", "blockType": "근린상업", "lotName": "1-3", "parcel_id": "근상1-1-3", "area_sqm": 1598.7372765672094 }, "geometry": { "type": "Polygon", "coordinates": [ [ [ 127.137332819664508, 37.46555978248761 ], [ 127.137091402821781, 37.465193165384399 ], [ 127.137091347126244, 37.465193192478957 ], [ 127.136743286784565, 37.465338986488177 ], [ 127.136984464675393, 37.465705495924993 ], [ 127.136984477251815, 37.465705513750216 ], [ 127.137122704617838, 37.465647688015046 ], [ 127.137332776545364, 37.46555980459091 ], [ 127.137332819664508, 37.46555978248761 ] ] ] } },
{ "type": "Feature", "properties": { "zoneCode": "11710KL2006001", "zoneName": "위례 택지개발사업 예정지구", "blockName": "근상1", "blockType": "근린상업", "lotName": "1-1", "parcel_id": "근상1-1-1", "area_sqm": 1613.7286918656193 }, "geometry": { "type": "Polygon", "coordinates": [ [ [ 127.136636147415587, 37.465851149898775 ], [ 127.136395046779825, 37.465484902137959 ], [ 127.136395002762399, 37.465484924241295 ], [ 127.136070243820882, 37.465620896690325 ], [ 127.13606751473904, 37.465622039644444 ], [ 127.136067441975499, 37.465622070303844 ], [ 127.136052814707753, 37.465659387781777 ], [ 127.136240628179138, 37.465944702094149 ], [ 127.136348514946448, 37.465971428419287 ], [ 127.136348587709989, 37.465971397760036 ], [ 127.13663609082171, 37.46585117699307 ], [ 127.136636147415587, 37.465851149898775 ] ] ] } },
{ "type": "Feature", "properties": { "zoneCode": "11710KL2006001", "zoneName": "위례 택지개발사업 예정지구", "blockName": "일상9", "blockType": "일반상업", "lotName": "1-2", "parcel_id": "일상9-1-2", "area_sqm": 7156.0403936524208 }, "geometry": { "type": "Polygon", "coordinates": [ [ [ 127.157583563572288, 37.487970729264553 ], [ 127.156916486320398, 37.488744539695261 ], [ 127.156916458472622, 37.488744571057985 ], [ 127.157035885896391, 37.488810007183766 ], [ 127.157211160683062, 37.488925825200965 ], [ 127.15723346585149, 37.488940031046859 ], [ 127.157472659363947, 37.489071081807872 ], [ 127.157472759975249, 37.489071066839379 ], [ 127.157585131132436, 37.489054624296344 ], [ 127.157585149098779, 37.489054604338314 ], [ 127.158183191719374, 37.488360874411093 ], [ 127.158166421071343, 37.488290078400134 ], [ 127.157583588725132, 37.48797074209488 ], [ 127.157583563572288, 37.487970729264553 ] ] ] } },
{ "type": "Feature", "properties": { "zoneCode": "11710KL2006001", "zoneName": "위례 택지개발사업 예정지구", "blockName": "근상1", "blockType": "근린상업", "lotName": "1-4", "parcel_id": "근상1-1-4", "area_sqm": 1601.736876232804 }, "geometry": { "type": "Polygon", "coordinates": [ [ [ 127.137681569912289, 37.465413981778795 ], [ 127.137440138696547, 37.465047100145149 ], [ 127.137091402821781, 37.465193165384399 ], [ 127.137332819664508, 37.46555978248761 ], [ 127.137332846613958, 37.465559771079441 ], [ 127.137681569912289, 37.465413981778795 ] ] ] } },
{ "type": "Feature", "properties": { "zoneCode": "11710KL2006001", "zoneName": "위례 택지개발사업 예정지구", "blockName": "지원1", "blockType": "도시지원시설용지", "lotName": "지원1", "parcel_id": "지원1", "area_sqm": 88645.051335221287 }, "geometry": { "type": "Polygon", "coordinates": [ [ [ 127.136654643727283, 37.469043024796882 ], [ 127.136653912498645, 37.469042495768093 ], [ 127.136653831650264, 37.46904243730399 ], [ 127.136622010627946, 37.469019406723774 ], [ 127.136615893100853, 37.469013497569954 ], [ 127.136561718401012, 37.468960627448972 ], [ 127.136556288983442, 37.468955326460438 ], [ 127.135098003477097, 37.469012681211211 ], [ 127.134409621779952, 37.46903975152032 ], [ 127.134409577762469, 37.469039027135864 ], [ 127.133461451794162, 37.469076444863795 ], [ 127.132870283082099, 37.469099772024592 ], [ 127.132859150260742, 37.469100214069861 ], [ 127.132848279747492, 37.469100666809794 ], [ 127.13283769220358, 37.469101149494698 ], [ 127.132827386730625, 37.469101679949027 ], [ 127.132817364227023, 37.469102275284179 ], [ 127.132815012437618, 37.469102438555744 ], [ 127.132807633675867, 37.469102950472674 ], [ 127.13279819328055, 37.469103718348059 ], [ 127.132789045736004, 37.469104588892023 ], [ 127.132779592764251, 37.469105639818949 ], [ 127.132735947217867, 37.469113077586286 ], [ 127.132693629381492, 37.469124385386856 ], [ 127.132653179142523, 37.469139422049601 ], [ 127.132613690999278, 37.469158637460055 ], [ 127.132577292162281, 37.469181399205645 ], [ 127.132544477603275, 37.469207395712978 ], [ 127.1325157036664, 37.469236271204188 ], [ 127.132510312876391, 37.469242542531617 ], [ 127.132505263446177, 37.46924867411547 ], [ 127.132500197846298, 37.469255063795671 ], [ 127.13249510529694, 37.469261702303506 ], [ 127.132489974120034, 37.469268585361036 ], [ 127.132484786349281, 37.469275697995776 ], [ 127.132479525814958, 37.469283035929763 ], [ 127.132474174550822, 37.469290589894314 ], [ 127.132468717285505, 37.469298335648183 ], [ 127.132376620205903, 37.469429177736728 ], [ 127.132371083888827, 37.469437043255709 ], [ 127.132365536791951, 37.469444920894404 ], [ 127.132359973525396, 37.469452811365784 ], [ 127.132354395885784, 37.469460716095782 ], [ 127.132348799381589, 37.469468631519533 ], [ 127.132345359732327, 37.469473482585883 ], [ 127.132343175029575, 37.469476566905698 ], [ 127.132337535406194, 37.469484504429907 ], [ 127.13233187063004, 37.46949245050898 ], [ 127.132326181599339, 37.46950040514286 ], [ 127.132320464720863, 37.469508366192642 ], [ 127.132314716401368, 37.469516334371285 ], [ 127.132308938437461, 37.469524307539899 ], [ 127.132303125439279, 37.469532286411436 ], [ 127.132297276508453, 37.469540266708087 ], [ 127.13229143296752, 37.469548192105023 ], [ 127.132213483455359, 37.469649309287561 ], [ 127.132130944450424, 37.469748084939653 ], [ 127.132123990591822, 37.469756137936187 ], [ 127.132084615636288, 37.469800360600068 ], [ 127.132065711489446, 37.46992443431423 ], [ 127.132065703404606, 37.469924482796088 ], [ 127.13206569352316, 37.469924546963227 ], [ 127.132262892592635, 37.470222855906982 ], [ 127.13226294199994, 37.470222816693877 ], [ 127.132266555922342, 37.470228397074997 ], [ 127.132266765229815, 37.470228723613182 ], [ 127.132272129968698, 37.470237005419833 ], [ 127.132277495605891, 37.470245312179365 ], [ 127.132282857649841, 37.470253641752819 ], [ 127.132288219693748, 37.470261993427329 ], [ 127.132293577246102, 37.470270370054642 ], [ 127.13229893210351, 37.470278770921837 ], [ 127.132304281571024, 37.470287195315926 ], [ 127.132309626546984, 37.470295645375813 ], [ 127.13231440199101, 37.470303224191781 ], [ 127.132314965234698, 37.470304119675554 ], [ 127.132320296735926, 37.470312619641021 ], [ 127.132325617457354, 37.47032114527228 ], [ 127.132330931890564, 37.470329697282253 ], [ 127.132336236442313, 37.470338274244988 ], [ 127.132341530214291, 37.470346878299402 ], [ 127.132346813206453, 37.470355509445447 ], [ 127.132351680278703, 37.470363506765345 ], [ 127.132352082723955, 37.470364169109082 ], [ 127.132357338766639, 37.47037285443843 ], [ 127.132362581334661, 37.470381568998278 ], [ 127.132367809529583, 37.470390309936775 ], [ 127.132373020656587, 37.470399080818758 ], [ 127.132378213817233, 37.470407878792315 ], [ 127.132383389011565, 37.470416707422253 ], [ 127.132388546239639, 37.470425564569723 ], [ 127.132393682806423, 37.470434450234677 ], [ 127.132398799610272, 37.470443367268942 ], [ 127.132403893057941, 37.47045231353367 ], [ 127.132408964047713, 37.470461290454757 ], [ 127.132414012579616, 37.470470297319203 ], [ 127.132419035958691, 37.470479335552938 ], [ 127.1324240323883, 37.470488404442996 ], [ 127.132429000970134, 37.470497505415267 ], [ 127.132433943500843, 37.470506636330896 ], [ 127.132438856387097, 37.470515802180579 ], [ 127.132443740527293, 37.470524997260597 ], [ 127.132448593226485, 37.470534226561696 ], [ 127.132453412687994, 37.470543486519034 ], [ 127.132458198013509, 37.470552779271486 ], [ 127.132462950999667, 37.470562105532039 ], [ 127.132467668951548, 37.470571464587664 ], [ 127.132472348275854, 37.470580857151361 ], [ 127.132476991667559, 37.470590282510102 ], [ 127.132481595533392, 37.470599742802811 ], [ 127.132486160771663, 37.470609235177605 ], [ 127.132490685585765, 37.470618763199276 ], [ 127.132495165484059, 37.470628324015983 ], [ 127.132499605856523, 37.470637919053601 ], [ 127.132503998618247, 37.470647549738096 ], [ 127.132508346464206, 37.470657214643474 ], [ 127.132512649394442, 37.47066691376974 ], [ 127.132516902917317, 37.470676647116875 ], [ 127.132521107931154, 37.470686415397871 ], [ 127.132525260842698, 37.470696219325632 ], [ 127.132529363448654, 37.470706056761266 ], [ 127.132533259442013, 37.470715550548469 ], [ 127.132568946813294, 37.470811033055668 ], [ 127.132569308834334, 37.470812001968199 ], [ 127.132569568447465, 37.470812846112764 ], [ 127.132599465278432, 37.470909730173069 ], [ 127.132623657807358, 37.471008507724392 ], [ 127.132641652859149, 37.471107128294641 ], [ 127.132641829827236, 37.471108100055176 ], [ 127.132641966371182, 37.47110922581443 ], [ 127.132653935524019, 37.471208251923848 ], [ 127.132653939117276, 37.47120827759025 ], [ 127.132654005592599, 37.47120827473843 ], [ 127.136203512486546, 37.471068716294553 ], [ 127.136203587945033, 37.471068698470638 ], [ 127.13633732912453, 37.471036389369672 ], [ 127.136665262712242, 37.471023491249291 ], [ 127.136665293254978, 37.471023462730969 ], [ 127.136741229642581, 37.470956655693335 ], [ 127.13674166083392, 37.470956277112336 ], [ 127.136671736870497, 37.469828433771752 ], [ 127.136694469637106, 37.469647036335935 ], [ 127.136661522127426, 37.469115572289731 ], [ 127.136654643727283, 37.469043024796882 ] ] ] } },
{ "type": "Feature", "properties": { "zoneCode": "11710KL2006001", "zoneName": "위례 택지개발사업 예정지구", "blockName": "업무6", "blockType": "업무시설", "lotName": "업무6", "parcel_id": "업무6", "area_sqm": 3013.1139701593402 }, "geometry": { "type": "Polygon", "coordinates": [ [ [ 127.143107358295794, 37.471546227307464 ], [ 127.143107356499158, 37.471546201641175 ], [ 127.143080072867349, 37.471105310253989 ], [ 127.142995968098859, 37.471045133083436 ], [ 127.142463864515037, 37.471066219517446 ], [ 127.142463790853185, 37.471066221656308 ], [ 127.142494807883324, 37.471570025672229 ], [ 127.142494883341811, 37.471570023533339 ], [ 127.142918710289507, 37.471553557176101 ], [ 127.143107358295794, 37.471546227307464 ] ] ] } },
{ "type": "Feature", "properties": { "zoneCode": "11710KL2006001", "zoneName": "위례 택지개발사업 예정지구", "blockName": "일상3", "blockType": "일반상업", "lotName": "2-2", "parcel_id": "일상3-2-2", "area_sqm": 2075.9545397085926 }, "geometry": { "type": "Polygon", "coordinates": [ [ [ 127.140822706271351, 37.463993762218905 ], [ 127.140822772746674, 37.463993727280695 ], [ 127.141031048941926, 37.463883143445827 ], [ 127.140738205345812, 37.463532457893869 ], [ 127.140627064880562, 37.463516370523877 ], [ 127.140360361360891, 37.46366886384974 ], [ 127.140330705278473, 37.463685903792182 ], [ 127.140330726838002, 37.463685928035147 ], [ 127.140659573114064, 37.464080337658622 ], [ 127.14065959916519, 37.464080324111151 ], [ 127.140822706271351, 37.463993762218905 ] ] ] } },
{ "type": "Feature", "properties": { "zoneCode": "11710KL2006001", "zoneName": "위례 택지개발사업 예정지구", "blockName": "업무11", "blockType": "업무시설", "lotName": "업무11", "parcel_id": "업무11", "area_sqm": 1692.7974130107614 }, "geometry": { "type": "Polygon", "coordinates": [ [ [ 127.149926765163258, 37.468362816883349 ], [ 127.14992675168854, 37.468362789076991 ], [ 127.149911787552497, 37.468334364566957 ], [ 127.149895906236608, 37.468305732567821 ], [ 127.149879232606594, 37.468277281655681 ], [ 127.149861881646942, 37.468249192215794 ], [ 127.149843853357467, 37.468221373699492 ], [ 127.149827981923039, 37.468198238057532 ], [ 127.149811431362238, 37.468175012572303 ], [ 127.149794316659438, 37.468151878341935 ], [ 127.149776638712993, 37.468129104875096 ], [ 127.149758619406683, 37.468106512499709 ], [ 127.149728137772485, 37.468069249004245 ], [ 127.149697317473382, 37.468032166588799 ], [ 127.149641231158625, 37.467965202159505 ], [ 127.149615213253071, 37.467978445180272 ], [ 127.149615144981084, 37.46797848011667 ], [ 127.14929146491626, 37.468150219938124 ], [ 127.149291397542598, 37.468150255587403 ], [ 127.149294215557632, 37.46837619601348 ], [ 127.149294215557632, 37.468376223819845 ], [ 127.149926765163258, 37.468362816883349 ] ] ] } },
{ "type": "Feature", "properties": { "zoneCode": "11710KL2006001", "zoneName": "위례 택지개발사업 예정지구", "blockName": "일상11", "blockType": "일반상업", "lotName": "1-2", "parcel_id": "일상11-1-2", "area_sqm": 4656.8799751620327 }, "geometry": { "type": "Polygon", "coordinates": [ [ [ 127.143165075951089, 37.472480213326897 ], [ 127.143135110848164, 37.471996065025664 ], [ 127.142157969296179, 37.472034260525881 ], [ 127.142157896532652, 37.472034263377651 ], [ 127.14218797123003, 37.47251860677801 ], [ 127.142188045790192, 37.472518603926233 ], [ 127.143165075951089, 37.472480213326897 ] ] ] } },
{ "type": "Feature", "properties": { "zoneCode": "11710KL2006001", "zoneName": "위례 택지개발사업 예정지구", "blockName": "근상1", "blockType": "근린상업", "lotName": "2-2", "parcel_id": "근상1-2-2", "area_sqm": 1930.653807997101 }, "geometry": { "type": "Polygon", "coordinates": [ [ [ 127.1385816000803, 37.465037470878222 ], [ 127.138339844572741, 37.464670145325449 ], [ 127.138339782588972, 37.464670163150927 ], [ 127.137920131010731, 37.464846041079035 ], [ 127.13792010406128, 37.46484605248731 ], [ 127.138161765245741, 37.46521311193483 ], [ 127.138161791296895, 37.465213101239648 ], [ 127.138581558757807, 37.465037491555641 ], [ 127.1385816000803, 37.465037470878222 ] ] ] } },
{ "type": "Feature", "properties": { "zoneCode": "11710KL2006001", "zoneName": "위례 택지개발사업 예정지구", "blockName": "일상7", "blockType": "일반상업", "lotName": "일상7", "parcel_id": "일상7", "area_sqm": 4909.2580301269309 }, "geometry": { "type": "Polygon", "coordinates": [ [ [ 127.158857977414726, 37.489105735303703 ], [ 127.158149821103208, 37.488717822938938 ], [ 127.158149788763865, 37.488717805119236 ], [ 127.157975627888149, 37.488920039507718 ], [ 127.157925757915152, 37.489025973149303 ], [ 127.157800212964304, 37.489171740628123 ], [ 127.157818817972156, 37.489260594186369 ], [ 127.157818827853632, 37.48926064550681 ], [ 127.158351331187774, 37.4895523139798 ], [ 127.158385404286463, 37.489571009513938 ], [ 127.158424264507346, 37.489607448293278 ], [ 127.158424334575912, 37.489607369887423 ], [ 127.158427649359339, 37.489603659151449 ], [ 127.158857977414726, 37.489105735303703 ] ] ] } },
{ "type": "Feature", "properties": { "zoneCode": "11710KL2006001", "zoneName": "위례 택지개발사업 예정지구", "blockName": "업무7", "blockType": "업무시설", "lotName": "업무7", "parcel_id": "업무7", "area_sqm": 1501.3577563462525 }, "geometry": { "type": "Polygon", "coordinates": [ [ [ 127.152694651521742, 37.477270309970343 ], [ 127.152361089090448, 37.476906912019786 ], [ 127.152087773071997, 37.477067149356763 ], [ 127.152087707494957, 37.477067188566281 ], [ 127.152202479848924, 37.477191290140077 ], [ 127.152231029206973, 37.477220986657997 ], [ 127.152366309200573, 37.477367227008301 ], [ 127.152398715924434, 37.47740286545347 ], [ 127.152421829576681, 37.477428784247238 ], [ 127.152426136100161, 37.477433554952526 ], [ 127.152426200778848, 37.477433515743193 ], [ 127.152694651521742, 37.477270309970343 ] ] ] } },
{ "type": "Feature", "properties": { "zoneCode": "11710KL2006001", "zoneName": "위례 택지개발사업 예정지구", "blockName": "일상3", "blockType": "일반상업", "lotName": "1-2", "parcel_id": "일상3-1-2", "area_sqm": 2822.4981155216296 }, "geometry": { "type": "Polygon", "coordinates": [ [ [ 127.141734226790149, 37.464725472688727 ], [ 127.14141769821326, 37.4643463450967 ], [ 127.14089255926784, 37.46462379269127 ], [ 127.140892482911042, 37.464623831907289 ], [ 127.140892941950142, 37.464624382357897 ], [ 127.141209353746049, 37.465003601945035 ], [ 127.14120991339648, 37.465004272179435 ], [ 127.141209966397071, 37.465004242232794 ], [ 127.141734226790149, 37.464725472688727 ] ] ] } },
{ "type": "Feature", "properties": { "zoneCode": "11710KL2006001", "zoneName": "위례 택지개발사업 예정지구", "blockName": "일상1", "blockType": "일반상업", "lotName": "1-1", "parcel_id": "일상1-1-1", "area_sqm": 3041.7973343238609 }, "geometry": { "type": "Polygon", "coordinates": [ [ [ 127.1408882608292, 37.465756858909927 ], [ 127.14055099913557, 37.465352883806212 ], [ 127.13999754708901, 37.465646101569618 ], [ 127.13999747791874, 37.4656461386461 ], [ 127.140072094681202, 37.465735563492807 ], [ 127.14017940113682, 37.465815086696914 ], [ 127.140196166394986, 37.465835159996715 ], [ 127.140214180311361, 37.465857301724995 ], [ 127.140231516898027, 37.465879717241378 ], [ 127.140248287546058, 37.46590231242876 ], [ 127.140264494950415, 37.46592526839062 ], [ 127.140280136416123, 37.465948497426844 ], [ 127.140295101450462, 37.465971994546152 ], [ 127.140425376031331, 37.4660023864244 ], [ 127.140425445201558, 37.466002350774112 ], [ 127.1408882608292, 37.465756858909927 ] ] ] } },
{ "type": "Feature", "properties": { "zoneCode": "11710KL2006001", "zoneName": "위례 택지개발사업 예정지구", "blockName": "일상1", "blockType": "일반상업", "lotName": "1-2", "parcel_id": "일상1-1-2", "area_sqm": 2857.2237970170559 }, "geometry": { "type": "Polygon", "coordinates": [ [ [ 127.14055099913557, 37.465352883806212 ], [ 127.14024671369765, 37.464988336285415 ], [ 127.13969333710962, 37.465281501289603 ], [ 127.139693263447796, 37.465281541931333 ], [ 127.139997437494557, 37.465646091587487 ], [ 127.13999747791874, 37.4656461386461 ], [ 127.13999754708901, 37.465646101569618 ], [ 127.14055099913557, 37.465352883806212 ] ] ] } },
{ "type": "Feature", "properties": { "zoneCode": "11710KL2006001", "zoneName": "위례 택지개발사업 예정지구", "blockName": "업무18", "blockType": "업무시설", "lotName": "업무18", "parcel_id": "업무18", "area_sqm": 1479.3577763624271 }, "geometry": { "type": "Polygon", "coordinates": [ [ [ 127.143767935338275, 37.461729455873559 ], [ 127.143702331373078, 37.461764763791102 ], [ 127.143686974673301, 37.461773071492033 ], [ 127.143665464513845, 37.461784627829765 ], [ 127.143657458728001, 37.461788928923241 ], [ 127.143657391354367, 37.461788964575554 ], [ 127.143544995044294, 37.461850061182275 ], [ 127.143544928569, 37.46185009754759 ], [ 127.143478308609232, 37.461886847898278 ], [ 127.143447668871488, 37.461903713550839 ], [ 127.143433098197576, 37.461911733879276 ], [ 127.143433030823942, 37.461911770957613 ], [ 127.143406045432812, 37.461926759871027 ], [ 127.143395271039282, 37.461932772263388 ], [ 127.143395204563959, 37.461932809341725 ], [ 127.143403700829907, 37.461942530278229 ], [ 127.14345218470244, 37.461998514234281 ], [ 127.143523096812643, 37.462080149882063 ], [ 127.143567275059979, 37.462131004105956 ], [ 127.143633090129285, 37.46220687965608 ], [ 127.143633156604622, 37.462206843290929 ], [ 127.143701515702801, 37.462169494854976 ], [ 127.143796211608461, 37.462117824223192 ], [ 127.143848304911785, 37.462089399477904 ], [ 127.144005369949312, 37.46200361535076 ], [ 127.143869206911859, 37.461846374024447 ], [ 127.143767935338275, 37.461729455873559 ] ] ] } },
{ "type": "Feature", "properties": { "zoneCode": "11710KL2006001", "zoneName": "위례 택지개발사업 예정지구", "blockName": "근상1", "blockType": "근린상업", "lotName": "2-1", "parcel_id": "근상1-2-1", "area_sqm": 1930.6191424643309 }, "geometry": { "type": "Polygon", "coordinates": [ [ [ 127.138161765245741, 37.46521311193483 ], [ 127.13792010406128, 37.46484605248731 ], [ 127.137920062738786, 37.464846073877808 ], [ 127.137507345256225, 37.465018954589382 ], [ 127.137500174005282, 37.465021957809235 ], [ 127.137500115614813, 37.46502198347779 ], [ 127.137741660916589, 37.465388863808677 ], [ 127.137741731883523, 37.465388833862164 ], [ 127.138161723024922, 37.465213134038237 ], [ 127.138161765245741, 37.46521311193483 ] ] ] } },
{ "type": "Feature", "properties": { "zoneCode": "11710KL2006001", "zoneName": "위례 택지개발사업 예정지구", "blockName": "업무35", "blockType": "업무시설", "lotName": "업무35", "parcel_id": "업무35", "area_sqm": 17943.141087350265 }, "geometry": { "type": "Polygon", "coordinates": [ [ [ 127.128495882008835, 37.469411962998876 ], [ 127.128495955670687, 37.469411960859972 ], [ 127.128515098769384, 37.469411533788993 ], [ 127.128515175126182, 37.469411513825733 ], [ 127.129472156686575, 37.469159264878648 ], [ 127.129420000501185, 37.468449624686819 ], [ 127.128059794854167, 37.468655931579931 ], [ 127.127157755154911, 37.468789721536055 ], [ 127.126966970056529, 37.468817378707605 ], [ 127.126966896394677, 37.468817389402282 ], [ 127.127014189999414, 37.469446266987347 ], [ 127.127014192694375, 37.469446294080321 ], [ 127.127206658540644, 37.469438853494225 ], [ 127.127843608992848, 37.469426514069106 ], [ 127.128495882008835, 37.469411962998876 ] ] ] } }
]
}
