{
"type": "FeatureCollection",
"name": "pangyo_boundary_user_drawn2_5186",
"crs": { "type": "name", "properties": { "name": "urn:ogc:def:crs:EPSG::5186" } },
"features": [
{ "type": "Feature", "properties": { "name": "pangyo_boundary_user_drawn", "source": "dashboard_boundary_editor_click_vertices", "crs": "EPSG:4326", "vertex_count": 64 }, "geometry": { "type": "Polygon", "coordinates": [ [ [ 209543.0694091959449, 533389.503996488871053 ], [ 209543.174218790780287, 533297.767926829867065 ], [ 209712.58502912404947, 533295.854307116591372 ], [ 209714.59226165706059, 533390.756159666809253 ], [ 209998.4252737860661, 533391.97791971731931 ], [ 210001.083903742808616, 533757.357219246565364 ], [ 209954.436023657675833, 533931.504771736450493 ], [ 209890.837562567146961, 534042.42410586529877 ], [ 209849.066413285851013, 534022.334098801598884 ], [ 209837.936957267054822, 534011.424521325156093 ], [ 209817.326905226247618, 534004.940503831021488 ], [ 209787.441796749160858, 534005.828248158097267 ], [ 209761.016749692731537, 534019.408955210237764 ], [ 209740.394280049484223, 534023.537574014393613 ], [ 209714.234838545526145, 534008.04982775868848 ], [ 209701.26863301746198, 534002.267107679625042 ], [ 209686.71852657943964, 533963.952940138638951 ], [ 209651.532031460519647, 533941.533590184175409 ], [ 209606.144811415462755, 533925.562417886219919 ], [ 209585.280464235256659, 533938.458085354999639 ], [ 209573.677844816935249, 533955.51712866849266 ], [ 209556.0737602195004, 533953.651307860156521 ], [ 209534.114472889545141, 533911.175962428795174 ], [ 209499.136179062101291, 533908.829018181888387 ], [ 209455.560517652775161, 533929.312597891199403 ], [ 209435.149569704954047, 533951.206737952656113 ], [ 209433.502926947345259, 533973.352752693113871 ], [ 209417.261752797057852, 533995.482238771859556 ], [ 209397.332297490589553, 534001.45814538479317 ], [ 209362.119065026286989, 534002.341417967691086 ], [ 209341.744155310065253, 533992.398240292444825 ], [ 209326.242038381897146, 533975.308637695736252 ], [ 209307.052006724959938, 533970.578110236325301 ], [ 209281.105055640509818, 533971.472060351981781 ], [ 209251.207111659168731, 533983.897041982854716 ], [ 209233.584395477344515, 533998.873441962292418 ], [ 209202.276837637735298, 534029.292021642089821 ], [ 209194.614074907556642, 534045.663632206735201 ], [ 209190.881648462091107, 534069.191372032975778 ], [ 209193.180443131073844, 534085.34317220072262 ], [ 209197.567693921271712, 534098.26739674853161 ], [ 209205.873247771669412, 534129.190731518552639 ], [ 209208.630473204597365, 534149.726263117277995 ], [ 209219.272852723253891, 534162.19589772913605 ], [ 209221.115645650657825, 534171.656689888914116 ], [ 209225.956175069120945, 534193.578628855058923 ], [ 209233.530604313971708, 534209.778668466256931 ], [ 209081.842460779007524, 534201.904539828770794 ], [ 208976.588522057892988, 534197.16606124327518 ], [ 208840.392251006764127, 534176.980503628496081 ], [ 208696.474925802700454, 534138.290290751960129 ], [ 208619.105134311510483, 534112.003391833393835 ], [ 208600.615569679706823, 534028.739030605182052 ], [ 208583.679944740957581, 533939.309073667624034 ], [ 208583.733818636188516, 533886.89444483211264 ], [ 208599.258099039783701, 533843.745136470883153 ], [ 208664.340910961967893, 533779.064069535466842 ], [ 208727.870271314459387, 533720.547962754033506 ], [ 208792.945301062194631, 533665.116864770418033 ], [ 208834.785995273268782, 533623.536261300556362 ], [ 208885.957991249975748, 533541.882089056540281 ], [ 208912.319213932467392, 533500.284807331976481 ], [ 208938.715346676210174, 533426.311850147438236 ], [ 208961.987659196951427, 533378.54402333626058 ], [ 209543.0694091959449, 533389.503996488871053 ] ] ] } }
]
}
