{
"type": "FeatureCollection",
"name": "wirye_boundary",
"crs": { "type": "name", "properties": { "name": "urn:ogc:def:crs:EPSG::5186" } },
"features": [
{ "type": "Feature", "properties": { "name": "위례 계획구역 분석경계", "source": "wirye_plan_area_outer_boundary", "parcel_count": 72, "internal_parcels_area_sqm": 682658.31835899316, "area_sqm": 6757873.520641949, "boundary_method": "all Wirye plan parcels dissolve -> remove holes -> simplify(25)" }, "geometry": { "type": "Polygon", "coordinates": [ [ [ 211248.403952505846974, 541523.324900075094774 ], [ 211332.961224719212623, 541647.295614974806085 ], [ 211475.950046239537187, 541764.105620762449689 ], [ 211514.973215239064302, 541755.602198251057416 ], [ 211475.950840074510779, 541764.106175727094524 ], [ 211511.73865935462527, 541793.150518888724037 ], [ 211584.511877535784151, 541785.363669463782571 ], [ 211886.963497398450272, 542156.607481463812292 ], [ 212124.818542012624675, 542263.460461829556152 ], [ 212220.406092339311726, 542359.271235431195237 ], [ 212282.276365550380433, 542491.910563730169088 ], [ 211990.747729003662243, 542454.47715517540928 ], [ 212098.945951482804958, 543225.291808004956692 ], [ 212168.860124440863729, 543451.332021478912793 ], [ 212515.456728331046179, 543589.075519706122577 ], [ 212509.634466217277804, 543645.355733452015556 ], [ 212589.024840727914125, 543495.558015725458972 ], [ 212593.897286825813353, 543337.219418311840855 ], [ 212728.537337132001994, 543220.432003923226148 ], [ 212768.312892625952372, 543086.343743647448719 ], [ 212979.610929966554977, 543104.747070752899162 ], [ 213033.377170079940697, 543302.396335695986636 ], [ 213322.400526353623718, 543564.838846133206971 ], [ 213293.209840832452755, 543629.547853342024609 ], [ 213484.324862820853014, 543730.049837237573229 ], [ 213893.604799636435928, 543463.979433067259379 ], [ 213894.625997302995529, 543398.181265941704623 ], [ 214006.683809637092054, 543392.991505386075005 ], [ 214223.018461812636815, 543152.136571218376048 ], [ 214470.40720955125289, 543094.098789959447458 ], [ 214462.828071788331727, 543051.729514605831355 ], [ 214482.177340249181725, 543091.441307781380601 ], [ 214625.627308881492354, 542949.175505725899711 ], [ 214557.4211999202671, 542741.705960160819814 ], [ 214562.644259766762843, 542557.597570284502581 ], [ 214518.195455308945384, 542501.427272559609264 ], [ 214276.91972681027255, 542433.334411588963121 ], [ 214129.93019215480308, 542464.320533131598495 ], [ 214018.599473663110984, 542669.137291587307118 ], [ 213938.917196030466584, 542678.116517274873331 ], [ 213916.449132734735031, 542744.424891535425559 ], [ 213854.027815331588499, 542766.954106544028036 ], [ 213702.077119469817262, 542797.54164725006558 ], [ 213202.772524586209329, 542718.374240889330395 ], [ 213255.746855501725804, 542511.436600994318724 ], [ 213591.412931792467134, 542584.261678498471156 ], [ 213668.321585345634958, 542543.063202152145095 ], [ 213519.55683765973663, 542296.472806633682922 ], [ 213227.01131650339812, 542174.579586081788875 ], [ 213187.24922721364419, 542083.731827822281048 ], [ 213520.330939185252646, 542022.094807926565409 ], [ 213549.454195736529073, 541912.586487353197299 ], [ 213762.672813707438763, 541800.95072404446546 ], [ 213938.823940234316979, 541427.199270883807912 ], [ 214437.463645176932914, 541416.714302153210156 ], [ 214301.709064953378402, 541116.614479964948259 ], [ 214321.280060528835747, 541084.425601219758391 ], [ 214165.51267020002706, 541082.613091244595125 ], [ 214191.613833584618988, 540913.304818024742417 ], [ 213930.991861677612178, 540540.243610783480108 ], [ 213565.345619997155154, 540580.897255497053266 ], [ 213480.855427367932862, 540549.926270162453875 ], [ 213376.487250920472434, 540475.225149111589417 ], [ 213069.966319673170801, 540080.703393906238489 ], [ 212981.927856304158922, 540028.232369525474496 ], [ 212319.862171901593683, 540485.940600932692178 ], [ 211532.178336793702329, 540905.991826669429429 ], [ 211218.529229940642836, 541001.666726789204404 ], [ 211227.696640639973339, 541031.250603560823947 ], [ 211480.659222044661874, 540983.952158335014246 ], [ 211227.696720000589266, 541031.250682799145579 ], [ 211219.852249703719281, 541025.06303862365894 ], [ 211248.403952505846974, 541523.324900075094774 ] ] ] } }
]
}
