{
"type": "FeatureCollection",
"name": "wirye_business_commercial_boundary",
"crs": { "type": "name", "properties": { "name": "urn:ogc:def:crs:EPSG::5186" } },
"features": [
{ "type": "Feature", "properties": { "name": "위례 업무·상업용지 분석용 외곽 경계", "source": "reference_image_and_parcel_matching_outer_envelope", "parcel_count": 72, "internal_parcels_area_sqm": 682658.31835899316, "area_sqm": 4446587.0823230883, "boundary_method": "buffer(130) -> dissolve -> buffer(-65) -> concave_hull(0.28) -> simplify(22)" }, "geometry": { "type": "Polygon", "coordinates": [ [ [ 212173.272607968305238, 543494.26587253739126 ], [ 212280.857057835091837, 543546.893690917175263 ], [ 212581.948120224056765, 543570.497991819051094 ], [ 213044.738281442492735, 543168.720567266573198 ], [ 213776.645520333870081, 543578.594890540931374 ], [ 214050.65242565315566, 543413.638148810365237 ], [ 214112.602561576990411, 543320.507078269147314 ], [ 214034.674106299120467, 543170.970457811723463 ], [ 213894.520359045272926, 543076.109478307655081 ], [ 213834.200884252728429, 543087.097629521158524 ], [ 213778.774096993554849, 543162.38653593219351 ], [ 213129.047500177286565, 543042.481905361288227 ], [ 213389.634826481866185, 542515.864134765230119 ], [ 213570.42713767447276, 541982.973525097942911 ], [ 213317.822399695054628, 540966.758469719905406 ], [ 212781.603688588947989, 540524.310351373278536 ], [ 212804.715856431546854, 540289.597965306136757 ], [ 212731.356266348389909, 540202.52840066049248 ], [ 212008.859518528624903, 540638.866457782336511 ], [ 211202.432619270752184, 540992.9219742504647 ], [ 211167.439390776824439, 541042.107359956251457 ], [ 211189.977548359456705, 541551.549989305087365 ], [ 211258.165743333956925, 541625.857727151364088 ], [ 211547.777615697559668, 541799.898584923590533 ], [ 211762.404852209438104, 541748.301864351611584 ], [ 212430.030851314339088, 541683.267298160586506 ], [ 212507.27687772520585, 542349.545573411742225 ], [ 212039.481610110524343, 542907.647239815094508 ], [ 212173.272607968305238, 543494.26587253739126 ] ] ] } }
]
}
