{
"type": "FeatureCollection",
"name": "station_buffers",
"crs": { "type": "name", "properties": { "name": "urn:ogc:def:crs:EPSG::5186" } },
"features": [
{ "type": "Feature", "properties": { "area_name": "pangyo_1st_technovalley", "station_name": "판교역", "buffer_m": 500 }, "geometry": { "type": "Polygon", "coordinates": [ [ [ 210342.876605370460311, 532808.604460217757151 ], [ 210340.468968706554733, 532759.595890052965842 ], [ 210333.26924557206803, 532711.059299209737219 ], [ 210321.346773236553418, 532663.462121590506285 ], [ 210304.816371626104228, 532617.262744035222568 ], [ 210283.837237544648815, 532572.906091804732569 ], [ 210258.611411521735135, 532530.819343707989901 ], [ 210229.381832051818492, 532491.407818135921843 ], [ 210196.429995963728288, 532455.051069624489173 ], [ 210160.073247452295618, 532422.09923353639897 ], [ 210120.661721880256664, 532392.86965406651143 ], [ 210078.574973783455789, 532367.64382804359775 ], [ 210034.218321552994894, 532346.664693962084129 ], [ 209988.018943997682072, 532330.134292351664044 ], [ 209940.42176637853845, 532318.211820016149431 ], [ 209891.885175535251619, 532311.012096881633624 ], [ 209842.876605370460311, 532308.604460217757151 ], [ 209793.868035205669003, 532311.012096881633624 ], [ 209745.331444362382172, 532318.211820016149431 ], [ 209697.73426674323855, 532330.134292351664044 ], [ 209651.534889187925728, 532346.664693962084129 ], [ 209607.178236957464833, 532367.64382804359775 ], [ 209565.091488860663958, 532392.86965406651143 ], [ 209525.679963288625004, 532422.09923353639897 ], [ 209489.323214777192334, 532455.051069624489173 ], [ 209456.37137868910213, 532491.407818135921843 ], [ 209427.141799219185486, 532530.819343707989901 ], [ 209401.915973196271807, 532572.906091804732569 ], [ 209380.936839114816394, 532617.262744035222568 ], [ 209364.406437504367204, 532663.462121590506285 ], [ 209352.483965168852592, 532711.059299209737219 ], [ 209345.284242034365889, 532759.595890052965842 ], [ 209342.876605370460311, 532808.604460217757151 ], [ 209345.284242034365889, 532857.613030382548459 ], [ 209352.483965168852592, 532906.149621225777082 ], [ 209364.406437504367204, 532953.746798845008016 ], [ 209380.936839114816394, 532999.946176400291733 ], [ 209401.915973196271807, 533044.302828630781732 ], [ 209427.141799219185486, 533086.3895767275244 ], [ 209456.37137868910213, 533125.801102299592458 ], [ 209489.323214777192334, 533162.157850811025128 ], [ 209525.679963288625004, 533195.109686899115331 ], [ 209565.091488860663958, 533224.339266369002871 ], [ 209607.178236957464833, 533249.565092391916551 ], [ 209651.534889187925728, 533270.544226473430172 ], [ 209697.73426674323855, 533287.074628083850257 ], [ 209745.331444362382172, 533298.99710041936487 ], [ 209793.868035205669003, 533306.196823553880677 ], [ 209842.876605370460311, 533308.604460217757151 ], [ 209891.885175535251619, 533306.196823553880677 ], [ 209940.42176637853845, 533298.99710041936487 ], [ 209988.018943997682072, 533287.074628083850257 ], [ 210034.218321552994894, 533270.544226473430172 ], [ 210078.574973783455789, 533249.565092391916551 ], [ 210120.661721880256664, 533224.339266369002871 ], [ 210160.073247452295618, 533195.109686899115331 ], [ 210196.429995963728288, 533162.157850811025128 ], [ 210229.381832051818492, 533125.801102299592458 ], [ 210258.611411521735135, 533086.3895767275244 ], [ 210283.837237544648815, 533044.302828630781732 ], [ 210304.816371626104228, 532999.946176400291733 ], [ 210321.346773236553418, 532953.746798845008016 ], [ 210333.26924557206803, 532906.149621225777082 ], [ 210340.468968706554733, 532857.613030382548459 ], [ 210342.876605370460311, 532808.604460217757151 ] ] ] } },
{ "type": "Feature", "properties": { "area_name": "pangyo_1st_technovalley", "station_name": "판교역", "buffer_m": 1000 }, "geometry": { "type": "Polygon", "coordinates": [ [ [ 210842.876605370460311, 532808.604460217757151 ], [ 210838.061332042649155, 532710.587319888174534 ], [ 210823.661885773704853, 532613.514138201600872 ], [ 210799.816941102675628, 532518.31978296325542 ], [ 210766.756137881748145, 532425.921027852687985 ], [ 210724.797869718808215, 532337.207723391707987 ], [ 210674.34621767300996, 532253.034227198106237 ], [ 210615.887058733205777, 532174.211176054086536 ], [ 210549.983386556996265, 532101.497679031221196 ], [ 210477.269889534101821, 532035.594006855040789 ], [ 210398.446838390053017, 531977.134847915265709 ], [ 210314.273342196451267, 531926.68319586943835 ], [ 210225.560037735558581, 531884.724927706527524 ], [ 210133.161282624932937, 531851.664124485570937 ], [ 210037.966927386587486, 531827.819179814541712 ], [ 209940.893745700013824, 531813.419733545510098 ], [ 209842.876605370460311, 531808.604460217757151 ], [ 209744.859465040906798, 531813.419733545510098 ], [ 209647.786283354333136, 531827.819179814541712 ], [ 209552.591928115987685, 531851.664124485570937 ], [ 209460.193173005362041, 531884.724927706527524 ], [ 209371.479868544469355, 531926.68319586943835 ], [ 209287.306372350867605, 531977.134847915265709 ], [ 209208.4833212068188, 532035.594006855040789 ], [ 209135.769824183924356, 532101.497679031221196 ], [ 209069.866152007714845, 532174.211176054086536 ], [ 209011.406993067910662, 532253.034227198106237 ], [ 208960.955341022112407, 532337.207723391707987 ], [ 208918.997072859172476, 532425.921027852687985 ], [ 208885.936269638244994, 532518.31978296325542 ], [ 208862.091324967215769, 532613.514138201600872 ], [ 208847.691878698271466, 532710.587319888174534 ], [ 208842.876605370460311, 532808.604460217757151 ], [ 208847.691878698271466, 532906.621600547339767 ], [ 208862.091324967215769, 533003.694782233913429 ], [ 208885.936269638244994, 533098.889137472258881 ], [ 208918.997072859172476, 533191.287892582826316 ], [ 208960.955341022112407, 533280.001197043806314 ], [ 209011.406993067910662, 533364.174693237408064 ], [ 209069.866152007714845, 533442.997744381427765 ], [ 209135.769824183924356, 533515.711241404293105 ], [ 209208.4833212068188, 533581.614913580473512 ], [ 209287.306372350867605, 533640.074072520248592 ], [ 209371.479868544469355, 533690.525724566075951 ], [ 209460.193173005362041, 533732.483992728986777 ], [ 209552.591928115987685, 533765.544795949943364 ], [ 209647.786283354333136, 533789.389740620972589 ], [ 209744.859465040906798, 533803.789186890004203 ], [ 209842.876605370460311, 533808.604460217757151 ], [ 209940.893745700013824, 533803.789186890004203 ], [ 210037.966927386587486, 533789.389740620972589 ], [ 210133.161282624932937, 533765.544795949943364 ], [ 210225.560037735558581, 533732.483992728986777 ], [ 210314.273342196451267, 533690.525724566075951 ], [ 210398.446838390053017, 533640.074072520248592 ], [ 210477.269889534101821, 533581.614913580473512 ], [ 210549.983386556996265, 533515.711241404293105 ], [ 210615.887058733205777, 533442.997744381427765 ], [ 210674.34621767300996, 533364.174693237408064 ], [ 210724.797869718808215, 533280.001197043806314 ], [ 210766.756137881748145, 533191.287892582826316 ], [ 210799.816941102675628, 533098.889137472258881 ], [ 210823.661885773704853, 533003.694782233913429 ], [ 210838.061332042649155, 532906.621600547339767 ], [ 210842.876605370460311, 532808.604460217757151 ] ] ] } },
{ "type": "Feature", "properties": { "area_name": "wirye_plan_area", "station_name": "남위례역", "buffer_m": 500 }, "geometry": { "type": "Polygon", "coordinates": [ [ [ 212858.536840472981567, 540350.311127827037126 ], [ 212856.129203809075989, 540301.302557662245817 ], [ 212848.929480674589286, 540252.765966819017194 ], [ 212837.007008339074673, 540205.168789199786261 ], [ 212820.476606728625484, 540158.969411644502543 ], [ 212799.497472647170071, 540114.612759414012544 ], [ 212774.271646624256391, 540072.526011317269877 ], [ 212745.042067154339748, 540033.114485745201819 ], [ 212712.090231066249544, 539996.757737233769149 ], [ 212675.733482554816874, 539963.805901145678945 ], [ 212636.32195698277792, 539934.576321675791405 ], [ 212594.235208885977045, 539909.350495652877726 ], [ 212549.878556655516149, 539888.371361571364105 ], [ 212503.679179100203328, 539871.840959960944019 ], [ 212456.082001481059706, 539859.918487625429407 ], [ 212407.545410637772875, 539852.7187644909136 ], [ 212358.536840472981567, 539850.311127827037126 ], [ 212309.528270308190258, 539852.7187644909136 ], [ 212260.991679464903427, 539859.918487625429407 ], [ 212213.394501845759805, 539871.840959960944019 ], [ 212167.195124290446984, 539888.371361571364105 ], [ 212122.838472059986088, 539909.350495652877726 ], [ 212080.751723963185214, 539934.576321675791405 ], [ 212041.340198391146259, 539963.805901145678945 ], [ 212004.983449879713589, 539996.757737233769149 ], [ 211972.031613791623386, 540033.114485745201819 ], [ 211942.802034321706742, 540072.526011317269877 ], [ 211917.576208298793063, 540114.612759414012544 ], [ 211896.597074217337649, 540158.969411644502543 ], [ 211880.06667260688846, 540205.168789199786261 ], [ 211868.144200271373847, 540252.765966819017194 ], [ 211860.944477136887144, 540301.302557662245817 ], [ 211858.536840472981567, 540350.311127827037126 ], [ 211860.944477136887144, 540399.319697991828434 ], [ 211868.144200271373847, 540447.856288835057057 ], [ 211880.06667260688846, 540495.453466454287991 ], [ 211896.597074217337649, 540541.652844009571709 ], [ 211917.576208298793063, 540586.009496240061708 ], [ 211942.802034321706742, 540628.096244336804375 ], [ 211972.031613791623386, 540667.507769908872433 ], [ 212004.983449879713589, 540703.864518420305103 ], [ 212041.340198391146259, 540736.816354508395307 ], [ 212080.751723963185214, 540766.045933978282847 ], [ 212122.838472059986088, 540791.271760001196526 ], [ 212167.195124290446984, 540812.250894082710147 ], [ 212213.394501845759805, 540828.781295693130232 ], [ 212260.991679464903427, 540840.703768028644845 ], [ 212309.528270308190258, 540847.903491163160652 ], [ 212358.536840472981567, 540850.311127827037126 ], [ 212407.545410637772875, 540847.903491163160652 ], [ 212456.082001481059706, 540840.703768028644845 ], [ 212503.679179100203328, 540828.781295693130232 ], [ 212549.878556655516149, 540812.250894082710147 ], [ 212594.235208885977045, 540791.271760001196526 ], [ 212636.32195698277792, 540766.045933978282847 ], [ 212675.733482554816874, 540736.816354508395307 ], [ 212712.090231066249544, 540703.864518420305103 ], [ 212745.042067154339748, 540667.507769908872433 ], [ 212774.271646624256391, 540628.096244336804375 ], [ 212799.497472647170071, 540586.009496240061708 ], [ 212820.476606728625484, 540541.652844009571709 ], [ 212837.007008339074673, 540495.453466454287991 ], [ 212848.929480674589286, 540447.856288835057057 ], [ 212856.129203809075989, 540399.319697991828434 ], [ 212858.536840472981567, 540350.311127827037126 ] ] ] } },
{ "type": "Feature", "properties": { "area_name": "wirye_plan_area", "station_name": "남위례역", "buffer_m": 1000 }, "geometry": { "type": "Polygon", "coordinates": [ [ [ 213358.536840472981567, 540350.311127827037126 ], [ 213353.721567145170411, 540252.293987497454509 ], [ 213339.322120876226109, 540155.220805810880847 ], [ 213315.477176205196884, 540060.026450572535396 ], [ 213282.416372984269401, 539967.62769546196796 ], [ 213240.458104821329471, 539878.914391000987962 ], [ 213190.006452775531216, 539794.740894807386212 ], [ 213131.547293835727032, 539715.917843663366511 ], [ 213065.643621659517521, 539643.204346640501171 ], [ 212992.930124636623077, 539577.300674464320764 ], [ 212914.107073492574273, 539518.841515524545684 ], [ 212829.933577298972523, 539468.389863478718325 ], [ 212741.220272838079836, 539426.431595315807499 ], [ 212648.821517727454193, 539393.370792094850913 ], [ 212553.627162489108741, 539369.525847423821688 ], [ 212456.553980802535079, 539355.126401154790074 ], [ 212358.536840472981567, 539350.311127827037126 ], [ 212260.519700143428054, 539355.126401154790074 ], [ 212163.446518456854392, 539369.525847423821688 ], [ 212068.25216321850894, 539393.370792094850913 ], [ 211975.853408107883297, 539426.431595315807499 ], [ 211887.14010364699061, 539468.389863478718325 ], [ 211802.96660745338886, 539518.841515524545684 ], [ 211724.143556309340056, 539577.300674464320764 ], [ 211651.430059286445612, 539643.204346640501171 ], [ 211585.526387110236101, 539715.917843663366511 ], [ 211527.067228170431918, 539794.740894807386212 ], [ 211476.615576124633662, 539878.914391000987962 ], [ 211434.657307961693732, 539967.62769546196796 ], [ 211401.59650474076625, 540060.026450572535396 ], [ 211377.751560069737025, 540155.220805810880847 ], [ 211363.352113800792722, 540252.293987497454509 ], [ 211358.536840472981567, 540350.311127827037126 ], [ 211363.352113800792722, 540448.328268156619743 ], [ 211377.751560069737025, 540545.401449843193404 ], [ 211401.59650474076625, 540640.595805081538856 ], [ 211434.657307961693732, 540732.994560192106292 ], [ 211476.615576124633662, 540821.70786465308629 ], [ 211527.067228170431918, 540905.88136084668804 ], [ 211585.526387110236101, 540984.70441199070774 ], [ 211651.430059286445612, 541057.41790901357308 ], [ 211724.143556309340056, 541123.321581189753488 ], [ 211802.96660745338886, 541181.780740129528567 ], [ 211887.14010364699061, 541232.232392175355926 ], [ 211975.853408107883297, 541274.190660338266753 ], [ 212068.25216321850894, 541307.251463559223339 ], [ 212163.446518456854392, 541331.096408230252564 ], [ 212260.519700143428054, 541345.495854499284178 ], [ 212358.536840472981567, 541350.311127827037126 ], [ 212456.553980802535079, 541345.495854499284178 ], [ 212553.627162489108741, 541331.096408230252564 ], [ 212648.821517727454193, 541307.251463559223339 ], [ 212741.220272838079836, 541274.190660338266753 ], [ 212829.933577298972523, 541232.232392175355926 ], [ 212914.107073492574273, 541181.780740129528567 ], [ 212992.930124636623077, 541123.321581189753488 ], [ 213065.643621659517521, 541057.41790901357308 ], [ 213131.547293835727032, 540984.70441199070774 ], [ 213190.006452775531216, 540905.88136084668804 ], [ 213240.458104821329471, 540821.70786465308629 ], [ 213282.416372984269401, 540732.994560192106292 ], [ 213315.477176205196884, 540640.595805081538856 ], [ 213339.322120876226109, 540545.401449843193404 ], [ 213353.721567145170411, 540448.328268156619743 ], [ 213358.536840472981567, 540350.311127827037126 ] ] ] } }
]
}
