{
"type": "FeatureCollection",
"name": "station_buffer_intersections",
"crs": { "type": "name", "properties": { "name": "urn:ogc:def:crs:EPSG::5186" } },
"features": [
{ "type": "Feature", "properties": { "area_name": "pangyo_1st_technovalley", "station_name": "판교역", "buffer_m": 500, "boundary_area_sqm": 860504.88798763871, "buffer_area_sqm": 784137.12263647665, "intersect_area_sqm": 0.0, "station_area_ratio": 0.0 }, "geometry": { "type": "Polygon", "coordinates": [ ] } },
{ "type": "Feature", "properties": { "area_name": "pangyo_1st_technovalley", "station_name": "판교역", "buffer_m": 1000, "boundary_area_sqm": 860504.88798763871, "buffer_area_sqm": 3136548.4905459159, "intersect_area_sqm": 320902.74301507347, "station_area_ratio": 0.37292378869053361 }, "geometry": { "type": "Polygon", "coordinates": [ [ [ 209069.866152007714845, 533442.997744381427765 ], [ 209135.769824183924356, 533515.711241404293105 ], [ 209208.4833212068188, 533581.614913580473512 ], [ 209287.306372350867605, 533640.074072520248592 ], [ 209371.479868544469355, 533690.525724566075951 ], [ 209460.193173005362041, 533732.483992728986777 ], [ 209552.591928115987685, 533765.544795949943364 ], [ 209647.786283354333136, 533789.389740620972589 ], [ 209744.859465040906798, 533803.789186890004203 ], [ 209842.876605370460311, 533808.604460217757151 ], [ 209940.893745700013824, 533803.789186890004203 ], [ 209990.622356877429411, 533796.41264424205292 ], [ 210001.083903742808616, 533757.357219246565364 ], [ 209998.4252737860661, 533391.97791971731931 ], [ 209714.59226165706059, 533390.756159666809253 ], [ 209712.58502912404947, 533295.854307116591372 ], [ 209543.174218790780287, 533297.767926829867065 ], [ 209543.0694091959449, 533389.503996488871053 ], [ 209022.916315940645291, 533379.693218681262806 ], [ 209069.866152007714845, 533442.997744381427765 ] ] ] } },
{ "type": "Feature", "properties": { "area_name": "wirye_plan_area", "station_name": "남위례역", "buffer_m": 500, "boundary_area_sqm": 6757873.520641949, "buffer_area_sqm": 784137.12263647665, "intersect_area_sqm": 311652.29190693755, "station_area_ratio": 0.046116916949539601 }, "geometry": { "type": "Polygon", "coordinates": [ [ [ 212319.862171901593683, 540485.940600932692178 ], [ 211974.427909658494173, 540670.15167496947106 ], [ 212004.983449879713589, 540703.864518420305103 ], [ 212041.340198391146259, 540736.816354508395307 ], [ 212080.751723963185214, 540766.045933978282847 ], [ 212122.838472059986088, 540791.271760001196526 ], [ 212167.195124290446984, 540812.250894082710147 ], [ 212213.394501845759805, 540828.781295693130232 ], [ 212260.991679464903427, 540840.703768028644845 ], [ 212309.528270308190258, 540847.903491163160652 ], [ 212358.536840472981567, 540850.311127827037126 ], [ 212407.545410637772875, 540847.903491163160652 ], [ 212456.082001481059706, 540840.703768028644845 ], [ 212503.679179100203328, 540828.781295693130232 ], [ 212549.878556655516149, 540812.250894082710147 ], [ 212594.235208885977045, 540791.271760001196526 ], [ 212636.32195698277792, 540766.045933978282847 ], [ 212675.733482554816874, 540736.816354508395307 ], [ 212712.090231066249544, 540703.864518420305103 ], [ 212745.042067154339748, 540667.507769908872433 ], [ 212774.271646624256391, 540628.096244336804375 ], [ 212799.497472647170071, 540586.009496240061708 ], [ 212820.476606728625484, 540541.652844009571709 ], [ 212837.007008339074673, 540495.453466454287991 ], [ 212848.929480674589286, 540447.856288835057057 ], [ 212856.129203809075989, 540399.319697991828434 ], [ 212858.536840472981567, 540350.311127827037126 ], [ 212856.129203809075989, 540301.302557662245817 ], [ 212848.929480674589286, 540252.765966819017194 ], [ 212837.007008339074673, 540205.168789199786261 ], [ 212820.476606728625484, 540158.969411644502543 ], [ 212813.661667794047389, 540144.560433889855631 ], [ 212319.862171901593683, 540485.940600932692178 ] ] ] } },
{ "type": "Feature", "properties": { "area_name": "wirye_plan_area", "station_name": "남위례역", "buffer_m": 1000, "boundary_area_sqm": 6757873.520641949, "buffer_area_sqm": 3136548.4905459159, "intersect_area_sqm": 1342299.1066565467, "station_area_ratio": 0.19862743843259115 }, "geometry": { "type": "Polygon", "coordinates": [ [ [ 213069.966319673170801, 540080.703393906238489 ], [ 212981.927856304158922, 540028.232369525474496 ], [ 212319.862171901593683, 540485.940600932692178 ], [ 211532.178336793702329, 540905.991826669429429 ], [ 211528.077005894418107, 540907.242888494860381 ], [ 211585.526387110236101, 540984.70441199070774 ], [ 211651.430059286445612, 541057.41790901357308 ], [ 211724.143556309340056, 541123.321581189753488 ], [ 211802.96660745338886, 541181.780740129528567 ], [ 211887.14010364699061, 541232.232392175355926 ], [ 211975.853408107883297, 541274.190660338266753 ], [ 212068.25216321850894, 541307.251463559223339 ], [ 212163.446518456854392, 541331.096408230252564 ], [ 212260.519700143428054, 541345.495854499284178 ], [ 212358.536840472981567, 541350.311127827037126 ], [ 212456.553980802535079, 541345.495854499284178 ], [ 212553.627162489108741, 541331.096408230252564 ], [ 212648.821517727454193, 541307.251463559223339 ], [ 212741.220272838079836, 541274.190660338266753 ], [ 212829.933577298972523, 541232.232392175355926 ], [ 212914.107073492574273, 541181.780740129528567 ], [ 212992.930124636623077, 541123.321581189753488 ], [ 213065.643621659517521, 541057.41790901357308 ], [ 213131.547293835727032, 540984.70441199070774 ], [ 213190.006452775531216, 540905.88136084668804 ], [ 213240.458104821329471, 540821.70786465308629 ], [ 213282.416372984269401, 540732.994560192106292 ], [ 213315.477176205196884, 540640.595805081538856 ], [ 213339.322120876226109, 540545.401449843193404 ], [ 213353.721567145170411, 540448.328268156619743 ], [ 213353.832678357837722, 540446.066547464230098 ], [ 213069.966319673170801, 540080.703393906238489 ] ] ] } }
]
}
