{
"type": "FeatureCollection",
"name": "pangyo_1st_technovalley_outer_boundary_5186",
"crs": { "type": "name", "properties": { "name": "urn:ogc:def:crs:EPSG::5186" } },
"features": [
{ "type": "Feature", "properties": { "name": "판교 제1테크노밸리 전체 외곽 경계", "source_count": 81, "method": "도시지원시설용지 + 인접 업무시설 concave_hull(ratio=0.10)", "area_sqm": 766655.83511382202 }, "geometry": { "type": "Polygon", "coordinates": [ [ [ 208652.175567629863508, 534080.844941895455122 ], [ 208655.265485952346353, 534084.384963251766749 ], [ 208662.47531249729218, 534091.585021579405293 ], [ 208666.385222833050648, 534095.215055420179851 ], [ 208669.995144280197565, 534098.305088764522225 ], [ 208673.825064596196171, 534101.35512597928755 ], [ 208676.895004682766739, 534103.555157767608762 ], [ 208680.974926998984301, 534106.355201013037004 ], [ 208683.834874915890396, 534108.175232472480275 ], [ 208684.263167577242712, 534108.416537443175912 ], [ 208688.254799558926607, 534110.665283697890118 ], [ 208694.094702679867623, 534113.78535273950547 ], [ 208696.544663235748885, 534115.025382254389115 ], [ 208724.734273447102169, 534125.265854215831496 ], [ 208744.792503873031819, 534132.076522718765773 ], [ 208749.423991435731295, 534130.556109559140168 ], [ 208775.223933264845982, 534121.39659886865411 ], [ 208785.753910220228136, 534117.616798915783875 ], [ 208802.533873772481456, 534111.57711781875696 ], [ 208808.513864477514289, 534109.197233297163621 ], [ 208811.503860900265863, 534107.937391595100053 ], [ 208814.513856115168892, 534106.747349641751498 ], [ 208817.423855005152291, 534105.377407547784969 ], [ 208827.133854573301505, 534100.597602410591207 ], [ 208828.373857120925095, 534099.82762857992202 ], [ 208837.083868530549807, 534094.807809249381535 ], [ 208838.873871346673695, 534093.747846599319018 ], [ 208841.533879039023304, 534091.957903842558153 ], [ 208846.873893517447868, 534088.418018322554417 ], [ 208849.573901601426769, 534086.578076606150717 ], [ 208873.273987359309103, 534069.528595457784832 ], [ 208909.154117243684595, 534043.719380905851722 ], [ 208963.662227941968013, 534134.009534185053781 ], [ 208960.322193934262032, 534137.769450176041573 ], [ 208957.122157245437847, 534141.629367595538497 ], [ 208954.012118561193347, 534145.569285836885683 ], [ 208950.962078558339272, 534149.559204632067122 ], [ 208947.952038127928972, 534153.559124009683728 ], [ 208944.991996285156347, 534157.619043695623986 ], [ 208942.10195342003135, 534161.708964266814291 ], [ 208939.34190805835533, 534165.888886222732253 ], [ 208936.651861342194024, 534170.118808896280825 ], [ 208933.981814341794234, 534174.358731809072196 ], [ 208932.081778719992144, 534177.508675900753587 ], [ 208945.451635048608296, 534179.808872888213955 ], [ 208984.021223397023277, 534186.279442494502291 ], [ 209022.010854594904231, 534190.370021883863956 ], [ 209060.270502576633589, 534193.290615039761178 ], [ 209063.400477003160631, 534193.332765150815248 ], [ 209112.361193973105401, 534124.622006019228138 ], [ 209115.051194163534092, 534123.282060130964965 ], [ 209117.69119651321671, 534121.832114317454398 ], [ 209202.630438594031148, 534126.853442969964817 ], [ 209233.90908106524148, 534195.623394902911969 ], [ 209203.860934486147016, 534095.473714758409187 ], [ 209191.92174166161567, 534051.293877060874365 ], [ 209191.5520444966387, 534032.684020524378866 ], [ 209249.902837714616908, 533954.60558779083658 ], [ 209332.001831963774748, 533976.426735798129812 ], [ 209371.941194498474943, 533996.237220493960194 ], [ 209391.940928489289945, 534002.857489713001996 ], [ 209412.010903606831562, 533994.477880469989032 ], [ 209432.050898340268759, 533984.89828036678955 ], [ 209440.491332849342143, 533953.768666298012249 ], [ 209530.431585732469102, 533893.620598719106056 ], [ 209592.21072345454013, 533916.591410177992657 ], [ 209612.29050387328607, 533920.291704155155458 ], [ 209692.01911659486359, 533966.962614815798588 ], [ 209711.938776441325899, 533978.222845560754649 ], [ 209732.038573921192437, 533980.853148488444276 ], [ 209752.028365704783937, 533983.893446324393153 ], [ 209817.687644806108437, 533996.174406295875087 ], [ 209870.246851705684094, 534019.405067225336097 ], [ 209879.827060906594852, 534001.695363784208894 ], [ 209883.587147479498526, 533994.465482417144813 ], [ 209890.117303124570753, 533981.585691034677438 ], [ 209891.877347806206672, 533977.94574862648733 ], [ 209899.427552794892108, 533961.496002342319116 ], [ 209907.327786888025003, 533943.076277495129034 ], [ 210237.172239927400369, 534124.220142477657646 ], [ 210237.171798786148429, 534151.579922969453037 ], [ 210266.74156329545076, 534151.580399804981425 ], [ 210298.411311113275588, 534151.580910522839986 ], [ 210330.071059015957871, 534151.581421072361991 ], [ 210330.071568710438441, 534119.971674665575847 ], [ 210318.072454517619917, 534070.961874319822527 ], [ 210313.902557386812987, 534066.641841731150635 ], [ 210277.622846183279762, 534066.641256700502709 ], [ 209914.638029270368861, 533924.426544986665249 ], [ 209921.408279899100307, 533905.536805695388466 ], [ 209921.548284518125001, 533905.176810830133036 ], [ 209922.158308400132228, 533903.396834952523932 ], [ 209929.768632243416505, 533879.547148983227089 ], [ 209937.78921011579223, 533839.737597675644793 ], [ 209938.349244450830156, 533837.327626018086448 ], [ 209943.759639401221648, 533810.157931218156591 ], [ 209949.419894787773956, 533791.518171988776885 ], [ 209961.990457664156565, 533750.388704581768252 ], [ 209962.320472318679094, 533749.318718482158147 ], [ 209964.780859916500049, 533724.058960766997188 ], [ 209966.171074768761173, 533710.039095635176636 ], [ 209968.651520556188188, 533681.159367263666354 ], [ 209968.641950975317741, 533654.459581277682446 ], [ 209968.662628641992342, 533612.409918875200674 ], [ 209966.363079698669026, 533585.560097146779299 ], [ 209966.343591410171939, 533553.82035138248466 ], [ 209968.643949670047732, 533530.460575812263414 ], [ 209968.645146529888734, 533456.201171347172931 ], [ 210044.41569634329062, 533384.672966269543394 ], [ 210091.505318385694409, 533384.873723735334352 ], [ 210291.503713281010278, 533385.72694096097257 ], [ 210322.513464433985064, 533385.857439836720005 ], [ 210322.514041522372281, 533350.057726821629331 ], [ 210291.504288549447665, 533350.037227074266411 ], [ 210091.505882026132895, 533349.904004104202613 ], [ 210044.416260018770117, 533349.703246666584164 ], [ 209966.345951381546911, 533407.401525606168434 ], [ 209907.856420719879679, 533407.160584779456258 ], [ 209832.127028471964877, 533406.849366662674583 ], [ 209736.15779872413259, 533406.457823025644757 ], [ 209694.049666901963064, 533311.327907332684845 ], [ 209694.03980232149479, 533302.927974550868385 ], [ 209639.680235026142327, 533302.927098521147855 ], [ 209545.470984805870103, 533302.935580244520679 ], [ 209545.469700124667725, 533382.664940714137629 ], [ 209498.649753547942964, 533402.484027227154002 ], [ 209486.459802904922981, 533405.443807045463473 ], [ 209452.740074056695448, 533405.273265015915968 ], [ 209444.530047434818698, 533410.983086919644848 ], [ 209440.639907138596755, 533421.612938949838281 ], [ 209440.279895031329943, 533422.54292569309473 ], [ 209426.709394995734328, 533460.282404240570031 ], [ 209424.239344231173163, 533464.652329373522662 ], [ 209420.79929201543564, 533469.592234309529886 ], [ 209419.78927224202198, 533471.32220414839685 ], [ 209418.859250958630582, 533473.102174878818914 ], [ 209399.138527116621844, 533527.771418465301394 ], [ 209328.021059751481516, 533405.731251602526754 ], [ 209322.101132220006548, 533404.161168804275803 ], [ 209268.549085834441939, 533557.639074402162805 ], [ 209188.702709865319775, 533521.138080700184219 ], [ 209173.710763393697562, 533500.398005552939139 ], [ 209188.712110971333459, 533409.338977959239855 ], [ 209194.352157576882746, 533403.659114408423193 ], [ 209168.062368740706006, 533403.54869169741869 ], [ 209138.762603972980287, 533403.428220580215566 ], [ 209095.782901077007409, 533406.237505548400804 ], [ 209003.763688851671759, 533402.826050365925767 ], [ 208977.033903713017935, 533402.705620693741366 ], [ 208969.353861607902218, 533409.115445527015254 ], [ 208937.692677858576644, 533498.254220025264658 ], [ 208925.112360582570545, 533524.173809292493388 ], [ 208902.361878431343939, 533565.353112227516249 ], [ 208884.451565836672671, 533593.61259682464879 ], [ 208849.751076139742509, 533641.171655956888571 ], [ 208845.38102286416688, 533646.641641651047394 ], [ 208843.631000545981806, 533648.891495389747433 ], [ 208845.51082739935373, 533658.71154683327768 ], [ 208822.309440129349241, 533756.300289526232518 ], [ 208715.980068246164592, 533769.908467132598162 ], [ 208685.639729505288415, 533805.947688924497925 ], [ 208671.029567773832241, 533823.217314848792739 ], [ 208655.309390720678493, 533841.986910848761909 ], [ 208648.68931589226122, 533849.906740595586598 ], [ 208614.55893085282878, 533890.695863122236915 ], [ 208611.708762812369969, 533902.535722116241232 ], [ 208610.638193980877986, 533938.375417014700361 ], [ 208616.327386822289554, 533985.665128851309419 ], [ 208623.056740518135484, 534022.45504175266251 ], [ 208629.666357208479894, 534042.97488341992721 ], [ 208634.079574653733289, 534052.119681069278158 ], [ 208637.666030961292563, 534059.264981457730755 ], [ 208645.345765784615651, 534071.924903503851965 ], [ 208651.255593973444775, 534079.664936547167599 ], [ 208652.175567629863508, 534080.844941895455122 ] ] ] } }
]
}
