{
"type": "FeatureCollection",
"name": "pangyo_1st_technovalley_outer_boundary_4326",
"crs": { "type": "name", "properties": { "name": "urn:ogc:def:crs:OGC:1.3:CRS84" } },
"features": [
{ "type": "Feature", "properties": { "name": "판교 제1테크노밸리 전체 외곽 경계", "source_count": 81, "method": "도시지원시설용지 + 인접 업무시설 concave_hull(ratio=0.10)", "area_sqm": 766655.83511382202 }, "geometry": { "type": "Polygon", "coordinates": [ [ [ 127.097724798681114, 37.406044487712194 ], [ 127.097759740159674, 37.406076355132328 ], [ 127.097841258165516, 37.406141161678377 ], [ 127.097885462462202, 37.406173832425964 ], [ 127.097926272140441, 37.406201640455286 ], [ 127.097969566230859, 37.406229086038664 ], [ 127.098004266521627, 37.406248880009869 ], [ 127.098050381465782, 37.406274070729275 ], [ 127.098082705506016, 37.406290442768494 ], [ 127.098087545839874, 37.406292612959369 ], [ 127.098132657134073, 37.406312837182412 ], [ 127.098198654647604, 37.406340894836674 ], [ 127.098226341178318, 37.406352044753902 ], [ 127.098544859576563, 37.40644404841867 ], [ 127.098771495207203, 37.406505224799034 ], [ 127.09882378929926, 37.406491481874468 ], [ 127.09911508771313, 37.406408709012659 ], [ 127.099233977443106, 37.406374552533038 ], [ 127.099423432836304, 37.406319974633703 ], [ 127.099490947577436, 37.406298474604256 ], [ 127.099524704112525, 37.406287094767748 ], [ 127.099558687352769, 37.40627634364045 ], [ 127.099591538995128, 37.406263972520129 ], [ 127.099701154829802, 37.40622081313365 ], [ 127.099715151259261, 37.406213863711486 ], [ 127.09981346938774, 37.406168551171938 ], [ 127.099833674487385, 37.406158983636686 ], [ 127.099863697404089, 37.406142830538549 ], [ 127.099923969563548, 37.406110884536027 ], [ 127.099954443640229, 37.406094280532777 ], [ 127.100221927114944, 37.405940434848233 ], [ 127.100626874727254, 37.405707544679792 ], [ 127.101243625260452, 37.406520550608349 ], [ 127.101205945548898, 37.406554460463553 ], [ 127.101169848269151, 37.40658926998546 ], [ 127.10113476844289, 37.406624799449297 ], [ 127.101100366867982, 37.406660778837583 ], [ 127.101066417172618, 37.406696847936651 ], [ 127.101033032900261, 37.406733457157387 ], [ 127.101000439590919, 37.406770336006808 ], [ 127.100969315649564, 37.406808024522718 ], [ 127.100938982911117, 37.406846162871219 ], [ 127.100908876158243, 37.406884391122993 ], [ 127.100887453438077, 37.406912791030294 ], [ 127.101038492968357, 37.406933387289421 ], [ 127.101474212822552, 37.406991315263696 ], [ 127.101903353708494, 37.40702780311485 ], [ 127.102335530497641, 37.407053744970924 ], [ 127.102370883946264, 37.407054094147163 ], [ 127.102923046333672, 37.406434517102774 ], [ 127.102953413004187, 37.406422417483924 ], [ 127.102983213589667, 37.406409327228936 ], [ 127.103942653067335, 37.4064537308412 ], [ 127.104296800125681, 37.407073049982678 ], [ 127.103956160714475, 37.406170981321999 ], [ 127.103820760347517, 37.405773031071881 ], [ 127.103816353350169, 37.405605356384413 ], [ 127.104474433625057, 37.404901274273115 ], [ 127.105401987178922, 37.405097064008977 ], [ 127.105853339957676, 37.405275157261386 ], [ 127.106079314855876, 37.405334604700215 ], [ 127.10630589251825, 37.40525889923169 ], [ 127.106532115797052, 37.405172381487468 ], [ 127.106627050293497, 37.404891811793256 ], [ 127.107642117107872, 37.404348945754059 ], [ 127.108340182703074, 37.404555279858926 ], [ 127.108567023522383, 37.404588412188119 ], [ 127.10946813697511, 37.405008095693866 ], [ 127.109693270446542, 37.405109343996422 ], [ 127.109920325528449, 37.405132832690541 ], [ 127.11014614368051, 37.405160016237602 ], [ 127.110887906732174, 37.405269976831491 ], [ 127.111481856675951, 37.405478731239036 ], [ 127.111589825799044, 37.40531906139536 ], [ 127.111632198183813, 37.405253878709551 ], [ 127.111705781951073, 37.405137759695982 ], [ 127.111725612373249, 37.405104944343883 ], [ 127.111810669149307, 37.404956648405928 ], [ 127.111899652639352, 37.404790598781894 ], [ 127.115627626682723, 37.406419154436442 ], [ 127.115628000540895, 37.406665671144339 ], [ 127.115961987943578, 37.406665348346444 ], [ 127.116319694432519, 37.406665001577963 ], [ 127.116677287967292, 37.406664653837247 ], [ 127.116676852064259, 37.406379844156042 ], [ 127.116540639872753, 37.405938390403129 ], [ 127.116493481512933, 37.405899512517728 ], [ 127.1160837101407, 37.405899910268424 ], [ 127.111981968938451, 37.404622482985545 ], [ 127.112058182678183, 37.404452210401345 ], [ 127.112059759138873, 37.40444896528053 ], [ 127.112066625206936, 37.404432920829485 ], [ 127.112152260192616, 37.404217949122859 ], [ 127.112242313803435, 37.403859171517531 ], [ 127.112248606705904, 37.40383745120819 ], [ 127.112309348886399, 37.403592589039171 ], [ 127.112373027469971, 37.403424580500818 ], [ 127.11251445045788, 37.403053861094982 ], [ 127.112518163344959, 37.403044216767874 ], [ 127.112545611435863, 37.402816595049032 ], [ 127.112561124012203, 37.402690258419561 ], [ 127.11258874958952, 37.402430019827833 ], [ 127.112588281578951, 37.402189449702647 ], [ 127.11258794826982, 37.401810573881335 ], [ 127.112561614919954, 37.401568676503608 ], [ 127.112560967063047, 37.40128269543095 ], [ 127.112586632626915, 37.401072194566112 ], [ 127.112585645160124, 37.400403102799352 ], [ 127.113440422984027, 37.399757801725023 ], [ 127.11397224929209, 37.39975909916987 ], [ 127.116231014812897, 37.399764588077041 ], [ 127.116581236401416, 37.399765419117927 ], [ 127.116580743252399, 37.399442856680558 ], [ 127.116230524675046, 37.399443016749402 ], [ 127.113971778498495, 37.399444015106774 ], [ 127.113439954417402, 37.399442717656321 ], [ 127.11255902052163, 37.399963433129813 ], [ 127.111898442916797, 37.399961889182457 ], [ 127.111043159281166, 37.399959891342682 ], [ 127.109959288102445, 37.39995737636152 ], [ 127.109482476542141, 37.39910067824794 ], [ 127.109482255034678, 37.399024993284868 ], [ 127.10886833159401, 37.399025552231663 ], [ 127.107804355828776, 37.399026603481417 ], [ 127.107805370345616, 37.399744980901907 ], [ 127.107276846975836, 37.399924035724929 ], [ 127.10713921301803, 37.399950828752331 ], [ 127.106758383897287, 37.399949636587223 ], [ 127.106665733669288, 37.400001166896899 ], [ 127.106621934510983, 37.400096983597514 ], [ 127.106617880436588, 37.400105366628772 ], [ 127.106465097417356, 37.400445544902865 ], [ 127.106437256436607, 37.4004849439075 ], [ 127.10639846751323, 37.400529488394454 ], [ 127.106387082407252, 37.400545086028728 ], [ 127.106376601434931, 37.400561133366942 ], [ 127.106154570739122, 37.401053914206472 ], [ 127.105349826697775, 37.399955026504074 ], [ 127.105282947883978, 37.399940939295725 ], [ 127.104680060463963, 37.401324342596453 ], [ 127.103777814127881, 37.400996256361168 ], [ 127.103608237073914, 37.400809532665455 ], [ 127.103776531224057, 37.399988924157597 ], [ 127.103840158721383, 37.399937691532656 ], [ 127.103543243364825, 37.399936956977584 ], [ 127.103212333550758, 37.399936160816836 ], [ 127.102726960055847, 37.399961895744454 ], [ 127.101687663259952, 37.399932056168858 ], [ 127.101385778542749, 37.399931230304873 ], [ 127.101299118729344, 37.399989058449059 ], [ 127.100942617793905, 37.400792522386865 ], [ 127.100800848259311, 37.401026184246888 ], [ 127.100544398789438, 37.401397436700037 ], [ 127.100342457251259, 37.401652232082483 ], [ 127.099951113911587, 37.402081080536341 ], [ 127.09990182302765, 37.402130407897474 ], [ 127.099882084795951, 37.402150696221106 ], [ 127.099903433445533, 37.402239158882551 ], [ 127.099642555776299, 37.403118673728827 ], [ 127.098441792989405, 37.403242292018277 ], [ 127.098099540756408, 37.403567297261077 ], [ 127.097934729721359, 37.403723036756141 ], [ 127.097757398512243, 37.403892301407318 ], [ 127.09768272080629, 37.403963722412577 ], [ 127.097297710504904, 37.404331558190513 ], [ 127.09726565703096, 37.404438264107277 ], [ 127.097253982789596, 37.404761196659415 ], [ 127.097318791125943, 37.405187233240838 ], [ 127.097395226094676, 37.405518654867969 ], [ 127.097470119434035, 37.405703481072123 ], [ 127.09752007244731, 37.405785836354795 ], [ 127.097560664123279, 37.405850183466285 ], [ 127.097647553070843, 37.405964180189329 ], [ 127.097714393947015, 37.406033864225641 ], [ 127.097724798681114, 37.406044487712194 ] ] ] } }
]
}
