{
"type": "FeatureCollection",
"name": "wirye_newtown_outer_boundary_4326",
"crs": { "type": "name", "properties": { "name": "urn:ogc:def:crs:OGC:1.3:CRS84" } },
"features": [
{ "type": "Feature", "properties": { "name": "위례신도시 전체 외곽 경계", "source_count": 1170, "method": "위례 전체 가구및획지 dissolve + 내부 hole 제거", "area_sqm": 6753734.6096644644 }, "geometry": { "type": "Polygon", "coordinates": [ [ [ 127.127162100305895, 37.473074337155133 ], [ 127.127162107492424, 37.473074445521767 ], [ 127.127168223222881, 37.473176837656709 ], [ 127.127180857129062, 37.473363151485685 ], [ 127.127321475810348, 37.473490222878588 ], [ 127.127333619236353, 37.473500424255917 ], [ 127.127560459116964, 37.473690982078274 ], [ 127.127753917601609, 37.473844395005983 ], [ 127.127780876043289, 37.473863196419941 ], [ 127.127924709794968, 37.473963505006225 ], [ 127.128119916401204, 37.474190290503685 ], [ 127.128186198594435, 37.474235091579928 ], [ 127.1282814819983, 37.474291449172583 ], [ 127.128315215533831, 37.474317992856093 ], [ 127.128705002620478, 37.474571215358694 ], [ 127.128787701525525, 37.474624943435863 ], [ 127.128866076839117, 37.474675675058805 ], [ 127.12894543311296, 37.474726880027909 ], [ 127.129513284255239, 37.475093273571346 ], [ 127.129549186323842, 37.475119062701964 ], [ 127.129738230487234, 37.475240993824876 ], [ 127.130179262374668, 37.475163892124613 ], [ 127.129738239470342, 37.475240998815302 ], [ 127.130143281747152, 37.475502245616049 ], [ 127.130433699891967, 37.475451472492153 ], [ 127.130433787028551, 37.475451458233813 ], [ 127.130535192451049, 37.475433723741496 ], [ 127.130535278689351, 37.475433713760673 ], [ 127.130633540008404, 37.475416523931969 ], [ 127.13068483111617, 37.475407558299779 ], [ 127.130687667097533, 37.475407083497664 ], [ 127.130690502180556, 37.475406669293399 ], [ 127.130693348941733, 37.475406312835339 ], [ 127.1306962055843, 37.475406015549332 ], [ 127.130699072108357, 37.475405776009524 ], [ 127.130701930547616, 37.475405599919249 ], [ 127.130704824919434, 37.475405470881441 ], [ 127.130707704918251, 37.475405407431893 ], [ 127.130710588510311, 37.475405400302741 ], [ 127.130713467610803, 37.475405453771444 ], [ 127.130716347609578, 37.475405564273451 ], [ 127.130719189879159, 37.475405739650803 ], [ 127.130719221320192, 37.475405733234567 ], [ 127.130874608304779, 37.475376798815837 ], [ 127.130965878035965, 37.475431176493167 ], [ 127.131023939746029, 37.475484571020644 ], [ 127.131951569752815, 37.476337607871642 ], [ 127.131953459808173, 37.476339328829631 ], [ 127.132080174365527, 37.476452445729628 ], [ 127.132102698722974, 37.47647255253117 ], [ 127.132104689389635, 37.47647429487327 ], [ 127.132106662988321, 37.4764759901635 ], [ 127.13226087497651, 37.476605759598392 ], [ 127.132262783896451, 37.476607333691895 ], [ 127.132264675748459, 37.47660886429815 ], [ 127.132408444821479, 37.476722928951844 ], [ 127.132423682943653, 37.476735017656232 ], [ 127.132425833510439, 37.476736692266371 ], [ 127.132432232210192, 37.476741668332004 ], [ 127.132885949700636, 37.477147414753695 ], [ 127.132940650813239, 37.47719490311249 ], [ 127.132994741969753, 37.477242830586647 ], [ 127.133048225865153, 37.477291191472112 ], [ 127.13305977101318, 37.477301846446665 ], [ 127.133061468829069, 37.477303353513058 ], [ 127.133063711024022, 37.477305482939379 ], [ 127.133101091719624, 37.477339980777757 ], [ 127.133153335939909, 37.477389194225388 ], [ 127.133204950441183, 37.477438826823885 ], [ 127.13322761583413, 37.477461076326982 ], [ 127.13323049044304, 37.477463803868936 ], [ 127.133233266237269, 37.477466623374426 ], [ 127.133255932528485, 37.477488873582146 ], [ 127.133306279506911, 37.477539328083232 ], [ 127.133355979698337, 37.47759018676188 ], [ 127.133390674431254, 37.477626440329082 ], [ 127.133392798048561, 37.477628598261965 ], [ 127.133394289251953, 37.477630217959153 ], [ 127.13340503220445, 37.47764144462699 ], [ 127.133453430736964, 37.477693093123015 ], [ 127.133501172601072, 37.477745130823351 ], [ 127.133548250610161, 37.477797552024064 ], [ 127.133862908894628, 37.478151556171156 ], [ 127.133877829013201, 37.478159621094321 ], [ 127.133986341906237, 37.478276899222116 ], [ 127.133992210599985, 37.478283646000641 ], [ 127.134123419428704, 37.478434511622432 ], [ 127.134241416734525, 37.478579224735164 ], [ 127.134271392617265, 37.478615986822774 ], [ 127.134391152417663, 37.478772270405045 ], [ 127.134391957308168, 37.478772269692136 ], [ 127.134462829892499, 37.478772192700667 ], [ 127.134539154352311, 37.478786970784377 ], [ 127.134539175911911, 37.478786959378233 ], [ 127.134570319604464, 37.478811167484153 ], [ 127.13464650123214, 37.478864331474114 ], [ 127.13464659735186, 37.478864377811519 ], [ 127.134646617114811, 37.478864407752603 ], [ 127.134820838177632, 37.478948485852499 ], [ 127.134760185726293, 37.478919194938385 ], [ 127.134879145127755, 37.478976607628603 ], [ 127.134879863780014, 37.478976576261786 ], [ 127.134890695665703, 37.478976142116608 ], [ 127.134902174338421, 37.478975680881931 ], [ 127.134902274051399, 37.47897573506097 ], [ 127.135013757673121, 37.479036282247641 ], [ 127.134902202186183, 37.478975673040225 ], [ 127.13501378911414, 37.479036278683239 ], [ 127.13504830148905, 37.479053628790517 ], [ 127.135075358745397, 37.479065393469789 ], [ 127.135048270048017, 37.479053633067785 ], [ 127.135084024792945, 37.479069180294637 ], [ 127.13512101741631, 37.479082742857443 ], [ 127.135159139222068, 37.479094413431874 ], [ 127.136552663382986, 37.479519179468291 ], [ 127.13655273165493, 37.479519202993231 ], [ 127.136586006151362, 37.47953033242603 ], [ 127.136662160829616, 37.47955581847873 ], [ 127.136766820848379, 37.479594142710447 ], [ 127.136734112290569, 37.479582149281107 ], [ 127.136770119462128, 37.479595333926476 ], [ 127.1368106739056, 37.479611626708852 ], [ 127.136770141919996, 37.479595361015754 ], [ 127.136876100902683, 37.479637925412156 ], [ 127.136980214745805, 37.479683487425028 ], [ 127.137082036088302, 37.47973193370175 ], [ 127.137181956595668, 37.479783266375314 ], [ 127.137279285463464, 37.479837305082761 ], [ 127.13737435866156, 37.479894138927335 ], [ 127.137466720744101, 37.479953498436792 ], [ 127.137556375304442, 37.480015564674616 ], [ 127.137643208256435, 37.480079976208216 ], [ 127.137727219600094, 37.480146912674975 ], [ 127.137808182960043, 37.480216107454645 ], [ 127.13788598335185, 37.480287646085323 ], [ 127.13796062257218, 37.480361172838727 ], [ 127.137962756969273, 37.480363379167741 ], [ 127.137960694437382, 37.480361197789144 ], [ 127.137980591222629, 37.480381778309507 ], [ 127.138027816555422, 37.480432471093955 ], [ 127.138024453262986, 37.480428898911541 ], [ 127.138031874245556, 37.480436864500234 ], [ 127.138038104062062, 37.480443894805234 ], [ 127.13803539474317, 37.480440798819252 ], [ 127.138078807625902, 37.480489782819994 ], [ 127.138098049539295, 37.480512384996935 ], [ 127.138096744287154, 37.480510892965462 ], [ 127.138099851559744, 37.480514541420753 ], [ 127.138164326342618, 37.480593936269045 ], [ 127.13822507491372, 37.480675136722184 ], [ 127.138281372332571, 37.48075676623187 ], [ 127.138280972582265, 37.48075613748486 ], [ 127.138282353292865, 37.480758137784214 ], [ 127.138335871324216, 37.480842590145649 ], [ 127.138354178091404, 37.480874246301276 ], [ 127.138335833594994, 37.480842584442755 ], [ 127.138385516718387, 37.480928492375853 ], [ 127.138431464646857, 37.481015746094776 ], [ 127.138414887136619, 37.480984201205693 ], [ 127.13843149608789, 37.481015741817608 ], [ 127.138535779712612, 37.48122429161544 ], [ 127.13860914332524, 37.481375361593734 ], [ 127.138576121255383, 37.481307429649426 ], [ 127.138646738718194, 37.48145284221539 ], [ 127.138681227736882, 37.481518125047984 ], [ 127.13871964598664, 37.481582006346315 ], [ 127.138719672936119, 37.481582051256296 ], [ 127.138761844347115, 37.481644351384091 ], [ 127.13880763237546, 37.481705026148219 ], [ 127.138841625524122, 37.481746162205958 ], [ 127.138848771622207, 37.481758858163474 ], [ 127.138861123457389, 37.481764791972417 ], [ 127.138861189932726, 37.481764798388127 ], [ 127.138861896906832, 37.481764867535098 ], [ 127.138862010992867, 37.481764879653632 ], [ 127.138862015484449, 37.481764906029298 ], [ 127.138862021772681, 37.481764942384906 ], [ 127.138862120587333, 37.481765524074959 ], [ 127.138862159214909, 37.481765551163448 ], [ 127.138866043530186, 37.481788204992888 ], [ 127.138866009394206, 37.481788204280043 ], [ 127.138865964478441, 37.481788204280051 ], [ 127.138865108383968, 37.481788083094663 ], [ 127.1388331589026, 37.481783538642496 ], [ 127.138767993315227, 37.481774273662047 ], [ 127.138767960975883, 37.481774268672055 ], [ 127.138651212328298, 37.481779267926477 ], [ 127.138651179090616, 37.481779270065026 ], [ 127.138470482072918, 37.48180248490727 ], [ 127.138077187963432, 37.481853012058451 ], [ 127.137932198079952, 37.481871639659687 ], [ 127.137932163943972, 37.481871643936827 ], [ 127.137931336595599, 37.481871513484471 ], [ 127.137609410940485, 37.481820841636264 ], [ 127.137274272864175, 37.481690850292203 ], [ 127.137224160346079, 37.481674046132355 ], [ 127.137223930377317, 37.481673967718187 ], [ 127.137215106226293, 37.481669773984372 ], [ 127.137138834767114, 37.481633520953096 ], [ 127.136981572100183, 37.481573335151005 ], [ 127.136960639557458, 37.481564077985929 ], [ 127.136781375352655, 37.481521129030654 ], [ 127.136781317860439, 37.481521147564962 ], [ 127.136781278334539, 37.481521164673566 ], [ 127.136615759251896, 37.481592490336197 ], [ 127.136217460627961, 37.48156585157502 ], [ 127.136121807118201, 37.48155945296724 ], [ 127.136115177551403, 37.48155900885709 ], [ 127.136054116366594, 37.481554754523977 ], [ 127.136053705836503, 37.481554673971083 ], [ 127.136047724853341, 37.481553484924845 ], [ 127.136001643075886, 37.481544320428789 ], [ 127.136001396039177, 37.481544271241624 ], [ 127.136001402327366, 37.48154430545879 ], [ 127.136001413107181, 37.481544353933103 ], [ 127.136001422090331, 37.481544409535992 ], [ 127.136001431971806, 37.481544445891757 ], [ 127.136001382564459, 37.481544436624574 ], [ 127.135768172730195, 37.48149839528017 ], [ 127.13576648030417, 37.48149806166262 ], [ 127.135713844418419, 37.481487666766725 ], [ 127.13571379590941, 37.481487656786719 ], [ 127.135569357591478, 37.481454755527373 ], [ 127.135607503651713, 37.481606351128121 ], [ 127.135707183410602, 37.481629225991398 ], [ 127.135707647839595, 37.481629349315625 ], [ 127.135767046242805, 37.481642983412286 ], [ 127.135774617244024, 37.481646589753751 ], [ 127.135774725041856, 37.481646616842291 ], [ 127.135800180602061, 37.481658731838714 ], [ 127.135817207269966, 37.481690119614676 ], [ 127.135861979303726, 37.481861593401646 ], [ 127.135864027462574, 37.481924909113182 ], [ 127.135862333239956, 37.481967899894691 ], [ 127.135863639390351, 37.481967557012148 ], [ 127.135877456377756, 37.481963930013407 ], [ 127.13588579364189, 37.481961740127325 ], [ 127.135885825981234, 37.481961735137318 ], [ 127.135891339840484, 37.481995078142454 ], [ 127.135767083073731, 37.482159738506454 ], [ 127.135847894618379, 37.482203078449949 ], [ 127.135854696661724, 37.48239210569254 ], [ 127.135853374341607, 37.482525282247998 ], [ 127.135883908078085, 37.482652881251646 ], [ 127.135931060647394, 37.482704192671726 ], [ 127.135944846193723, 37.482755849786869 ], [ 127.135926367848327, 37.482790710798881 ], [ 127.135942771983736, 37.482860995921662 ], [ 127.13592911669312, 37.482929909465852 ], [ 127.135960487659474, 37.482970735474943 ], [ 127.135985247923628, 37.483037945222456 ], [ 127.135986616956146, 37.48303816050111 ], [ 127.136016317056061, 37.483042749786115 ], [ 127.136060758509799, 37.483317893229867 ], [ 127.136040628162576, 37.48344581593463 ], [ 127.136002818970596, 37.48347731701412 ], [ 127.136002787529563, 37.48347732271683 ], [ 127.135908780631709, 37.483521527995066 ], [ 127.135956518004207, 37.48380303672706 ], [ 127.135963789866452, 37.483882710363844 ], [ 127.135964886709431, 37.483882297632242 ], [ 127.136075753188507, 37.483840600323262 ], [ 127.136075785527879, 37.483840595333412 ], [ 127.136067084446012, 37.483879131930863 ], [ 127.136160006179011, 37.483902353961852 ], [ 127.136150920618249, 37.484113047745666 ], [ 127.136164514823435, 37.484124592075823 ], [ 127.13622046549257, 37.484135994550464 ], [ 127.136220497831914, 37.484135988847804 ], [ 127.1362572065877, 37.484160716301382 ], [ 127.136284259352493, 37.484195444783936 ], [ 127.13629954508535, 37.484251858307033 ], [ 127.136301463886809, 37.484312870974179 ], [ 127.136308017096823, 37.484361085430706 ], [ 127.136270975066068, 37.484799951175589 ], [ 127.136269021230319, 37.484856478294397 ], [ 127.136268990687597, 37.484856459048096 ], [ 127.136268987992651, 37.484856483997021 ], [ 127.136113757314931, 37.484755882803682 ], [ 127.136112361332977, 37.484754978226334 ], [ 127.136179882302983, 37.485148280866156 ], [ 127.136262820159928, 37.485254183502448 ], [ 127.136262788718867, 37.485254189917853 ], [ 127.136255465652681, 37.485258160337132 ], [ 127.136219263546735, 37.485277802147849 ], [ 127.136217752580421, 37.485278621893066 ], [ 127.136476890488737, 37.485417016140097 ], [ 127.136471425138552, 37.485420906714793 ], [ 127.136458151631928, 37.485483064641727 ], [ 127.136445205112011, 37.485576350619674 ], [ 127.136393590610751, 37.485726292674734 ], [ 127.136419144087341, 37.485803316145756 ], [ 127.136409010192608, 37.485836958957918 ], [ 127.136389575141465, 37.485867926555436 ], [ 127.136436403418898, 37.485948518947836 ], [ 127.136600952321047, 37.486668938166908 ], [ 127.136742426198524, 37.487382181790814 ], [ 127.136727431519816, 37.487500036355058 ], [ 127.136727403672026, 37.487500027801453 ], [ 127.136698434800763, 37.487498755452158 ], [ 127.136697019055845, 37.487498692725687 ], [ 127.136600008191706, 37.487494418059569 ], [ 127.136597118311428, 37.487494020316724 ], [ 127.136577991382381, 37.487491353728963 ], [ 127.136614844766925, 37.487670640736113 ], [ 127.136637867689373, 37.487709447647084 ], [ 127.136713306410243, 37.488034352003346 ], [ 127.136770491364643, 37.488268906301222 ], [ 127.1368053244381, 37.488398430726072 ], [ 127.136832278388198, 37.488491559813468 ], [ 127.136833605199868, 37.488491489247131 ], [ 127.136883152677669, 37.488488887558987 ], [ 127.136927408180142, 37.48849081637217 ], [ 127.136928907468373, 37.488490875533842 ], [ 127.136992593530422, 37.488493654706936 ], [ 127.136992626768091, 37.488493649004624 ], [ 127.137085751520317, 37.488604537855586 ], [ 127.13701017176389, 37.488677523257877 ], [ 127.137036937966101, 37.488725570243297 ], [ 127.137198552072249, 37.4887629695614 ], [ 127.13719858351331, 37.488762964571883 ], [ 127.137214227673951, 37.488948008558303 ], [ 127.137290455115703, 37.489102527769326 ], [ 127.137316786533319, 37.489301816607565 ], [ 127.137333877879897, 37.489336583328885 ], [ 127.137333846438878, 37.489336588318359 ], [ 127.137176691569792, 37.489406204395202 ], [ 127.137157242145562, 37.489429787514347 ], [ 127.137168162066189, 37.489457500485351 ], [ 127.137271737818438, 37.489708490579005 ], [ 127.137396295520787, 37.489993512797078 ], [ 127.137492229304925, 37.490206217246886 ], [ 127.13759959235442, 37.490434146630705 ], [ 127.138023212689589, 37.490528439274833 ], [ 127.138023245028933, 37.490528434998197 ], [ 127.141428231858271, 37.491683762902163 ], [ 127.141428395351682, 37.491683509159316 ], [ 127.141452805272877, 37.491645359340431 ], [ 127.141452834018963, 37.491645362191456 ], [ 127.141521070047943, 37.491670592506949 ], [ 127.141507411164056, 37.491804676971803 ], [ 127.14147797966038, 37.491909228759951 ], [ 127.141444457228928, 37.492002612201354 ], [ 127.14145619012487, 37.492177758672248 ], [ 127.141458042450978, 37.492177931159233 ], [ 127.141551287577471, 37.492186654580415 ], [ 127.141551319018518, 37.492186649591133 ], [ 127.14163313398133, 37.492174122903386 ], [ 127.141648826651021, 37.492161490725586 ], [ 127.141735176309382, 37.492018580111633 ], [ 127.141750894131931, 37.491958464685602 ], [ 127.141804529842588, 37.491857578686691 ], [ 127.141835862181409, 37.491742394582502 ], [ 127.141844055715097, 37.491649401408878 ], [ 127.141822202399155, 37.491573023312966 ], [ 127.14187228527291, 37.491507459884865 ], [ 127.141902747144201, 37.491410386561114 ], [ 127.141951232813355, 37.491336897766544 ], [ 127.141997129537828, 37.491269718293516 ], [ 127.142025596250875, 37.491194991286946 ], [ 127.142025625895272, 37.491194995563532 ], [ 127.142052318435631, 37.491206841011831 ], [ 127.142052706507812, 37.491206458969593 ], [ 127.142108173883358, 37.491152096336286 ], [ 127.142149720066925, 37.491056810882554 ], [ 127.142238590397966, 37.490931916931515 ], [ 127.14229636285053, 37.490867064996507 ], [ 127.142351355017297, 37.490826995986559 ], [ 127.142354323949291, 37.490782753690397 ], [ 127.142345370440879, 37.490711494535915 ], [ 127.142373719474591, 37.490633704907488 ], [ 127.142395599739984, 37.490543849400076 ], [ 127.142408193221939, 37.49050599266117 ], [ 127.142443161940989, 37.490400353355469 ], [ 127.142435033086002, 37.490286926843403 ], [ 127.142442398373021, 37.490174202955444 ], [ 127.142471148953703, 37.490070013680075 ], [ 127.142474287667298, 37.489995227025574 ], [ 127.142475150049961, 37.489973331941158 ], [ 127.142483810707617, 37.48976780308832 ], [ 127.142452463097527, 37.489694229282442 ], [ 127.142438947944001, 37.489662349486991 ], [ 127.142419051158768, 37.48960434912312 ], [ 127.142399340324801, 37.489570032291219 ], [ 127.142385992257971, 37.489546834830968 ], [ 127.142383769825997, 37.489543032855991 ], [ 127.14238331438014, 37.489480594619991 ], [ 127.142386751334413, 37.489444639757828 ], [ 127.142403742069703, 37.489400291151071 ], [ 127.142436136217171, 37.489369347826916 ], [ 127.142461877441619, 37.489336366642775 ], [ 127.142461902594462, 37.489336333854759 ], [ 127.142496033185381, 37.489292600315956 ], [ 127.142585067908115, 37.489200772346166 ], [ 127.142585126298627, 37.48920071104672 ], [ 127.142589701418345, 37.489195992413201 ], [ 127.142595795589259, 37.489189768378353 ], [ 127.1426509171134, 37.489159068739433 ], [ 127.142783407837996, 37.489082775769631 ], [ 127.14288351160171, 37.489041300901334 ], [ 127.142990846803414, 37.488997113144841 ], [ 127.143000562981541, 37.488992955461455 ], [ 127.14302925337509, 37.488965875985514 ], [ 127.143029292900962, 37.488965840346204 ], [ 127.14304985174455, 37.488946431873664 ], [ 127.143049888575476, 37.488946404787768 ], [ 127.143052142448539, 37.488942528652387 ], [ 127.143088096619451, 37.488881127733094 ], [ 127.143086868622476, 37.488830323070893 ], [ 127.143086902758455, 37.488830315230217 ], [ 127.143156280546137, 37.488815179174914 ], [ 127.143224908240626, 37.488781246886269 ], [ 127.143224965732784, 37.488781219800316 ], [ 127.14324169056674, 37.488777771329495 ], [ 127.143246523502953, 37.488774849609221 ], [ 127.143281958447659, 37.488753428171655 ], [ 127.143282000668478, 37.488753408213569 ], [ 127.143282030312875, 37.488753395383362 ], [ 127.14347006746479, 37.488671570752615 ], [ 127.143470123160355, 37.488671542953824 ], [ 127.143587773716447, 37.488610431917387 ], [ 127.143587808750752, 37.488610404831341 ], [ 127.143634057614861, 37.488570284002748 ], [ 127.143634092649151, 37.488570255491098 ], [ 127.143836943918387, 37.488410562447484 ], [ 127.143836979850988, 37.488410535361375 ], [ 127.143924111941956, 37.488346215831733 ], [ 127.143924142484678, 37.48834618589445 ], [ 127.144146609366501, 37.488073279900568 ], [ 127.14432755072599, 37.487851235296148 ], [ 127.144415469741162, 37.487646692108321 ], [ 127.144432862921704, 37.48751809872315 ], [ 127.144350005014829, 37.487292227569306 ], [ 127.144336462013555, 37.487245842631729 ], [ 127.144312282061108, 37.487195595695411 ], [ 127.144335595139339, 37.487164240882926 ], [ 127.144335625682046, 37.487164210945132 ], [ 127.144371494513038, 37.487137524274203 ], [ 127.144371543022089, 37.487137505741302 ], [ 127.144371566378283, 37.487137495049261 ], [ 127.144416508193615, 37.487166092747501 ], [ 127.144479465722014, 37.487213588995175 ], [ 127.144588611927333, 37.487290762759741 ], [ 127.144703770556845, 37.487328381626519 ], [ 127.144840168952953, 37.48734641552403 ], [ 127.14497076423234, 37.487355356914129 ], [ 127.144970795673373, 37.487355351924506 ], [ 127.145080977636241, 37.487340085840337 ], [ 127.145081008178963, 37.487340077286703 ], [ 127.145143659381816, 37.487323722750155 ], [ 127.145143718670639, 37.487323702791684 ], [ 127.145246370056455, 37.487287198746053 ], [ 127.145246426650331, 37.487287171659545 ], [ 127.145377511511526, 37.487218833090004 ], [ 127.145377564512145, 37.48721880315226 ], [ 127.145483221660896, 37.487154285149821 ], [ 127.145483261186769, 37.487154259488868 ], [ 127.145558539109288, 37.487102656736795 ], [ 127.145558578635161, 37.487102629650202 ], [ 127.14563588764851, 37.487047871987428 ], [ 127.145635943344047, 37.487047847039243 ], [ 127.145752735110761, 37.487051577860711 ], [ 127.145752767450105, 37.487051574296672 ], [ 127.145794989166774, 37.487075579426836 ], [ 127.145988487177306, 37.487220858164449 ], [ 127.14633175051533, 37.487213593272003 ], [ 127.146712004680182, 37.48728114918886 ], [ 127.146712037019526, 37.487281144912046 ], [ 127.146761034728371, 37.487300366350141 ], [ 127.147015842757028, 37.487800196848617 ], [ 127.147070678616913, 37.487915096923665 ], [ 127.147162306775897, 37.488169246314833 ], [ 127.147178420755466, 37.488198329030851 ], [ 127.14737246853494, 37.489080439258359 ], [ 127.148208591655305, 37.489808943972839 ], [ 127.148450791828935, 37.490053901372384 ], [ 127.14847880399445, 37.490082237790901 ], [ 127.148497488054048, 37.49007404514213 ], [ 127.148497528478259, 37.490074023046084 ], [ 127.14849756081756, 37.490074018056646 ], [ 127.148571600861587, 37.490100534037893 ], [ 127.148571775134769, 37.490100598900497 ], [ 127.148582820819513, 37.4900963471921 ], [ 127.1485828783117, 37.4900963236705 ], [ 127.148606530054792, 37.490086423211913 ], [ 127.148606570478989, 37.490086402541415 ], [ 127.148606602818347, 37.49008639755197 ], [ 127.148639673397213, 37.490116977776253 ], [ 127.148733268866692, 37.490151027066084 ], [ 127.148902285090742, 37.490219614562697 ], [ 127.149191873192237, 37.490323899853841 ], [ 127.149402896435632, 37.490394904918119 ], [ 127.149615534849914, 37.490482126198437 ], [ 127.149648602733876, 37.490507583568352 ], [ 127.1496500858524, 37.490514247986461 ], [ 127.149671481027497, 37.490527196913533 ], [ 127.149727270898239, 37.490547313470351 ], [ 127.149747797402483, 37.490559665089144 ], [ 127.14978080779423, 37.490623093887542 ], [ 127.149780776353168, 37.490623098876931 ], [ 127.149780733234053, 37.490623120972856 ], [ 127.149773628458462, 37.490626438208636 ], [ 127.149776673747269, 37.490629378388491 ], [ 127.1497810539326, 37.490633632204876 ], [ 127.149799086713628, 37.490651168503298 ], [ 127.149853245243776, 37.490626145259789 ], [ 127.149853285667959, 37.49062612245114 ], [ 127.149853317108992, 37.490626117461744 ], [ 127.149853349448364, 37.490626159515223 ], [ 127.149869338562098, 37.490647645277875 ], [ 127.149955817577847, 37.490763853894656 ], [ 127.150024453357148, 37.490870065752219 ], [ 127.150067523981747, 37.490911903829662 ], [ 127.150074365550964, 37.490918549679748 ], [ 127.1501074037905, 37.490950644194925 ], [ 127.150108732398792, 37.490951933591852 ], [ 127.150226473684754, 37.491066302797186 ], [ 127.150270020416471, 37.491044137175329 ], [ 127.150270061738965, 37.491044115079539 ], [ 127.150270094078337, 37.491044109377427 ], [ 127.150390648887779, 37.491182949826225 ], [ 127.150390617446746, 37.491182955528359 ], [ 127.150390575225899, 37.491182977624099 ], [ 127.150361920764993, 37.491197890104019 ], [ 127.150370230181366, 37.491205948629599 ], [ 127.150373945613381, 37.491209551658415 ], [ 127.15040773484445, 37.491242374494398 ], [ 127.150417288427533, 37.491251653268741 ], [ 127.150645284439889, 37.491440936307313 ], [ 127.150567364572183, 37.491492482605345 ], [ 127.150316375281747, 37.492024387660365 ], [ 127.15035760525835, 37.492054120335617 ], [ 127.150358282588087, 37.49205460786159 ], [ 127.150442121455256, 37.492115066046196 ], [ 127.150460981584615, 37.4921286654425 ], [ 127.150948363440335, 37.492480126297686 ], [ 127.15133084722369, 37.492621729554415 ], [ 127.151605267271648, 37.492734284390515 ], [ 127.152194992391046, 37.492883078093946 ], [ 127.152195021137132, 37.492883085221429 ], [ 127.152195446938578, 37.492883192846584 ], [ 127.152199058166033, 37.492884103740245 ], [ 127.152270047531346, 37.492902015129147 ], [ 127.152347334985123, 37.492919740486236 ], [ 127.15234737540932, 37.4929197561667 ], [ 127.152378993412356, 37.492927008387475 ], [ 127.152384085961728, 37.492928177295717 ], [ 127.152404443582697, 37.492929951327788 ], [ 127.152447837600818, 37.492928326260227 ], [ 127.152447887906476, 37.492928326260248 ], [ 127.15247929121216, 37.492927145235278 ], [ 127.152937994352428, 37.492644757850314 ], [ 127.152938046454693, 37.492644729340249 ], [ 127.153190682357007, 37.492513878005084 ], [ 127.153190735357626, 37.492513850920481 ], [ 127.153444618121526, 37.492385699981348 ], [ 127.153444674715402, 37.492385670758445 ], [ 127.153830702352536, 37.492181396579227 ], [ 127.153830758946413, 37.492181369494496 ], [ 127.155917101583654, 37.491147404198387 ], [ 127.155917157279205, 37.491147375687731 ], [ 127.156428507084996, 37.490856525286574 ], [ 127.156428560983926, 37.490856494637519 ], [ 127.156696514958455, 37.490702282694855 ], [ 127.156696555382652, 37.490702257035146 ], [ 127.156772300429125, 37.490653596200126 ], [ 127.156772301091323, 37.490653595197529 ], [ 127.15677433870647, 37.490652286127663 ], [ 127.156774400690225, 37.490652246925301 ], [ 127.156774426741379, 37.490652230531559 ], [ 127.156774736660154, 37.490652030955786 ], [ 127.156829161091622, 37.490617066696387 ], [ 127.156901743169954, 37.490570445757697 ], [ 127.156901769221108, 37.490570434353366 ], [ 127.156957564481701, 37.490556759832359 ], [ 127.156987873639409, 37.49054933203962 ], [ 127.157000032336768, 37.490546617092441 ], [ 127.157102347752684, 37.490523776321425 ], [ 127.157106268000547, 37.490505480890853 ], [ 127.157110748797223, 37.490102998104135 ], [ 127.157112653225639, 37.489930916700985 ], [ 127.157112683768347, 37.489930901019875 ], [ 127.157186239620444, 37.489919275617524 ], [ 127.157186271061477, 37.489919273479188 ], [ 127.157252730222808, 37.489915046707694 ], [ 127.157320482059873, 37.489931712873471 ], [ 127.157320515297528, 37.489931707884026 ], [ 127.157352634560525, 37.489943109472343 ], [ 127.15758713976544, 37.489891808013461 ], [ 127.157587172104783, 37.489891805875111 ], [ 127.157914928724409, 37.48987893952016 ], [ 127.158142172438843, 37.489880621673237 ], [ 127.15814217374519, 37.489880622389059 ], [ 127.158142264475046, 37.48988062737849 ], [ 127.158142295916065, 37.489880620250709 ], [ 127.158379637102357, 37.489882464920186 ], [ 127.158404068583124, 37.489824771934757 ], [ 127.158407517215508, 37.489799930173 ], [ 127.158407536080119, 37.489799903087381 ], [ 127.158426401599414, 37.489802660828431 ], [ 127.158447247005583, 37.489763266249327 ], [ 127.158462671977318, 37.489731439941821 ], [ 127.158480375974946, 37.489708350874189 ], [ 127.158507065820331, 37.489675004183631 ], [ 127.158477061191547, 37.4896568439734 ], [ 127.158457172631032, 37.489638236220074 ], [ 127.158477060293222, 37.489656842547838 ], [ 127.158507065820331, 37.489675003470843 ], [ 127.15850709276981, 37.48967497139575 ], [ 127.15850648371206, 37.489674591484018 ], [ 127.158513191432249, 37.489666231287273 ], [ 127.158596667380067, 37.489571335254823 ], [ 127.158749007279184, 37.489424810155349 ], [ 127.158910439925663, 37.4892931334781 ], [ 127.158962295175414, 37.489271981621435 ], [ 127.159000600237405, 37.489259586309913 ], [ 127.159125395095046, 37.48919401229773 ], [ 127.159377409363145, 37.488968516860339 ], [ 127.159389221310818, 37.488958880696195 ], [ 127.159389646213967, 37.488958534281814 ], [ 127.15942730269235, 37.488927815302574 ], [ 127.159447048560608, 37.488908687658366 ], [ 127.159427974632209, 37.488860045612931 ], [ 127.159427836291613, 37.488859698485328 ], [ 127.159395094496134, 37.488875829583101 ], [ 127.159393761396259, 37.488876486060455 ], [ 127.159393725463659, 37.488876503167361 ], [ 127.159637503977251, 37.488499018460836 ], [ 127.159630009332858, 37.488478207806374 ], [ 127.159677540991154, 37.488450401096365 ], [ 127.159692877928009, 37.488430558399706 ], [ 127.159722224091709, 37.488375953535076 ], [ 127.159722259125999, 37.488375889383747 ], [ 127.159741871145272, 37.488339401533722 ], [ 127.159741900789697, 37.488339390129035 ], [ 127.159897554573888, 37.488278375760721 ], [ 127.159897587811571, 37.488278372196767 ], [ 127.159929319900669, 37.488274909446865 ], [ 127.159929352240042, 37.488274910159646 ], [ 127.159929586700315, 37.488274919425976 ], [ 127.160062979333489, 37.488280046548212 ], [ 127.16006301346944, 37.488280044409819 ], [ 127.160097914814855, 37.488278377186333 ], [ 127.160097948950863, 37.488278372909555 ], [ 127.160098207665655, 37.488278342972229 ], [ 127.160201011765082, 37.488266256135368 ], [ 127.160201043206115, 37.48826624615625 ], [ 127.1602305160323, 37.488257199381735 ], [ 127.160342760527044, 37.488193715114789 ], [ 127.160425015664345, 37.488111703118726 ], [ 127.160509679184941, 37.488046086043965 ], [ 127.160605760292768, 37.487978832331642 ], [ 127.160666343573837, 37.487914780441891 ], [ 127.160690425609985, 37.487861048376907 ], [ 127.160707500786913, 37.487808497379199 ], [ 127.16072090095598, 37.487782169475842 ], [ 127.160743485500518, 37.487762581070605 ], [ 127.160770578689508, 37.487747774824598 ], [ 127.160821165518072, 37.487709047054196 ], [ 127.160850422748595, 37.487694954309227 ], [ 127.160912225941843, 37.487673875418324 ], [ 127.160969144096555, 37.487647766296917 ], [ 127.160969175537574, 37.487647762020117 ], [ 127.161108973158733, 37.487629467310732 ], [ 127.161109003701469, 37.487629457331536 ], [ 127.161138802616051, 37.487620055505722 ], [ 127.161138834955395, 37.487620049803311 ], [ 127.161239731033163, 37.487600098540518 ], [ 127.161239765169157, 37.487600097114921 ], [ 127.161240469448316, 37.487600078582112 ], [ 127.161275136333487, 37.487599151229603 ], [ 127.161752174986972, 37.487657518816441 ], [ 127.161752208224641, 37.487657513826854 ], [ 127.161752846926817, 37.487657414747758 ], [ 127.161908497117793, 37.487633250137499 ], [ 127.161908526762232, 37.487633238732705 ], [ 127.162371032471057, 37.487458908454911 ], [ 127.162432859020498, 37.487395394284668 ], [ 127.162565220387719, 37.487270335256639 ], [ 127.162628288408868, 37.487200325147313 ], [ 127.162698648953494, 37.487161577134593 ], [ 127.162845728318359, 37.487104708900944 ], [ 127.162845761555985, 37.487104707475346 ], [ 127.162846704787057, 37.487104644035732 ], [ 127.162894356819606, 37.487101581827559 ], [ 127.163028178847497, 37.487137346073148 ], [ 127.163028212983491, 37.487137342509129 ], [ 127.163062159419724, 37.487149369653139 ], [ 127.163131741125056, 37.487177570315126 ], [ 127.163211012058937, 37.48718251004528 ], [ 127.163288383954381, 37.48719799285395 ], [ 127.163329003076555, 37.487210279448654 ], [ 127.163414070839039, 37.487228624869751 ], [ 127.163414566709065, 37.487228462350558 ], [ 127.16345721692214, 37.487214514214045 ], [ 127.163457251058105, 37.487214507086023 ], [ 127.16350196919295, 37.487203191330458 ], [ 127.163501999735672, 37.487203186340835 ], [ 127.163617265264733, 37.487182283373684 ], [ 127.163529772949303, 37.486800983714431 ], [ 127.163529765762775, 37.486800955202128 ], [ 127.163530682044367, 37.486800669366396 ], [ 127.163530735943297, 37.486800652971816 ], [ 127.16361825969976, 37.487182103034343 ], [ 127.163750297673474, 37.487158154962749 ], [ 127.163802011887739, 37.487131510345087 ], [ 127.163862418200679, 37.487091693802583 ], [ 127.163918053561204, 37.487042061913343 ], [ 127.164007687460256, 37.486975805225107 ], [ 127.164097329444132, 37.48691360363339 ], [ 127.164122165166788, 37.486895098466285 ], [ 127.164154850368405, 37.4868471201586 ], [ 127.164174638457496, 37.48679582512716 ], [ 127.164272608722385, 37.486710629620468 ], [ 127.164423237330894, 37.486620869900001 ], [ 127.164483634660698, 37.486525461052501 ], [ 127.164515942569892, 37.486408016242763 ], [ 127.164688531393836, 37.486273258462212 ], [ 127.164688562834897, 37.486273249908443 ], [ 127.164713844121948, 37.486266646413831 ], [ 127.164713877359588, 37.486266645701036 ], [ 127.164929016683615, 37.486262378805336 ], [ 127.165102175039479, 37.486188803685316 ], [ 127.165369457972488, 37.485874074595721 ], [ 127.164594165169916, 37.484005841143961 ], [ 127.164649579544843, 37.482346933121612 ], [ 127.164145922911132, 37.481841535098518 ], [ 127.161964991267681, 37.48136807118275 ], [ 127.161416696449194, 37.48123177308706 ], [ 127.159963406474134, 37.481385453540121 ], [ 127.159755414146517, 37.481513218447617 ], [ 127.159805621886036, 37.481668306213152 ], [ 127.159779380299966, 37.481716635007466 ], [ 127.159729248917202, 37.481749318730593 ], [ 127.159729217476183, 37.481749323720578 ], [ 127.159543541995177, 37.481836332684637 ], [ 127.159433790325323, 37.481949285148815 ], [ 127.15943375888429, 37.481949290138779 ], [ 127.159344307343233, 37.481987154778224 ], [ 127.159215258064464, 37.482018505347853 ], [ 127.159189846521699, 37.482033582900577 ], [ 127.159219120820183, 37.482181039224272 ], [ 127.159201534501889, 37.482259539812731 ], [ 127.159143391943417, 37.482353591852117 ], [ 127.159133472746049, 37.482474968693211 ], [ 127.159090319476434, 37.482600717230746 ], [ 127.159061430555226, 37.482632742609198 ], [ 127.159061895882544, 37.482633009926893 ], [ 127.159061855458347, 37.482633056261953 ], [ 127.158960488663382, 37.482745499975252 ], [ 127.158960415899855, 37.482745529201949 ], [ 127.158759756519842, 37.482838122148323 ], [ 127.158688689899435, 37.483071212898814 ], [ 127.158549440250596, 37.483307280457879 ], [ 127.158500592560415, 37.483360323630322 ], [ 127.15850051979686, 37.483360351431074 ], [ 127.158440930052521, 37.483383833097058 ], [ 127.158440869865387, 37.483383853056587 ], [ 127.158255723492076, 37.483426510102561 ], [ 127.158255692051014, 37.48342651723096 ], [ 127.158107951526134, 37.483435091265029 ], [ 127.157777985050927, 37.483413185703796 ], [ 127.157599873384598, 37.483442425670354 ], [ 127.157599841943565, 37.483442432085916 ], [ 127.157599801519353, 37.483442455609605 ], [ 127.157420620857835, 37.483537088549028 ], [ 127.157360198375216, 37.483614833530375 ], [ 127.157314088749985, 37.483733647100486 ], [ 127.157366746195322, 37.483991354215952 ], [ 127.157347061412494, 37.484040212568836 ], [ 127.157297954109183, 37.484076227771666 ], [ 127.157297920871514, 37.48407623276151 ], [ 127.157297879548992, 37.484076253433678 ], [ 127.157222711220967, 37.484104436722063 ], [ 127.157222681576542, 37.484104448127383 ], [ 127.157114125564377, 37.484090803074551 ], [ 127.156979592070812, 37.484098185888172 ], [ 127.15697953457861, 37.484098208698832 ], [ 127.156641717726131, 37.484244139764861 ], [ 127.156289623948837, 37.484285956604282 ], [ 127.156289591609493, 37.484285960168449 ], [ 127.156289548490349, 37.484285980840554 ], [ 127.156148739366188, 37.484338485130841 ], [ 127.156148709721805, 37.484338496536139 ], [ 127.156148664806011, 37.484338508654254 ], [ 127.155953217451355, 37.484377575340801 ], [ 127.155953184213715, 37.484377581756284 ], [ 127.155862283690084, 37.484370494082142 ], [ 127.155618444091033, 37.484391351502055 ], [ 127.155618385700578, 37.484391371461285 ], [ 127.155302304484678, 37.484488078958215 ], [ 127.15530227394197, 37.484488088224992 ], [ 127.155164214560898, 37.484478172053727 ], [ 127.154924282633331, 37.48452199537622 ], [ 127.154924249395648, 37.484522000366027 ], [ 127.154412632790226, 37.484460767605285 ], [ 127.154266893711792, 37.48441365168442 ], [ 127.153785102072078, 37.484340033399491 ], [ 127.153348922390947, 37.484241215728794 ], [ 127.152977589395192, 37.484170512046092 ], [ 127.152427544658551, 37.48412111915372 ], [ 127.152024207384187, 37.484103522157163 ], [ 127.151737413941532, 37.484073074196708 ], [ 127.151312043688179, 37.484062080878893 ], [ 127.150887774769387, 37.484037119583199 ], [ 127.150330441102483, 37.483854558356569 ], [ 127.150171918099232, 37.483794390738773 ], [ 127.149782137300832, 37.483761454140499 ], [ 127.149650937455277, 37.483787920325391 ], [ 127.149650906014244, 37.483787926740916 ], [ 127.149650866488372, 37.483787951690196 ], [ 127.149541258548993, 37.483851940111713 ], [ 127.14934838576589, 37.483857321306935 ], [ 127.149277398197199, 37.483815965432377 ], [ 127.14925334311053, 37.483772477441661 ], [ 127.149250052581635, 37.483766535238125 ], [ 127.149225356996141, 37.483628261967496 ], [ 127.149256687538312, 37.483577945591243 ], [ 127.149319871442174, 37.483529420544542 ], [ 127.149319903781489, 37.483529390605327 ], [ 127.14944452616254, 37.483386275999685 ], [ 127.149444563891777, 37.483386249624623 ], [ 127.149597178675407, 37.483032601036072 ], [ 127.149611474464834, 37.482999511553444 ], [ 127.149603009639918, 37.4828350048762 ], [ 127.149596544464814, 37.482710670307398 ], [ 127.149674343059985, 37.482087617129189 ], [ 127.149698797896974, 37.482064820107169 ], [ 127.149698832931293, 37.482064793018772 ], [ 127.149783473993978, 37.482005156460971 ], [ 127.149783526096272, 37.482005125808286 ], [ 127.149852707152903, 37.481968486573138 ], [ 127.149852743085532, 37.481968460910394 ], [ 127.149872581480267, 37.481950713707583 ], [ 127.149872627294343, 37.481950687331995 ], [ 127.150368848572484, 37.481891409248803 ], [ 127.150505074492045, 37.48188511260706 ], [ 127.150641084815973, 37.481891246718007 ], [ 127.150641116256978, 37.481891241015191 ], [ 127.150728344467694, 37.48192023421705 ], [ 127.150948189167167, 37.482004470696218 ], [ 127.151139015588029, 37.482107303257436 ], [ 127.151241527734982, 37.482145915598352 ], [ 127.151799377933173, 37.482317117456233 ], [ 127.151859016186606, 37.482344974922938 ], [ 127.152092498210394, 37.482414330909606 ], [ 127.152646759639012, 37.482485161715594 ], [ 127.152885570469081, 37.482496930844547 ], [ 127.153153959228192, 37.48254217674814 ], [ 127.15337265947403, 37.482561539123708 ], [ 127.153669079263253, 37.482601970416603 ], [ 127.154000909742706, 37.482605685777429 ], [ 127.154000941183725, 37.482605678648959 ], [ 127.154097827182071, 37.482583055719815 ], [ 127.154097888267515, 37.482583035760086 ], [ 127.1541804075095, 37.482548984446446 ], [ 127.154180447035401, 37.482548959496796 ], [ 127.154532986377063, 37.482295620030484 ], [ 127.154533025902907, 37.482295595793573 ], [ 127.154537866924002, 37.482229635718959 ], [ 127.154506437567136, 37.482119304122833 ], [ 127.154450917190971, 37.482005309011541 ], [ 127.154385711179501, 37.48190952714981 ], [ 127.154315324583692, 37.481822941706781 ], [ 127.154287068076442, 37.481772071651847 ], [ 127.154012794453905, 37.481444461851368 ], [ 127.153787077467413, 37.481141565522869 ], [ 127.153652243038209, 37.480997850390217 ], [ 127.153496032298492, 37.480848304465191 ], [ 127.153448877932604, 37.48078916950611 ], [ 127.153380748803144, 37.480588243316049 ], [ 127.153251064415457, 37.48041767052387 ], [ 127.153162822905102, 37.480334622034313 ], [ 127.153054054890518, 37.480219793706468 ], [ 127.152937208326577, 37.480079207019841 ], [ 127.152851370707907, 37.48001002993518 ], [ 127.152638061252119, 37.479857582063261 ], [ 127.152448257114045, 37.479755652469542 ], [ 127.151910991810581, 37.47950956703599 ], [ 127.151910963962791, 37.479509553491347 ], [ 127.151638583988913, 37.479384840553628 ], [ 127.151400916714167, 37.479359287432061 ], [ 127.151400887069769, 37.479359282441905 ], [ 127.150744362327515, 37.479182531164454 ], [ 127.150313534808816, 37.479085045463115 ], [ 127.149978053576078, 37.478899587100166 ], [ 127.149721772310372, 37.478949818229538 ], [ 127.149721739971028, 37.478949823932574 ], [ 127.149647099852373, 37.47888135155651 ], [ 127.149647058529879, 37.47888137223012 ], [ 127.149541719384729, 37.478915986966648 ], [ 127.149541688842007, 37.478915996946995 ], [ 127.149468832777501, 37.478835714201821 ], [ 127.149252372930007, 37.478722121138027 ], [ 127.149252325319296, 37.478722095474204 ], [ 127.149199818790947, 37.478694593099178 ], [ 127.149081004018171, 37.4784604785347 ], [ 127.149286191805544, 37.47837113663514 ], [ 127.149286234924674, 37.478371115961416 ], [ 127.149237564202551, 37.478284590578099 ], [ 127.149056646199284, 37.478212285812404 ], [ 127.149058325150548, 37.47820662618377 ], [ 127.149058293571471, 37.478206631324404 ], [ 127.149058328743806, 37.478206618341972 ], [ 127.149087981233038, 37.478106649796246 ], [ 127.149087992012795, 37.478106611300191 ], [ 127.149090560296202, 37.478098011703487 ], [ 127.149090523465276, 37.478098021683969 ], [ 127.149087969554927, 37.478106575655659 ], [ 127.149087940808869, 37.478106673321633 ], [ 127.14908794019955, 37.478106672332451 ], [ 127.149087968656559, 37.478106574942764 ], [ 127.149090522566965, 37.478098020971075 ], [ 127.149090558499566, 37.478098010990593 ], [ 127.149090597127127, 37.478097998158582 ], [ 127.150662797096345, 37.477846894916858 ], [ 127.150785220401573, 37.47784007680962 ], [ 127.150820944603836, 37.477846875668753 ], [ 127.150820977841477, 37.477846869252701 ], [ 127.151077946318381, 37.477795732720359 ], [ 127.151842231165503, 37.477698628034055 ], [ 127.152119317413181, 37.477693048210682 ], [ 127.152384422829954, 37.47769496946075 ], [ 127.15238445337269, 37.477694959480232 ], [ 127.152682084090912, 37.477599366713683 ], [ 127.152682143379735, 37.477599346752612 ], [ 127.152855046614022, 37.477537878053248 ], [ 127.152855087038219, 37.477537855953464 ], [ 127.153002920987916, 37.477423627151545 ], [ 127.153002960513788, 37.477423601487239 ], [ 127.153159870142773, 37.477194816138827 ], [ 127.153164292548922, 37.477088852889082 ], [ 127.153118132618033, 37.476960789552905 ], [ 127.153119438768456, 37.476879067496618 ], [ 127.153076128293662, 37.476762262681504 ], [ 127.153078110875498, 37.476736491940507 ], [ 127.153089588649863, 37.476709626883469 ], [ 127.153172435776966, 37.476602600717804 ], [ 127.153172464523038, 37.476602570062902 ], [ 127.153192745787209, 37.476585904488111 ], [ 127.153192782618135, 37.476585877397724 ], [ 127.153182327126558, 37.476550752567547 ], [ 127.153281466099628, 37.476520009950981 ], [ 127.153281511015422, 37.476519993554135 ], [ 127.15328154065979, 37.476519981434762 ], [ 127.15332574675493, 37.47650211459554 ], [ 127.153325803348793, 37.4765020860793 ], [ 127.153438670376005, 37.476437100423766 ], [ 127.153438727868192, 37.47643707475914 ], [ 127.153620877461719, 37.476364873716108 ], [ 127.153620937648867, 37.476364849477264 ], [ 127.154594650331404, 37.47594465024158 ], [ 127.154594708721902, 37.475944626715524 ], [ 127.155303945706692, 37.475671626230245 ], [ 127.155304004097204, 37.475671602704104 ], [ 127.155590722081371, 37.475541776039734 ], [ 127.155590760708961, 37.475541757503947 ], [ 127.155657236039985, 37.475447543613782 ], [ 127.155657262989379, 37.475447512958411 ], [ 127.155723453554486, 37.475378621030103 ], [ 127.155723488588833, 37.47537859322636 ], [ 127.155847811830853, 37.475142549096596 ], [ 127.155903703211209, 37.474834152698961 ], [ 127.156040263304064, 37.474557186437565 ], [ 127.156279442443392, 37.474266481048232 ], [ 127.156382514240775, 37.474087046381491 ], [ 127.156550830677247, 37.473861574502315 ], [ 127.156700183678083, 37.47343105999574 ], [ 127.156914993320399, 37.472962285264273 ], [ 127.156915014879971, 37.47296224248791 ], [ 127.157030711600342, 37.472709823723001 ], [ 127.157110092128761, 37.472555649181885 ], [ 127.157208171988088, 37.472419643004898 ], [ 127.157301050601959, 37.472367831164696 ], [ 127.157301090127831, 37.472367807637532 ], [ 127.157327424240393, 37.472303526342181 ], [ 127.15757512030693, 37.472171592772497 ], [ 127.157575176900806, 37.472171569958185 ], [ 127.157656211227632, 37.472169389053413 ], [ 127.157656242668679, 37.472169389053413 ], [ 127.157892258839894, 37.472172411235576 ], [ 127.157892290280927, 37.47217241123559 ], [ 127.158182223335515, 37.472171942829455 ], [ 127.158182253878195, 37.472171934274073 ], [ 127.15841401203501, 37.47210569505625 ], [ 127.158414071323833, 37.472105673667798 ], [ 127.158575417731981, 37.472039529926327 ], [ 127.158575477020833, 37.472039507824917 ], [ 127.158769945211816, 37.471973766128009 ], [ 127.158769986534352, 37.471973745452502 ], [ 127.158835531210727, 37.471927373819405 ], [ 127.158835586906278, 37.471927347440278 ], [ 127.16321184749215, 37.472069469467712 ], [ 127.163211898696133, 37.472069470893615 ], [ 127.163003653043589, 37.471538071125615 ], [ 127.162768359117862, 37.470937340930888 ], [ 127.161671409256442, 37.469367660252196 ], [ 127.16178633252737, 37.469257342463017 ], [ 127.161786371154918, 37.469257316082953 ], [ 127.161892020218843, 37.469077333232498 ], [ 127.161735343253525, 37.46907015783696 ], [ 127.160131150683753, 37.469063401670979 ], [ 127.160422945047614, 37.467537521341733 ], [ 127.159506124468621, 37.466430607210746 ], [ 127.158877790656618, 37.465697128055247 ], [ 127.158595028852943, 37.465345752259928 ], [ 127.158257580309737, 37.464949669446568 ], [ 127.15789266757335, 37.46455362161187 ], [ 127.157504804678084, 37.464208958544319 ], [ 127.157469817094395, 37.464180173091236 ], [ 127.155593942541657, 37.464195607189318 ], [ 127.15412445684035, 37.464504569411446 ], [ 127.154124425399317, 37.464504577254644 ], [ 127.153337474260979, 37.46455190109554 ], [ 127.152381866224658, 37.464274085314713 ], [ 127.151200781052012, 37.463602537237925 ], [ 127.148745553328169, 37.461054339642345 ], [ 127.147729046702125, 37.460052243202554 ], [ 127.147421841739586, 37.459939817399473 ], [ 127.147084059556647, 37.459846622926698 ], [ 127.147084059921369, 37.459846622779487 ], [ 127.14693431795007, 37.459805357012343 ], [ 127.146733257023158, 37.459580964423097 ], [ 127.146733032444345, 37.459580714136564 ], [ 127.146732992020148, 37.459580739093894 ], [ 127.146305186434091, 37.459819586934032 ], [ 127.146212569229959, 37.459871296233288 ], [ 127.145732814969321, 37.460139143370782 ], [ 127.145455039713809, 37.460294224149465 ], [ 127.145408367743229, 37.460320280791997 ], [ 127.145389283933355, 37.46033102589211 ], [ 127.145372517776849, 37.460340387654718 ], [ 127.145372462979637, 37.460340418316285 ], [ 127.145145062550284, 37.460465844002499 ], [ 127.145137692771712, 37.460469916993084 ], [ 127.145098317816178, 37.460491669554294 ], [ 127.145092600039391, 37.460494896856311 ], [ 127.145092559615193, 37.460494920387248 ], [ 127.144978751153559, 37.460560111002614 ], [ 127.144879900539664, 37.460616873939095 ], [ 127.144879845742452, 37.460616903887484 ], [ 127.144853989533615, 37.460631262004988 ], [ 127.144750560206759, 37.460688864154932 ], [ 127.144561666960385, 37.460793977161387 ], [ 127.144316200512364, 37.460930595611948 ], [ 127.144124338333953, 37.461037318352624 ], [ 127.144061090649785, 37.461072503238825 ], [ 127.144061022377798, 37.461072541743668 ], [ 127.143862007813127, 37.461183377877433 ], [ 127.143736591321385, 37.461253229107719 ], [ 127.143736006518125, 37.461253553545944 ], [ 127.143735951720885, 37.461253584207149 ], [ 127.143440236210836, 37.461421609515128 ], [ 127.143397053296809, 37.461446144830724 ], [ 127.143396999397879, 37.461446176204888 ], [ 127.143112221774729, 37.461604856590093 ], [ 127.142760964328943, 37.461800582232776 ], [ 127.142413425010147, 37.461994262352903 ], [ 127.142096397868301, 37.462170938765723 ], [ 127.14203359754508, 37.462205937014545 ], [ 127.142029001764101, 37.462208496835288 ], [ 127.142028947865171, 37.462208528209153 ], [ 127.141932981741704, 37.462263969341514 ], [ 127.141917106714004, 37.462273142619196 ], [ 127.141917053713385, 37.462273172566917 ], [ 127.141359534993555, 37.462583478254096 ], [ 127.141359481094653, 37.462583509627805 ], [ 127.140872675059029, 37.462855628830219 ], [ 127.140698362368013, 37.462953070814045 ], [ 127.140684473515421, 37.462960835050424 ], [ 127.140631516032769, 37.462990450232105 ], [ 127.140527760617459, 37.463048489080521 ], [ 127.140527461478484, 37.463048657356538 ], [ 127.140527404884637, 37.463048685877894 ], [ 127.140400515155804, 37.463103050419839 ], [ 127.140400459460238, 37.463103077515122 ], [ 127.139933057933092, 37.463374885371209 ], [ 127.139933004034191, 37.463374916744556 ], [ 127.13956228189285, 37.463573506269405 ], [ 127.139560188818209, 37.463574627863956 ], [ 127.139560132224361, 37.463574654246031 ], [ 127.139327349089839, 37.463682601759949 ], [ 127.139326635827501, 37.463682931891888 ], [ 127.139326577437018, 37.463682957560891 ], [ 127.139257515856272, 37.463713734691567 ], [ 127.139257459262424, 37.463713762499651 ], [ 127.139245269124004, 37.463718730162917 ], [ 127.138851652519335, 37.463879154065182 ], [ 127.138851576162537, 37.463879184725307 ], [ 127.138851515975375, 37.463879208968194 ], [ 127.138620355198285, 37.463976715216383 ], [ 127.138360417789372, 37.464086356295034 ], [ 127.138353137842302, 37.464089424437546 ], [ 127.138353078553493, 37.464089448680383 ], [ 127.138339292108839, 37.464095156437594 ], [ 127.138189629189228, 37.464157099657712 ], [ 127.13818090564952, 37.464160709695079 ], [ 127.138180832885965, 37.464160738929031 ], [ 127.138177742681393, 37.464162061587359 ], [ 127.138177713935292, 37.464162074421793 ], [ 127.13817766812123, 37.464162094386445 ], [ 127.137980407067985, 37.464245639285444 ], [ 127.137980348677473, 37.464245662815202 ], [ 127.137122035372983, 37.464607439599945 ], [ 127.136815000192016, 37.464736855306825 ], [ 127.136814941801475, 37.464736878123382 ], [ 127.136677461833784, 37.464792883516765 ], [ 127.136619610329504, 37.464816453013995 ], [ 127.136619580685107, 37.464816464422256 ], [ 127.136619535769341, 37.46481648224767 ], [ 127.136540977199431, 37.46484790347899 ], [ 127.136540918808961, 37.464847925582482 ], [ 127.136501104577235, 37.464863536370828 ], [ 127.136501045288412, 37.464863559900387 ], [ 127.136486480004407, 37.464869708955788 ], [ 127.13625939129048, 37.464965626026292 ], [ 127.136259332001657, 37.464965649555815 ], [ 127.136145201943137, 37.465006928161458 ], [ 127.136145172298711, 37.465006938856668 ], [ 127.136145124687999, 37.465006955256015 ], [ 127.136136468521926, 37.465010506072097 ], [ 127.135893653002327, 37.465110107106973 ], [ 127.13589362335793, 37.465110117802176 ], [ 127.135901554583555, 37.465121546707621 ], [ 127.135901508769493, 37.465121566672032 ], [ 127.135706878881734, 37.465202510138958 ], [ 127.135467946779059, 37.46530187704996 ], [ 127.135467888388561, 37.465301900579384 ], [ 127.135322573314966, 37.465363332283196 ], [ 127.135317511308344, 37.46536547060586 ], [ 127.135317481663918, 37.465365483440046 ], [ 127.135317178033347, 37.465365147611465 ], [ 127.135317137609178, 37.465365169001828 ], [ 127.135304297090514, 37.465370592882955 ], [ 127.135299014098322, 37.465372826035946 ], [ 127.135298200224682, 37.465373169707647 ], [ 127.135092269530617, 37.465460158522426 ], [ 127.135092210241822, 37.46546018133877 ], [ 127.134453748823304, 37.465728386350499 ], [ 127.134453692229442, 37.465728411305811 ], [ 127.134370827136053, 37.465763444252808 ], [ 127.134370782220287, 37.465763461365007 ], [ 127.134142902988884, 37.465859740922525 ], [ 127.13414284370009, 37.465859765164751 ], [ 127.133913493926613, 37.46595505423258 ], [ 127.13391343373948, 37.465955077761798 ], [ 127.133736608460637, 37.466030576529306 ], [ 127.133736551866789, 37.466030602197499 ], [ 127.133639608376257, 37.466070173993856 ], [ 127.133054689243622, 37.466308936934404 ], [ 127.133054630853096, 37.46630896188951 ], [ 127.132780797405061, 37.466437542578113 ], [ 127.132780740811214, 37.466437569672166 ], [ 127.132431189266157, 37.466576775984088 ], [ 127.132431130875673, 37.466576801652096 ], [ 127.132145456733852, 37.466725305924015 ], [ 127.132145400140004, 37.466725333017983 ], [ 127.131907931392931, 37.466835941168881 ], [ 127.131907872104136, 37.466835968262799 ], [ 127.131856543267119, 37.466861496433353 ], [ 127.131856486673257, 37.466861521388296 ], [ 127.131576831243848, 37.466950372957854 ], [ 127.131576798904476, 37.466950383652794 ], [ 127.13157675488705, 37.466950397912704 ], [ 127.131434359338058, 37.466990898256476 ], [ 127.131434327897054, 37.466990907525428 ], [ 127.131434282082992, 37.466990918220368 ], [ 127.131323861168255, 37.46702120344802 ], [ 127.131323830625533, 37.467021210577983 ], [ 127.131323783014821, 37.46702122626391 ], [ 127.131164668920121, 37.46708670565625 ], [ 127.131164625800977, 37.467086724194147 ], [ 127.13109928144894, 37.467113622655852 ], [ 127.131099221261778, 37.467113645471699 ], [ 127.130968162451737, 37.467177638189412 ], [ 127.131009147188237, 37.467212014502593 ], [ 127.131009114848894, 37.46721202020656 ], [ 127.131009072628075, 37.467212043735358 ], [ 127.130896733810232, 37.467267198812003 ], [ 127.130896704165806, 37.467267213071899 ], [ 127.130896663741623, 37.467267232322733 ], [ 127.130855529884784, 37.467286394026878 ], [ 127.130855458413421, 37.467286425935733 ], [ 127.130855458019539, 37.467286425398598 ], [ 127.130674566965723, 37.467370695484881 ], [ 127.130674522948269, 37.467370715448673 ], [ 127.130532875695963, 37.467436618052233 ], [ 127.130513854768139, 37.467445467709886 ], [ 127.130513797275981, 37.467445493377596 ], [ 127.130360474619906, 37.467508618813675 ], [ 127.130360443178873, 37.467508627369561 ], [ 127.130360397364797, 37.467508639490426 ], [ 127.130104203235646, 37.467571059012236 ], [ 127.130104172692938, 37.467571066142142 ], [ 127.130071772257253, 37.4675758724132 ], [ 127.130071737222963, 37.467575878117152 ], [ 127.130029962867269, 37.467585377292842 ], [ 127.130029928731318, 37.467585383709761 ], [ 127.129918653518757, 37.467606942406462 ], [ 127.129918622077724, 37.467606948110365 ], [ 127.1298064377701, 37.467624994610574 ], [ 127.129806404532417, 37.467625001027493 ], [ 127.129693421622534, 37.467639444784034 ], [ 127.129693389283162, 37.467639449061991 ], [ 127.129382732094996, 37.46767248830681 ], [ 127.129382699755652, 37.467672492584761 ], [ 127.129316293594883, 37.467689052485625 ], [ 127.129316263052175, 37.467689060328517 ], [ 127.129316217238113, 37.467689075301273 ], [ 127.129268049572545, 37.46770892421921 ], [ 127.129247713511162, 37.467710658209718 ], [ 127.129247681171819, 37.467710660348686 ], [ 127.129247638950972, 37.467710683164334 ], [ 127.129222506784302, 37.467720148099417 ], [ 127.129222447495479, 37.467720171628073 ], [ 127.12918455026859, 37.46773613545934 ], [ 127.129184492776403, 37.467736158987996 ], [ 127.129146030509247, 37.46775131357321 ], [ 127.129145972118707, 37.467751337101852 ], [ 127.128917065214623, 37.46785094161514 ], [ 127.128917008620775, 37.467850966569728 ], [ 127.128596988292387, 37.46800760135001 ], [ 127.128596961342936, 37.468007614896749 ], [ 127.128596918223792, 37.468007634860371 ], [ 127.128516321376495, 37.468040221909135 ], [ 127.128516261189375, 37.468040245437699 ], [ 127.128266559184837, 37.468131848443313 ], [ 127.128266528642072, 37.468131859138111 ], [ 127.128266484624618, 37.468131872684815 ], [ 127.127876710114435, 37.468215697628615 ], [ 127.127876678673402, 37.468215705471465 ], [ 127.12774366872253, 37.46824013588779 ], [ 127.127401069239468, 37.46830306315632 ], [ 127.1274010360018, 37.468303069573182 ], [ 127.127280253918599, 37.468322899790493 ], [ 127.127179003904601, 37.468339520150884 ], [ 127.127178972463568, 37.468339525854731 ], [ 127.126816429482901, 37.46837451622514 ], [ 127.126831734080383, 37.468585225271383 ], [ 127.126831740368601, 37.468585302273333 ], [ 127.12692051008834, 37.468640958275195 ], [ 127.127117296831116, 37.468612429062723 ], [ 127.12801753361164, 37.468478907583588 ], [ 127.129779314936741, 37.468211689228603 ], [ 127.128017534509951, 37.468478909009562 ], [ 127.127117296831116, 37.46861242977571 ], [ 127.126920510986665, 37.468640958988168 ], [ 127.12683174126694, 37.46858530298632 ], [ 127.126838643921559, 37.468680282711603 ], [ 127.126854804385601, 37.468894339587379 ], [ 127.126854802816865, 37.468894341180679 ], [ 127.126854806410151, 37.468894382533428 ], [ 127.126876673200798, 37.469184083558247 ], [ 127.126883389005854, 37.469211827566838 ], [ 127.126964054125111, 37.470285038596984 ], [ 127.126964118803798, 37.470286329776506 ], [ 127.126964124663274, 37.470286383876022 ], [ 127.126966202895261, 37.47031405697782 ], [ 127.126966351117275, 37.470315584861112 ], [ 127.126970447434999, 37.47037006389683 ], [ 127.127009586133624, 37.470859895748774 ], [ 127.127040291448324, 37.471104487501449 ], [ 127.127064269279884, 37.471382601581055 ], [ 127.127075668002533, 37.47158300853966 ], [ 127.127128445822095, 37.472510857080152 ], [ 127.127161997897957, 37.473072616121975 ], [ 127.127162006881122, 37.473072780097787 ], [ 127.127162100305895, 37.473074337155133 ] ] ] } }
]
}
