{
"type": "FeatureCollection",
"name": "wirye_newtown_outer_boundary_5186",
"crs": { "type": "name", "properties": { "name": "urn:ogc:def:crs:EPSG::5186" } },
"features": [
{ "type": "Feature", "properties": { "name": "위례신도시 전체 외곽 경계", "source_count": 1170, "method": "위례 전체 가구및획지 dissolve + 내부 hole 제거", "area_sqm": 6753734.6096644644 }, "geometry": { "type": "Polygon", "coordinates": [ [ [ 211248.403952505846974, 541523.324900075094774 ], [ 211248.40457196632633, 541523.33692817739211 ], [ 211248.930207320983754, 541534.701813823543489 ], [ 211250.019840963941533, 541555.381662326282822 ], [ 211262.439466953015653, 541569.501692544086836 ], [ 211263.512104127177736, 541570.635361130465753 ], [ 211283.548973798431689, 541591.811882758280262 ], [ 211300.638539553212468, 541608.861861118464731 ], [ 211303.020353175787022, 541610.951801713905297 ], [ 211315.728233916539466, 541622.101985425921157 ], [ 211332.961224719212623, 541647.295614974806085 ], [ 211338.817509511893149, 541652.275913709192537 ], [ 211347.237366103800014, 541658.542329417192377 ], [ 211350.217279262258671, 541661.492388472426683 ], [ 211384.657789738033898, 541689.643750702147372 ], [ 211391.964806165342452, 541695.616849793703295 ], [ 211398.889822388417087, 541701.256865661009215 ], [ 211405.901528432237683, 541706.949541261652485 ], [ 211456.075044480618089, 541747.683256951859221 ], [ 211459.246819630032405, 541750.549874090589583 ], [ 211475.950046239537187, 541764.105620762449689 ], [ 211514.973215239064302, 541755.602198251057416 ], [ 211475.950840074510779, 541764.106175727094524 ], [ 211511.73865935462527, 541793.150518888724037 ], [ 211537.435222649946809, 541787.550921159912832 ], [ 211537.442932460282464, 541787.549349351436831 ], [ 211546.415421117242659, 541785.593486066092737 ], [ 211546.423050815210445, 541785.592388902208768 ], [ 211555.117349811422173, 541783.696599880815484 ], [ 211559.65565926374984, 541782.707829235238023 ], [ 211559.906587696634233, 541782.655480663874187 ], [ 211560.157427338941488, 541782.609857543953694 ], [ 211560.409291072603082, 541782.570644922670908 ], [ 211560.662019748298917, 541782.538000828004442 ], [ 211560.915613594057504, 541782.511767013580538 ], [ 211561.168482529174071, 541782.492574263131246 ], [ 211561.424522616027389, 541782.478608128265478 ], [ 211561.679281241056742, 541782.471919658593833 ], [ 211561.934349030634621, 541782.471482449094765 ], [ 211562.189010184549261, 541782.477770249475725 ], [ 211562.443742009490961, 541782.490388102713041 ], [ 211562.695126522390638, 541782.510201629018411 ], [ 211562.697908611386083, 541782.509493371238932 ], [ 211576.447049382491969, 541779.31724955746904 ], [ 211584.511877535784151, 541785.363669463782571 ], [ 211589.639450063754339, 541791.296893315156922 ], [ 211671.559751505439635, 541886.087172297062352 ], [ 211671.726665689202491, 541886.278409950202331 ], [ 211682.917390316550154, 541898.848591046407819 ], [ 211684.906612769438652, 541901.082972700707614 ], [ 211685.082422411593143, 541901.276596461189911 ], [ 211685.256729653774528, 541901.464995980495587 ], [ 211698.87705072198878, 541915.886820841697045 ], [ 211699.045655204274226, 541916.061761396704242 ], [ 211699.212756747961976, 541916.231873330427334 ], [ 211711.911773855739739, 541928.909401127602905 ], [ 211713.257743942231173, 541930.252981554716825 ], [ 211713.44770651430008, 541930.439108470105566 ], [ 211714.012913578131702, 541930.992181401932612 ], [ 211754.082005081989337, 541976.081166665069759 ], [ 211758.913011662312783, 541981.35857145593036 ], [ 211763.689991241990356, 541986.684638865408488 ], [ 211768.413183110998943, 541992.058736067498103 ], [ 211769.432706781284651, 541993.242739302804694 ], [ 211769.582646093389485, 541993.41021581296809 ], [ 211769.780639353441074, 541993.646834032726474 ], [ 211773.081634575268254, 541997.480307673686184 ], [ 211777.69502850266872, 542002.94887832168024 ], [ 211782.252650585025549, 542008.463892959291115 ], [ 211784.253958575194702, 542010.936127840774134 ], [ 211784.507795407436788, 542011.23920843587257 ], [ 211784.752877417806303, 542011.552483401959762 ], [ 211786.754263263981557, 542014.02479721524287 ], [ 211791.199629217968322, 542019.630878468044102 ], [ 211795.587716092268238, 542025.281739467987791 ], [ 211798.650832366780378, 542029.309749573701993 ], [ 211798.838331047591055, 542029.549517493695021 ], [ 211798.969976141437655, 542029.72946917603258 ], [ 211799.918445261137094, 542030.976826067082584 ], [ 211804.191261907777516, 542036.715187837951817 ], [ 211808.405927947373129, 542042.496666018501855 ], [ 211812.561808665370336, 542048.320626560482197 ], [ 211840.338010196923278, 542087.649897638126276 ], [ 211841.656440969818505, 542088.546873046085238 ], [ 211851.236021879012696, 542101.576837619068101 ], [ 211851.754048889910337, 542102.326378979953006 ], [ 211863.335766004136531, 542119.086980079067871 ], [ 211873.749840696633328, 542135.163085064152256 ], [ 211876.395412422891241, 542139.246968615450896 ], [ 211886.963497398450272, 542156.607481463812292 ], [ 211887.034690506494371, 542156.607503948966041 ], [ 211893.303420650365297, 542156.607908072532155 ], [ 211900.052016464120243, 542158.257721917354502 ], [ 211900.053925231157336, 542158.256458711926825 ], [ 211902.804761240666267, 542160.947173202526756 ], [ 211909.534626194130396, 542166.857302484684624 ], [ 211909.543120670539793, 542166.862457476905547 ], [ 211909.544863960094517, 542166.865783040062524 ], [ 211924.941430503764423, 542176.219384801224805 ], [ 211919.581353821529774, 542172.960802954738028 ], [ 211930.094228595407913, 542179.347914160578512 ], [ 211930.157798585423734, 542179.344523911713623 ], [ 211931.115951082174433, 542179.297711977967992 ], [ 211932.131316399667412, 542179.247975536389276 ], [ 211932.140127427875996, 542179.254001325462013 ], [ 211941.991251436877064, 542185.988067856989801 ], [ 211932.133780789677985, 542179.247108739684336 ], [ 211941.994032970222179, 542185.987676242599264 ], [ 211945.043898519827053, 542187.917685286491178 ], [ 211947.435245306580327, 542189.2268411697587 ], [ 211945.041116873529973, 542187.918156018247828 ], [ 211948.201155919756275, 542189.648228034260683 ], [ 211951.471000292542158, 542191.158187013934366 ], [ 211954.841021244646981, 542192.458305051550269 ], [ 212078.030084163416177, 542239.779530480620451 ], [ 212078.036119007942034, 542239.782150194514543 ], [ 212080.977445031574462, 542241.021638174192049 ], [ 212087.709193815942854, 542243.860025271307677 ], [ 212096.960153939493466, 542248.126947094220668 ], [ 212094.069029066537041, 542246.791633977787569 ], [ 212097.251722865592455, 542248.259580049314536 ], [ 212100.836118500825251, 542250.073073688196018 ], [ 212097.253704887581989, 542248.262589485268109 ], [ 212106.618863920099102, 542253.000291012576781 ], [ 212115.820326733140973, 542258.070461384602822 ], [ 212124.818542012624675, 542263.460461829556152 ], [ 212133.648151323810453, 542269.170578901423141 ], [ 212142.248082017555134, 542275.1807050955249 ], [ 212150.648035497491946, 542281.500772342318669 ], [ 212158.80777114268858, 542288.100813390570693 ], [ 212166.72757716558408, 542295.000923652667552 ], [ 212174.397421133529861, 542302.16097347845789 ], [ 212181.8172738069552, 542309.60089955443982 ], [ 212188.967155769147212, 542317.291080602444708 ], [ 212195.836882985400734, 542325.240994641091675 ], [ 212202.426672368921572, 542333.41116008895915 ], [ 212202.615098156704335, 542333.656309981597587 ], [ 212202.433024691970786, 542333.413938567624427 ], [ 212204.189521616965067, 542335.700682315393351 ], [ 212208.358290726668201, 542341.333031772170216 ], [ 212208.061393440293614, 542340.936130785034038 ], [ 212208.716472861677175, 542341.821167776943184 ], [ 212209.266347388038412, 542342.602246267721057 ], [ 212209.027215737762162, 542342.258281538961455 ], [ 212212.859050857601687, 542347.700486641260795 ], [ 212214.557290389784612, 542350.211524800863117 ], [ 212214.442085678863805, 542350.045759752742015 ], [ 212214.71632535228855, 542350.45109304250218 ], [ 212220.406092339311726, 542359.271235431195237 ], [ 212225.765975973103195, 542368.291296261013485 ], [ 212230.732081621827092, 542377.358402104000561 ], [ 212230.696826908708317, 542377.288567585987039 ], [ 212230.818622236780357, 542377.510753674432635 ], [ 212235.538425009290222, 542386.890800685738213 ], [ 212237.152461268531624, 542390.406593896914274 ], [ 212235.535088861855911, 542386.890162837691605 ], [ 212239.91545359956217, 542396.431263355538249 ], [ 212243.965218527417164, 542406.121245045214891 ], [ 212242.504119266290218, 542402.618024365976453 ], [ 212243.96800011821324, 542406.120774424634874 ], [ 212253.157612008886645, 542429.280607705470175 ], [ 212259.6217689087498, 542446.056926160352305 ], [ 212256.712146588222822, 542438.513080016477033 ], [ 212262.934323908761144, 542454.661145910969935 ], [ 212265.974115585820982, 542461.911169180297293 ], [ 212269.361660693248268, 542469.00615387968719 ], [ 212269.364036956278142, 542469.011141805676743 ], [ 212273.083791300508892, 542475.93112815846689 ], [ 212277.123684618854895, 542482.671193947433494 ], [ 212280.123547189839883, 542487.241185333812609 ], [ 212280.753520468599163, 542488.651200784719549 ], [ 212281.845032208802877, 542489.311386219458655 ], [ 212281.85091070458293, 542489.312106949975714 ], [ 212281.913429132750025, 542489.319873566506431 ], [ 212281.923517718270887, 542489.321233444963582 ], [ 212281.92391066782875, 542489.324161380180158 ], [ 212281.924460892798379, 542489.328197194146924 ], [ 212281.933105540607357, 542489.392769988044165 ], [ 212281.936517600872321, 542489.395781490951777 ], [ 212282.276365550380433, 542491.910563730169088 ], [ 212282.27334644284565, 542491.910480161663145 ], [ 212282.269373778661247, 542491.910474302712828 ], [ 212282.193674640147947, 542491.896912656142376 ], [ 212279.3685830719769, 542491.388371432083659 ], [ 212273.606398564093979, 542490.351584637071937 ], [ 212273.603539062198251, 542490.351026598364115 ], [ 212263.276654404588044, 542490.890665728948079 ], [ 212263.273714281589491, 542490.890898751327768 ], [ 212247.287817148666363, 542493.443920256453566 ], [ 212212.493922727677273, 542499.000681897392496 ], [ 212199.666987498727394, 542501.049303592648357 ], [ 212199.663967582484474, 542501.04977387515828 ], [ 212199.590812405949691, 542501.035188191221096 ], [ 212171.125710485590389, 542495.369620981859043 ], [ 212141.504805822914932, 542480.89903227169998 ], [ 212137.075217171543045, 542479.027531993342564 ], [ 212137.054889781400561, 542479.018799411831424 ], [ 212136.275097360252403, 542478.55221301340498 ], [ 212129.534966645907843, 542474.518777869991027 ], [ 212115.635247599275317, 542467.818702699267305 ], [ 212113.785316546796821, 542466.788586562965065 ], [ 212097.936815945227863, 542461.998772692750208 ], [ 212097.931727925955784, 542462.000822370056994 ], [ 212097.928229208744597, 542462.002716119401157 ], [ 212083.277028084616177, 542469.89766725699883 ], [ 212048.052902521856595, 542466.890077968593687 ], [ 212039.593639958882704, 542466.167682017432526 ], [ 212039.007344257290242, 542466.117543989559636 ], [ 212033.607332589454018, 542465.637563773314469 ], [ 212033.571035247325199, 542465.628571001812816 ], [ 212033.042224377975799, 542465.495838234201074 ], [ 212028.967886694939807, 542464.47281231766101 ], [ 212028.946044857904781, 542464.46732163336128 ], [ 212028.946595545450691, 542464.471120089641772 ], [ 212028.947541219822597, 542464.476501474273391 ], [ 212028.94832684204448, 542464.482673806603998 ], [ 212028.949195003311615, 542464.486710078082979 ], [ 212028.944826544058742, 542464.485675232019275 ], [ 212008.325422004651045, 542459.345927428570576 ], [ 212008.175784844672307, 542459.308684453368187 ], [ 212003.521944549225736, 542458.148277068277821 ], [ 212003.517655653442489, 542458.147163236397319 ], [ 211990.747729003662243, 542454.47715517540928 ], [ 211994.09741611222853, 542471.307119772187434 ], [ 212002.910152048978489, 542473.858629181748256 ], [ 212002.951209751074202, 542473.872375742765144 ], [ 212008.20264838001458, 542475.393153719371185 ], [ 212008.871704707766185, 542475.794375498080626 ], [ 212008.881234782806132, 542475.79739571583923 ], [ 212011.130767197726527, 542477.145246982574463 ], [ 212012.631702222453896, 542480.63104708341416 ], [ 212016.564197867905023, 542499.668082709424198 ], [ 212016.735211258084746, 542506.695550890406594 ], [ 212016.578477835544618, 542511.466743013937958 ], [ 212016.694057530112332, 542511.428854280617088 ], [ 212017.916706342308316, 542511.028068842017092 ], [ 212018.654461218800861, 542510.786084614228457 ], [ 212018.657322328945156, 542510.785534918308258 ], [ 212019.13966449565487, 542514.486871495959349 ], [ 212008.12320759674185, 542532.746141101233661 ], [ 212015.263769290031632, 542537.566611250629649 ], [ 212015.835115581518039, 542558.547005230444483 ], [ 212015.696834708738606, 542573.327674629865214 ], [ 212018.376986909977859, 542587.493375534075312 ], [ 212022.539219602040248, 542593.194285240839235 ], [ 212023.750216792075662, 542598.929303146200255 ], [ 212022.110298406594666, 542602.796055562794209 ], [ 212023.549912467977265, 542610.598870758200064 ], [ 212022.331118586909724, 542618.245620575617068 ], [ 212025.099200611439301, 542622.780774696846493 ], [ 212027.278363305842504, 542630.243331980193034 ], [ 212027.399413572828053, 542630.267399950651452 ], [ 212030.025518170354189, 542630.780544332577847 ], [ 212033.912036015739432, 542661.323514393880032 ], [ 212032.111089955375064, 542675.51867409364786 ], [ 212028.762004777672701, 542679.010047286283225 ], [ 212028.759223061875673, 542679.01067619479727 ], [ 212020.437701963935979, 542683.904873070074245 ], [ 212024.61471524919034, 542715.154725099913776 ], [ 212025.24510270653991, 542723.998376971809193 ], [ 212025.342178599035833, 542723.952709294622764 ], [ 212035.154398733953713, 542719.339023581240326 ], [ 212035.157259775849525, 542719.338473905925639 ], [ 212034.381515335349832, 542723.614415926975198 ], [ 212042.596205811976688, 542726.203636265243404 ], [ 212041.758822908333968, 542749.586706783506088 ], [ 212042.959299074078444, 542750.869714012136683 ], [ 212047.905981778691057, 542752.142396489391103 ], [ 212047.908842922392068, 542752.141767709283158 ], [ 212051.151548233348876, 542754.890887110377662 ], [ 212053.538628751441138, 542758.748753987369128 ], [ 212054.881498329981696, 542765.011868646368384 ], [ 212055.041401887574466, 542771.783716412144713 ], [ 212055.613246899825754, 542777.13572489481885 ], [ 212052.266605020675343, 542825.839299717335962 ], [ 212052.084720769198611, 542832.112815516768023 ], [ 212052.082022560498444, 542832.110675523523241 ], [ 212052.081780202541267, 542832.113444179063663 ], [ 212038.368798643816262, 542820.92817688069772 ], [ 212038.2454782781424, 542820.827602214412764 ], [ 212044.154130513838027, 542864.487653025775217 ], [ 212051.472393877629656, 542876.252065050648525 ], [ 212051.469612109154696, 542876.252773052314296 ], [ 212050.821301195421256, 542876.692499996861443 ], [ 212047.616328227915801, 542878.86784941831138 ], [ 212047.482562401448376, 542878.958637006464414 ], [ 212070.379196536407107, 542894.351768603199162 ], [ 212069.895200285391184, 542894.782870545634069 ], [ 212068.711256705224514, 542901.679881193093024 ], [ 212067.551227748743258, 542912.031738229328766 ], [ 212062.962202781694941, 542928.666720016975887 ], [ 212065.209825348691083, 542937.218586903065443 ], [ 212064.308150980825303, 542940.951198104768991 ], [ 212062.584293092833832, 542944.385704039013945 ], [ 212066.712925364408875, 542953.336400908418 ], [ 212081.14996066497406, 543033.314571434399113 ], [ 212093.547107390564634, 543112.493416143348441 ], [ 212092.201975639705779, 543125.57180082204286 ], [ 212092.199514152831398, 543125.570847908151336 ], [ 212089.637705028930213, 543125.425913395360112 ], [ 212089.512506303814007, 543125.418769778916612 ], [ 212080.933529626141535, 543124.93188481789548 ], [ 212080.678011927899206, 543124.88736974762287 ], [ 212078.986850790592143, 543124.588959291926585 ], [ 212082.217298707430018, 543144.492194811697118 ], [ 212084.247195965202991, 543148.802208006731234 ], [ 212090.866631250770297, 543184.872018257039599 ], [ 212095.886227294511627, 543210.911817587446421 ], [ 212098.945951482804958, 543225.291808004956692 ], [ 212101.314713971747551, 543235.631381265353411 ], [ 212101.432067357585765, 543235.623719877097756 ], [ 212105.814420532784425, 543235.341336705139838 ], [ 212109.728025213931687, 543235.561101424042135 ], [ 212109.860611336451257, 543235.567860450712033 ], [ 212115.492499252228299, 543235.884506273316219 ], [ 212115.495439681282733, 543235.883877667831257 ], [ 212123.713385753188049, 543248.203076479956508 ], [ 212117.017402810248313, 543256.293769973912276 ], [ 212119.376812952221371, 543261.629801670904271 ], [ 212133.663721967925085, 543265.801453907624818 ], [ 212133.666503382904921, 543265.800904188421555 ], [ 212135.02011980098905, 543286.340380923473276 ], [ 212141.736553714319598, 543303.499819763121195 ], [ 212144.032998666836647, 543325.621669846819714 ], [ 212145.538896284531802, 543329.482526017702185 ], [ 212145.536114892282058, 543329.48307572863996 ], [ 212131.626380901812809, 543337.189286089735106 ], [ 212129.90249929134734, 543339.804197664139792 ], [ 212130.863753383368021, 543342.881382060237229 ], [ 212139.98316040012287, 543370.751352155464701 ], [ 212150.952581275225384, 543402.401162643218413 ], [ 212159.402228060585912, 543426.02096419618465 ], [ 212168.860124440863729, 543451.332021478912793 ], [ 212206.308403331204318, 543461.852117257774808 ], [ 212206.311264011455933, 543461.851646799361333 ], [ 212507.244355741597246, 543590.524923108634539 ], [ 212507.258856644039042, 543590.496782681439072 ], [ 212509.423918227548711, 543586.265893408795819 ], [ 212509.42645992236794, 543586.266213655471802 ], [ 212515.456728331046179, 543589.075519706122577 ], [ 212514.226429962378461, 543603.955332279321738 ], [ 212511.60621006769361, 543615.555306505062617 ], [ 212508.626078958128346, 543625.915197115740739 ], [ 212509.634466217277804, 543645.355733452015556 ], [ 212509.798247424536385, 543645.375123418518342 ], [ 212518.04289988061646, 543646.355705184163526 ], [ 212518.045681194431381, 543646.355155619909056 ], [ 212525.283056957268855, 543644.975739263696596 ], [ 212526.672943816171028, 543643.575820150552318 ], [ 212534.33313639901462, 543627.726097327074967 ], [ 212535.733187724836171, 543621.056161032174714 ], [ 212540.493328654789366, 543609.866273209452629 ], [ 212543.283469386748038, 543597.086512802867219 ], [ 212544.023618288832949, 543586.766574079869315 ], [ 212542.10378347497317, 543578.286688996478915 ], [ 212546.543851649330463, 543571.016676883911714 ], [ 212549.254004004440503, 543560.246863702894188 ], [ 212553.554164419852896, 543552.097030214383267 ], [ 212557.624321514798794, 543544.647106093121693 ], [ 212560.154311131016584, 543536.357180500868708 ], [ 212560.156932043842971, 543536.357659100671299 ], [ 212562.515526946255704, 543537.675911158788949 ], [ 212562.549910435714992, 543537.633561240974814 ], [ 212567.464324958331417, 543531.60742136510089 ], [ 212571.154470246867277, 543521.037525939405896 ], [ 212579.03475657600211, 543507.187797891092487 ], [ 212584.154813072178513, 543499.99780043552164 ], [ 212589.024840727914125, 543495.558015725458972 ], [ 212589.294827495876234, 543490.648095106938854 ], [ 212588.514970454038121, 543482.738061405252665 ], [ 212591.035116258251946, 543474.108219058951363 ], [ 212592.98521665786393, 543464.138357135350816 ], [ 212594.105298178212252, 543459.938437933917157 ], [ 212597.215557319606887, 543448.218532713362947 ], [ 212596.515714409615612, 543435.628582963487133 ], [ 212597.18600829859497, 543423.11868884274736 ], [ 212599.746126779908082, 543411.558887555031106 ], [ 212600.036267914867494, 543403.258965797256678 ], [ 212600.116212486027507, 543400.829012847272679 ], [ 212600.91666313863243, 543378.019154466339387 ], [ 212598.156712666386738, 543369.849227895145305 ], [ 212596.966817539505428, 543366.309178647119552 ], [ 212595.216930058639264, 543359.869234040263109 ], [ 212593.479508952266769, 543356.057877246756107 ], [ 212592.302929160417989, 543353.481476827990264 ], [ 212592.107020285533508, 543353.059210028150119 ], [ 212592.077222649415489, 543346.12932104524225 ], [ 212592.387215331837069, 543342.139261072734371 ], [ 212593.897286825813353, 543337.219418311840855 ], [ 212596.7673570040497, 543333.789447945542634 ], [ 212599.049400028132368, 543330.132412375183776 ], [ 212599.051630004483741, 543330.128776699886657 ], [ 212602.077421226596925, 543325.279493985581212 ], [ 212609.966922749415971, 543315.099712281604297 ], [ 212609.972097007877892, 543315.092916663503274 ], [ 212610.377505807438865, 543314.569822882302105 ], [ 212610.917509976919973, 543313.879852742655203 ], [ 212615.797524723951938, 543310.479979626717977 ], [ 212627.527621518092928, 543302.030220897286199 ], [ 212636.387623496266315, 543297.440484900027514 ], [ 212645.887630024459213, 543292.550634594284929 ], [ 212646.747615076805232, 543292.09049131826032 ], [ 212649.289516471326351, 543289.088878265116364 ], [ 212649.293018090829719, 543289.084928077994846 ], [ 212651.114485079830047, 543286.933604069636203 ], [ 212651.117746921314392, 543286.930602837819606 ], [ 212651.317729888745816, 543286.500705400132574 ], [ 212654.507822537329048, 543279.690838895272464 ], [ 212654.407790361641673, 543274.052020978415385 ], [ 212654.410810625267914, 543274.051155354594812 ], [ 212660.549045548163122, 543272.380579120712355 ], [ 212666.62411944087944, 543268.623770508100279 ], [ 212666.629208549216855, 543268.620772057329305 ], [ 212668.108914209355135, 543268.24028733256273 ], [ 212668.536826450726949, 543267.916664956137538 ], [ 212671.674267212365521, 543265.543934656772763 ], [ 212671.678004541347036, 543265.541725252987817 ], [ 212671.680628422938753, 543265.540305258706212 ], [ 212688.32424404961057, 543256.484168522059917 ], [ 212688.329174403945217, 543256.481090726563707 ], [ 212698.744401896343334, 543249.714428553241305 ], [ 212698.747504877392203, 543249.711427082773298 ], [ 212702.844499459257349, 543245.264779593446292 ], [ 212702.847602684865706, 543245.261619901633821 ], [ 212720.814644220401533, 543227.565172576578334 ], [ 212720.817826663987944, 543227.562171227997169 ], [ 212728.534630877460586, 543220.435322441277094 ], [ 212728.537337132001994, 543220.432003923226148 ], [ 212748.258519604860339, 543190.17311347310897 ], [ 212764.298677922459319, 543165.553587763919495 ], [ 212772.109045410528779, 543142.863897652248852 ], [ 212773.669195453840075, 543128.594076864304952 ], [ 212766.379659800266381, 543103.514100561616942 ], [ 212765.189802663167939, 543098.364144254475832 ], [ 212763.059862615918973, 543092.784114868962206 ], [ 212765.12702075188281, 543089.307302560424432 ], [ 212765.129727063438622, 543089.303983999649063 ], [ 212768.306531840702519, 543086.346977485925891 ], [ 212768.310825169057352, 543086.344927156344056 ], [ 212768.312892625952372, 543086.343743647448719 ], [ 212772.282708724931581, 543089.523809227976017 ], [ 212777.842623667529551, 543094.803812930476852 ], [ 212787.482424347690539, 543103.383908350137062 ], [ 212797.660694075369975, 543107.574757242575288 ], [ 212809.720751490502153, 543109.594833507202566 ], [ 212821.269127012841636, 543110.604987806873396 ], [ 212821.27190852368949, 543110.604438307229429 ], [ 212831.019059396057855, 543108.925113999284804 ], [ 212831.021762070246041, 543108.924168820492923 ], [ 212836.565460732061183, 543107.117570182192139 ], [ 212836.570707678038161, 543107.115363137447275 ], [ 212845.655494473408908, 543103.077893883688375 ], [ 212845.660504302359186, 543103.074895358411595 ], [ 212857.265428071812494, 543095.508103939588182 ], [ 212857.270120607834542, 543095.504788481979631 ], [ 212866.625566349044675, 543088.35857070016209 ], [ 212866.629066444525961, 543088.355728073394857 ], [ 212873.295550779817859, 543082.638789867865853 ], [ 212873.299051124602556, 543082.635789016843773 ], [ 212880.145717548060929, 543076.568980333046056 ], [ 212880.150647588277934, 543076.566219031345099 ], [ 212890.479162687319331, 543076.996276009944268 ], [ 212890.482023416843731, 543076.995884876465425 ], [ 212894.21201934889541, 543079.665921384468675 ], [ 212911.300127106835134, 543095.816475534928031 ], [ 212941.659791399579262, 543095.057298757717945 ], [ 212975.278012035909342, 543102.607459215098061 ], [ 212975.280872884031851, 543102.606989001389593 ], [ 212979.610929966554977, 543104.747070752899162 ], [ 213002.059649298258591, 543160.256867524702102 ], [ 213006.889405948692001, 543173.016845759586431 ], [ 213014.948886695987312, 543201.236763920867816 ], [ 213016.368952361663105, 543204.46679251617752 ], [ 213033.377170079940697, 543302.396335695986636 ], [ 213107.195266547380015, 543383.366925993002951 ], [ 213128.571981853805482, 543410.587748574907891 ], [ 213131.044340407650452, 543413.736628065700643 ], [ 213132.698140928638168, 543412.829957294161431 ], [ 213132.701719802396838, 543412.827510561095551 ], [ 213132.704580673394958, 543412.826961310114712 ], [ 213139.247832207795, 543415.780220476677641 ], [ 213139.263233077159384, 543415.787443702458404 ], [ 213140.240827231056755, 543415.317101292079315 ], [ 213140.245915799663635, 543415.314498725929298 ], [ 213142.339344292471651, 543414.218978681834415 ], [ 213142.342922916461248, 543414.216690169414505 ], [ 213142.345783794415183, 543414.216140920296311 ], [ 213145.265094665228389, 543417.614764014608227 ], [ 213153.536443014862016, 543421.406864215619862 ], [ 213168.471713092061691, 543429.042810312239453 ], [ 213194.063688835303765, 543440.657664719386958 ], [ 213212.713430092029739, 543448.567897406523116 ], [ 213231.503116115607554, 543458.278187543037347 ], [ 213234.423040673747892, 543461.108271870645694 ], [ 213234.553026979381684, 543461.848143861978315 ], [ 213236.44286087717046, 543463.288313950877637 ], [ 213241.373181458300678, 543465.528835235629231 ], [ 213243.186296454165131, 543466.902591256424785 ], [ 213246.094424306473229, 543473.947005025809631 ], [ 213246.091642886021873, 543473.94755435839761 ], [ 213246.087825677503133, 543473.950000650133006 ], [ 213245.458917870360892, 543474.317170884110965 ], [ 213245.727713597181719, 543474.643920990871266 ], [ 213246.11433099914575, 543475.116655459278263 ], [ 213247.70599117182428, 543477.065493434085511 ], [ 213252.500005483074347, 543474.295862599392422 ], [ 213252.503584489575587, 543474.293336826842278 ], [ 213252.506365908106091, 543474.29278749495279 ], [ 213252.509218461607816, 543474.297459434717894 ], [ 213253.919444564409787, 543476.684349928516895 ], [ 213261.546805374935502, 543489.594170228461735 ], [ 213267.597921233274974, 543501.391972937621176 ], [ 213271.399525135289878, 543506.041525323991664 ], [ 213272.003391903621377, 543506.780092591652647 ], [ 213274.919489402673207, 543510.346823852974921 ], [ 213275.036758271366125, 543510.490117460722104 ], [ 213285.429092781851068, 543523.200218771002255 ], [ 213289.284121056785807, 543520.746270155184902 ], [ 213289.287779371865327, 543520.743823644472286 ], [ 213289.29064034941257, 543520.743195348070003 ], [ 213299.927417927683564, 543536.169701418140903 ], [ 213299.924636400246527, 543536.170329837827012 ], [ 213299.920898643147666, 543536.172776213381439 ], [ 213297.384171412733849, 543537.823819204582833 ], [ 213298.11759349188651, 543538.719384333235212 ], [ 213298.445532261190237, 543539.11979844851885 ], [ 213301.427892483829055, 543542.767479442991316 ], [ 213302.271126219595317, 543543.79865246033296 ], [ 213322.400526353623718, 543564.838846133206971 ], [ 213315.500484407966724, 543570.548789377324283 ], [ 213293.209840832452755, 543629.547853342024609 ], [ 213296.85074002420879, 543632.853616413194686 ], [ 213296.910553180350689, 543632.90782112791203 ], [ 213304.314110700128367, 543639.629738728399388 ], [ 213305.97959039057605, 543641.141760475467891 ], [ 213349.018560041004093, 543680.218346668523736 ], [ 213382.818015378492419, 543695.988774995785207 ], [ 213407.0660207484907, 543708.519947647117078 ], [ 213459.191126603313023, 543725.118270227219909 ], [ 213459.193667453015223, 543725.119065395789221 ], [ 213459.231303429725813, 543725.131071269395761 ], [ 213459.550494962371886, 543725.232684969552793 ], [ 213465.825146892748307, 543727.230769065674394 ], [ 213472.656793606991414, 543729.209112173644826 ], [ 213472.660365658026421, 543729.210858287056908 ], [ 213475.455165232793661, 543730.020286289509386 ], [ 213475.905309048102936, 543730.150748940533958 ], [ 213477.705293366976548, 543730.350557986996137 ], [ 213481.543086093908641, 543730.17641049483791 ], [ 213481.547534818091663, 543730.176417701644823 ], [ 213484.324862820853014, 543730.049837237573229 ], [ 213524.940674782235874, 543698.774313934380189 ], [ 213524.945287545619067, 543698.771157173672691 ], [ 213547.310575210227398, 543684.284687997889705 ], [ 213547.315267176920315, 543684.281689586117864 ], [ 213569.790409857756458, 543670.095169202191755 ], [ 213569.795419995847624, 543670.091933997347951 ], [ 213603.970632350334199, 543647.475873527000658 ], [ 213603.975642127566971, 543647.472875652834773 ], [ 213788.670897724339738, 543533.019735919544473 ], [ 213788.675828455889132, 543533.016579765710048 ], [ 213833.951184363046195, 543500.810995745006949 ], [ 213833.955956637772033, 543500.807602020795457 ], [ 213857.681307287217351, 543483.731496177962981 ], [ 213857.684887001116294, 543483.728654233389534 ], [ 213864.392507360316813, 543478.339088398613967 ], [ 213864.39256610814482, 543478.338977222447284 ], [ 213864.573007724218769, 543478.193987619481049 ], [ 213864.578496598755009, 543478.18964579666499 ], [ 213864.580803503631614, 543478.187830141745508 ], [ 213864.608248539618216, 543478.165725476224907 ], [ 213869.42782247584546, 543474.293165269424208 ], [ 213875.855358384927968, 543469.12954461760819 ], [ 213875.857664371840656, 543469.128282725345343 ], [ 213880.794540724600665, 543467.618814689572901 ], [ 213883.4763563387678, 543466.798896034015343 ], [ 213884.55213363119401, 543466.499365503084846 ], [ 213893.604799636435928, 543463.979433067259379 ], [ 213893.954882192134392, 543461.949457295937464 ], [ 213894.425700439343927, 543417.279776318115182 ], [ 213894.625997302995529, 543398.181265941704623 ], [ 213894.628701325884322, 543398.179530051653273 ], [ 213901.135944275913062, 543396.900121088488959 ], [ 213901.138725235650782, 543396.899888404645026 ], [ 213907.016985445778118, 543396.440587646677159 ], [ 213913.005692139471648, 543398.300325601827353 ], [ 213913.008632517361548, 543398.299776751548052 ], [ 213915.847061585838674, 543399.569951757672243 ], [ 213936.595620966865681, 543393.910849586012773 ], [ 213936.598481373424875, 543393.910617046291009 ], [ 213965.586836544767721, 543392.531191431451589 ], [ 213985.683381154754898, 543392.751624152297154 ], [ 213985.683496549812844, 543392.751703793066554 ], [ 213985.691519537533168, 543392.752271034521982 ], [ 213985.69430143138743, 543392.751484615844674 ], [ 214006.683809637092054, 543392.991505386075005 ], [ 214008.855242030724185, 543386.591971846646629 ], [ 214009.164869889529655, 543383.835373521083966 ], [ 214009.166543287748937, 543383.832370179123245 ], [ 214010.834448689070996, 543384.141251042485237 ], [ 214012.685324451740598, 543379.772069262806326 ], [ 214014.055417762050638, 543376.242060413584113 ], [ 214015.625431512366049, 543373.682110747904517 ], [ 214017.992050748231122, 543369.985037065227516 ], [ 214015.341903175722109, 543367.965023240307346 ], [ 214013.586480237281648, 543365.896844636998139 ], [ 214015.341823997034226, 543367.964864887995645 ], [ 214017.992050881439354, 543369.984957955195569 ], [ 214017.99444022521493, 543369.981402051518671 ], [ 214017.940647549170535, 543369.939146113349125 ], [ 214018.535425289883278, 543369.012272178079002 ], [ 214025.935590966459131, 543358.492484477581456 ], [ 214039.435624065430602, 543342.252818412496708 ], [ 214053.737073921307456, 543327.662512895301916 ], [ 214058.327020671596983, 543325.322675305302255 ], [ 214061.716974260256393, 543323.952678396017291 ], [ 214072.765908109722659, 543316.693466752767563 ], [ 214095.095984763087472, 543291.704119644826278 ], [ 214096.142426898790291, 543290.636399831622839 ], [ 214096.1800698126317, 543290.598015981493518 ], [ 214099.516128000512253, 543287.194249538471922 ], [ 214101.26602027885383, 543285.074288320494816 ], [ 214099.588291018997552, 543279.672799690277316 ], [ 214099.576121605234221, 543279.634252340183593 ], [ 214096.677449509501457, 543281.419690311187878 ], [ 214096.559428594831843, 543281.492351109278388 ], [ 214096.556247548782267, 543281.494244371773675 ], [ 214118.186732818867313, 543239.634903789497912 ], [ 214117.527829627710162, 543237.324069170979783 ], [ 214121.736722135508899, 543234.245016561006196 ], [ 214123.096843501582043, 543232.045037232572213 ], [ 214125.702476063597715, 543225.989013714133762 ], [ 214125.70558654947672, 543225.981899012811482 ], [ 214127.446930091828108, 543221.935167404473759 ], [ 214127.449553971149726, 543221.933906081831083 ], [ 214141.226964561908972, 543215.185477973311208 ], [ 214141.229904753330629, 543215.185087412944995 ], [ 214144.036923120787833, 543214.805534367915243 ], [ 214144.039783059648471, 543214.805618335842155 ], [ 214144.060516827885294, 543214.806682002032176 ], [ 214155.85670832573669, 543215.395774758304469 ], [ 214155.859727690753061, 543215.395542557584122 ], [ 214158.946694777492667, 543215.215751050505787 ], [ 214158.949714550777571, 543215.215281518641859 ], [ 214158.972600770473946, 543215.211997776990756 ], [ 214168.066811796219554, 543213.885983354412019 ], [ 214168.069594305765349, 543213.884880534373224 ], [ 214170.677861388016026, 543212.885242717340589 ], [ 214180.616695371631067, 543205.856220106827095 ], [ 214187.906805553328013, 543196.76635370857548 ], [ 214195.406825849786401, 543189.496478828368708 ], [ 214203.916937181726098, 543182.046687934547663 ], [ 214209.287037001398858, 543174.946907898993231 ], [ 214211.427025997691089, 543168.986986343865283 ], [ 214212.947108264052076, 543163.157090560067445 ], [ 214214.137206456216518, 543160.237060726736672 ], [ 214216.138294248696184, 543158.066414049360901 ], [ 214218.537221166770905, 543156.427205907530151 ], [ 214223.018461812636815, 543152.136571218376048 ], [ 214225.608644427702529, 543150.576881340588443 ], [ 214231.078520189592382, 543148.246740661561489 ], [ 214236.117320325603941, 543145.357575086643919 ], [ 214236.120101784996223, 543145.357105173054151 ], [ 214248.487292055186117, 543143.347780457697809 ], [ 214248.489995154115604, 543143.346677519963123 ], [ 214251.127200800285209, 543142.307708223233931 ], [ 214251.130061979551101, 543142.307080226251855 ], [ 214260.057116893091006, 543140.108028930495493 ], [ 214260.060136157495435, 543140.107875878806226 ], [ 214260.122426238609478, 543140.105925656040199 ], [ 214263.18854728952283, 543140.008253217325546 ], [ 214305.366790884610964, 543146.558671362814493 ], [ 214305.36973137781024, 543146.558122633141465 ], [ 214305.426237148116343, 543146.547223201720044 ], [ 214319.196566293976502, 543143.888930183486082 ], [ 214319.199190229410306, 543143.887668909155764 ], [ 214360.136619671073277, 543124.609735010657459 ], [ 214365.616742081823759, 543117.569925399729982 ], [ 214377.346801261068322, 543103.710214896011166 ], [ 214382.937993847532198, 543095.949642193270847 ], [ 214389.168156643136172, 543091.659871425363235 ], [ 214402.186872248159489, 543085.370731448871084 ], [ 214402.18981208303012, 543085.370578310568817 ], [ 214402.273244317795616, 543085.363681636750698 ], [ 214406.488213480130071, 543085.031107400311157 ], [ 214418.316659858624917, 543089.020956828491762 ], [ 214418.319679555715993, 543089.020566497696564 ], [ 214421.31961427256465, 543090.36062147130724 ], [ 214427.468044912442565, 543093.501186731737107 ], [ 214434.477867900131969, 543094.061583046335727 ], [ 214441.317708266025875, 543095.791837708908133 ], [ 214444.907723387877923, 543097.161720412550494 ], [ 214452.427634702151408, 543099.210877558682114 ], [ 214452.47152105186251, 543099.19291617826093 ], [ 214456.246219111490063, 543097.651403713040054 ], [ 214456.249239491822664, 543097.650617835926823 ], [ 214460.206319868797436, 543096.401584541192278 ], [ 214460.209022047289182, 543096.401035448652692 ], [ 214470.40720955125289, 543094.098789959447458 ], [ 214462.742839778104099, 543051.766074771527201 ], [ 214462.742209690390155, 543051.762909175478853 ], [ 214462.82330174735398, 543051.7313259098446 ], [ 214462.828071788331727, 543051.729514605831355 ], [ 214470.495192817732459, 543094.078927499125712 ], [ 214482.177340249181725, 543091.441307781380601 ], [ 214486.756125686573796, 543088.49206021334976 ], [ 214492.106194514519302, 543084.082241854164749 ], [ 214497.036218849621946, 543078.582317262887955 ], [ 214504.976324527029647, 543071.242498102947138 ], [ 214512.91637476804317, 543064.352750429534353 ], [ 214515.11645050928928, 543062.302747912355699 ], [ 214518.016446784080472, 543056.982823631842621 ], [ 214519.776453801867319, 543051.292798344045877 ], [ 214528.457551195082488, 543041.852326582069509 ], [ 214541.796725765976589, 543031.91342822147999 ], [ 214547.156845172750764, 543021.333626251202077 ], [ 214550.036980227363529, 543008.303783249342814 ], [ 214565.327168488671305, 542993.374121773522347 ], [ 214565.329950850486057, 542993.373177281813696 ], [ 214567.567153698269976, 542992.644187395228073 ], [ 214567.570093430782435, 542992.644113425980322 ], [ 214586.598217510269023, 542992.20385437773075 ], [ 214601.926963422098197, 542984.06482208496891 ], [ 214625.627308881492354, 542949.175505725899711 ], [ 214557.4211999202671, 542741.705960160819814 ], [ 214562.644259766762843, 542557.597570284502581 ], [ 214518.195455308945384, 542501.427272559609264 ], [ 214325.389101557753747, 542448.544978386256844 ], [ 214276.91972681027255, 542433.334411588963121 ], [ 214148.350648663879838, 542450.17154776561074 ], [ 214129.93019215480308, 542464.320533131598495 ], [ 214134.341719077317975, 542481.540764116682112 ], [ 214132.011623532540398, 542486.900683693354949 ], [ 214127.571494967851322, 542490.520622725831345 ], [ 214127.568713161977939, 542490.521171831060201 ], [ 214111.129901471023913, 542500.150175960268825 ], [ 214101.401473904232262, 542512.669966875226237 ], [ 214101.398692107497482, 542512.670515985460952 ], [ 214093.47987622016808, 542516.859598581446335 ], [ 214082.0600005890592, 542520.319789918954484 ], [ 214079.809603426518152, 542521.98939916875679 ], [ 214082.371144543634728, 542538.359484414337203 ], [ 214080.800964191148523, 542547.069384513306431 ], [ 214075.640818072337424, 542557.499227414256893 ], [ 214074.740733609040035, 542570.968973951530643 ], [ 214070.900409608206246, 542584.918954426888376 ], [ 214068.339294119330589, 542588.469032529043034 ], [ 214068.380400342168286, 542588.498770797043107 ], [ 214068.37681629639701, 542588.503907338017598 ], [ 214059.39025853748899, 542600.968536770320497 ], [ 214059.38381742654019, 542600.971769683412276 ], [ 214041.618994883931009, 542611.218422950478271 ], [ 214035.289851826441009, 542637.077829814516008 ], [ 214022.9297284889617, 542663.257471866090782 ], [ 214018.599473663110984, 542669.137291587307118 ], [ 214018.593032884877175, 542669.140366272768006 ], [ 214013.318223352194764, 542671.737651398521848 ], [ 214013.312896365619963, 542671.739857684937306 ], [ 213996.929644962860039, 542676.446688214899041 ], [ 213996.92686282665818, 542676.447474700631574 ], [ 213983.858343390194932, 542677.377126718638465 ], [ 213954.678512071055593, 542674.896941846003756 ], [ 213938.919978025893215, 542678.115809886832722 ], [ 213938.917196030466584, 542678.116517274873331 ], [ 213938.91361633859924, 542678.119122111005709 ], [ 213923.048412678297609, 542688.5956210315926 ], [ 213917.689928521373076, 542697.21535729453899 ], [ 213913.589736862108111, 542710.39528496353887 ], [ 213918.199203919706633, 542739.005166818853468 ], [ 213916.449132734735031, 542744.424891535425559 ], [ 213912.099191267305287, 542748.414848011801951 ], [ 213912.096250660193618, 542748.415396907483228 ], [ 213912.092592084634816, 542748.417685139109381 ], [ 213905.43915817985544, 542751.534555121907033 ], [ 213905.436534186592326, 542751.53581658413168 ], [ 213895.837903826672118, 542750.005368009209633 ], [ 213883.93781856392161, 542750.804916073218919 ], [ 213883.932729487569304, 542750.807439278345555 ], [ 213854.027815331588499, 542766.954106544028036 ], [ 213822.87949153163936, 542771.543475072016008 ], [ 213822.87663065205561, 542771.543865898274817 ], [ 213822.872813212190522, 542771.546153900912032 ], [ 213810.409418553113937, 542777.352776146493852 ], [ 213810.406794587004697, 542777.35403763584327 ], [ 213810.402819824230392, 542777.355375998653471 ], [ 213793.109492956835311, 542781.662613765802234 ], [ 213793.106552109646145, 542781.663320930674672 ], [ 213785.068253064178862, 542780.863369381753728 ], [ 213763.498287840106059, 542783.142595294862986 ], [ 213763.493119897233555, 542783.144801971502602 ], [ 213735.519949848065153, 542793.831903338781558 ], [ 213735.517246837349376, 542793.832927372772247 ], [ 213723.308561825426295, 542792.712230585399084 ], [ 213702.080060047679581, 542797.541098285233602 ], [ 213702.077119469817262, 542797.54164725006558 ], [ 213656.83896009309683, 542790.671282218303531 ], [ 213643.957803100085584, 542785.420904914150015 ], [ 213601.359615109802689, 542777.180533946142532 ], [ 213562.800006563978968, 542766.150150445057079 ], [ 213529.970541468530428, 542758.249545400962234 ], [ 213481.331155492749531, 542752.688683256739751 ], [ 213445.661447340768063, 542750.677972228033468 ], [ 213420.301657492964296, 542747.257731730234809 ], [ 213382.682042675238336, 542745.9770717038773 ], [ 213345.16230825218372, 542743.146476079593413 ], [ 213295.901648816070519, 542722.805732953129336 ], [ 213281.891802593279863, 542716.105545477708802 ], [ 213247.423599419853417, 542712.395102958776988 ], [ 213235.815003735478967, 542715.31404908769764 ], [ 213235.812221813277574, 542715.314756706822664 ], [ 213235.808721560577396, 542715.317520191660151 ], [ 213226.103207371925237, 542722.403989545535296 ], [ 213209.043711251550121, 542722.974155079573393 ], [ 213202.772524586209329, 542718.374240889330395 ], [ 213200.65263318651705, 542713.544273751671426 ], [ 213200.362648931593867, 542712.884306079475209 ], [ 213198.202779192128219, 542697.534332267008722 ], [ 213200.982656261883676, 542691.954269642825238 ], [ 213206.579490521748085, 542686.577489441027865 ], [ 213206.582356040831655, 542686.57417111902032 ], [ 213217.629786707577296, 542670.707823171047494 ], [ 213217.63312832074007, 542670.704901183024049 ], [ 213231.193522653367836, 542631.47600456350483 ], [ 213232.463756871264195, 542627.805517271044664 ], [ 213231.744090915773995, 542609.546255645807832 ], [ 213231.194198611396132, 542595.745849762810394 ], [ 213238.185090663930168, 542526.606103974278085 ], [ 213240.35206155438209, 542524.079374052817002 ], [ 213240.35516500310041, 542524.076372525189072 ], [ 213247.851914234342985, 542517.469407563097775 ], [ 213247.856527924333932, 542517.4660128520336 ], [ 213253.981838656094624, 542513.409277508268133 ], [ 213253.985021314991172, 542513.406434341333807 ], [ 213255.742798732942902, 542511.439521886524744 ], [ 213255.746855501725804, 542511.436600994318724 ], [ 213299.646548183780396, 542504.92749183671549 ], [ 213311.696421953267418, 542504.247898304602131 ], [ 213323.72502171547967, 542504.947941107559018 ], [ 213323.727803586662048, 542504.947312619769946 ], [ 213331.437714956933632, 542508.177522041252814 ], [ 213350.867295850650407, 542517.557809041696601 ], [ 213367.726950837357435, 542528.997941064531915 ], [ 213376.786920120648574, 542533.297960198717192 ], [ 213426.096225726447301, 542552.378506995388307 ], [ 213431.366026360046817, 542555.478823970537633 ], [ 213452.004222884454066, 542563.209755298448727 ], [ 213501.013828167342581, 542571.150371714844368 ], [ 213522.133611983212177, 542572.490859690355137 ], [ 213545.863399547321023, 542577.55113659077324 ], [ 213565.203084964392474, 542579.731591061339714 ], [ 213591.412931792467134, 542584.261678498471156 ], [ 213620.761349135136697, 542584.721986197866499 ], [ 213620.764131263596937, 542584.721199580817483 ], [ 213629.337423050659709, 542582.224372910219245 ], [ 213629.342829444038216, 542582.222166486317292 ], [ 213636.647520006779814, 542578.454867817461491 ], [ 213636.651020452816738, 542578.452104458934627 ], [ 213667.87789873071597, 542550.385881819413044 ], [ 213667.881399064557627, 542550.383197578950785 ], [ 213668.321585345634958, 542543.063202152145095 ], [ 213665.561863419541623, 542530.813288594596088 ], [ 213660.672028132685227, 542518.15327886713203 ], [ 213654.922199209977407, 542507.513297927682288 ], [ 213648.712475741776871, 542497.893251281697303 ], [ 213646.222525043383939, 542492.243251108448021 ], [ 213622.02331513367244, 542455.843174058478326 ], [ 213602.114140338089783, 542422.193052123533562 ], [ 213590.214365573920077, 542406.223102053976618 ], [ 213576.424905969295651, 542389.602946258033626 ], [ 213572.264887441124301, 542383.032949636108242 ], [ 213566.275315842824057, 542360.722981289378367 ], [ 213554.835749395162566, 542341.772980779991485 ], [ 213547.045903101447038, 542332.542997934040613 ], [ 213537.446227860724321, 542319.782929717795923 ], [ 213527.136627017112914, 542304.162875376176089 ], [ 213519.55683765973663, 542296.472806633682922 ], [ 213500.717236865108134, 542279.522505569620989 ], [ 213483.947514332248829, 542268.182473387219943 ], [ 213436.470786976919044, 542240.793448777752928 ], [ 213436.468326273810817, 542240.791941527277231 ], [ 213412.398694256989984, 542226.911625304608606 ], [ 213391.381624354544329, 542224.041740865330212 ], [ 213391.379003202193417, 542224.041182807763107 ], [ 213333.340887039405061, 542204.33096789137926 ], [ 213295.251435702550225, 542193.450429914635606 ], [ 213265.610843932663556, 542172.819695646176115 ], [ 213242.933799238526262, 542178.358611246221699 ], [ 213242.930937805969734, 542178.359239659737796 ], [ 213236.341071276547154, 542170.749219334684312 ], [ 213236.337412637163652, 542170.751508021960035 ], [ 213227.014019777183421, 542174.578482685144991 ], [ 213227.01131650339812, 542174.579586081788875 ], [ 213220.581313543894794, 542165.659034588723443 ], [ 213201.455320319830207, 542153.02134226821363 ], [ 213201.451113637798699, 542153.018487248104066 ], [ 213196.811715701915091, 542149.958728519268334 ], [ 213186.343610235780943, 542123.958473219885491 ], [ 213204.508378271420952, 542114.071461313636974 ], [ 213204.512195840710774, 542114.069172850926407 ], [ 213200.222440362820635, 542104.459179848083295 ], [ 213184.232742484804476, 542096.408964576432481 ], [ 213184.382242071122164, 542095.781056005740538 ], [ 213184.379447962099221, 542095.781622126116417 ], [ 213184.382561277336208, 542095.780186172574759 ], [ 213187.022926550882403, 542084.689156955922954 ], [ 213187.023886800016044, 542084.684885913971812 ], [ 213187.252566044218838, 542083.730804526363499 ], [ 213187.249306545592844, 542083.731907069450244 ], [ 213187.021906634850893, 542084.680926699307747 ], [ 213187.019346845860127, 542084.691762300091796 ], [ 213187.019293125631521, 542084.691652428824455 ], [ 213187.021827298362041, 542084.680847450741567 ], [ 213187.24922721364419, 542083.731827822281048 ], [ 213187.252407255000435, 542083.730725154047832 ], [ 213187.255826169188367, 542083.72930638003163 ], [ 213326.363617101422278, 542056.081518265418708 ], [ 213337.19337109362823, 542055.342131317011081 ], [ 213340.352027127257315, 542056.101774799637496 ], [ 213340.354968191240914, 542056.101067411946133 ], [ 213363.093357422127156, 542050.462026833556592 ], [ 213430.713031620398397, 542039.793430311023258 ], [ 213455.222814212727826, 542039.213700306951068 ], [ 213478.67152687581256, 542039.46484698401764 ], [ 213478.674230229313252, 542039.463743651169352 ], [ 213505.017412013025023, 542028.896859756088816 ], [ 213505.022659816109808, 542028.894652844872326 ], [ 213520.32735960316495, 542022.097254904918373 ], [ 213520.330939185252646, 542022.094807926565409 ], [ 213533.427748021291336, 542009.438164406688884 ], [ 213533.431248797511216, 542009.43532169086393 ], [ 213547.351541258220095, 541984.065750069799833 ], [ 213547.761842361447634, 541972.305873809498735 ], [ 213543.701990466797724, 541958.085905735497363 ], [ 213543.83227114964393, 541949.016031757928431 ], [ 213540.022412504506065, 541936.04602199443616 ], [ 213540.202427166659618, 541933.18609749188181 ], [ 213541.222517497895751, 541930.206083827302791 ], [ 213548.569914428459015, 541918.339519259170629 ], [ 213548.572462642943719, 541918.33612110815011 ], [ 213550.369412553263828, 541916.489382136613131 ], [ 213550.372675255086506, 541916.486380765447393 ], [ 213549.454195736529073, 541912.586487353197299 ], [ 213558.228906198230106, 541909.188735058763996 ], [ 213558.232882106443867, 541909.186921694781631 ], [ 213558.235506435739808, 541909.18558087234851 ], [ 213562.148906057846034, 541907.208965008496307 ], [ 213562.153917121875565, 541907.205808236263692 ], [ 213572.149122263625031, 541900.009525984060019 ], [ 213572.154212279099738, 541900.006685838336125 ], [ 213588.279018449567957, 541892.019598594983108 ], [ 213588.284346594562521, 541892.016917091445066 ], [ 213674.489097407233203, 541845.521342223393731 ], [ 213674.494266560970573, 541845.518739621853456 ], [ 213737.279004590760451, 541815.322545139002614 ], [ 213737.284173782973085, 541815.319942569243722 ], [ 213762.669393530290108, 541800.952775623183697 ], [ 213762.672813707438763, 541800.95072404446546 ], [ 213768.570130568667082, 541790.503954090178013 ], [ 213768.572519987443229, 541790.500555693753995 ], [ 213774.440015393076465, 541782.864148876164109 ], [ 213774.443119443254545, 541782.861068155150861 ], [ 213785.483432269626064, 541756.681506281369366 ], [ 213790.483960060606478, 541722.461799225537106 ], [ 213802.614344324974809, 541691.742243155254982 ], [ 213823.824602991924621, 541659.51290463260375 ], [ 213832.974978327081772, 541639.613185497932136 ], [ 213847.905189681128832, 541614.613552678492852 ], [ 213861.195914974930929, 541566.854162259493023 ], [ 213880.283987985807471, 541514.858067804249004 ], [ 213880.285903000738472, 541514.853323378134519 ], [ 213890.566847250360297, 541486.855272558052093 ], [ 213897.617212243087124, 541469.755670838756487 ], [ 213906.318346635031048, 541454.675281894393265 ], [ 213914.543811921670567, 541448.938579121953808 ], [ 213914.547312666894868, 541448.935973759391345 ], [ 213916.888696618145332, 541441.805500844609924 ], [ 213938.823940234316979, 541427.199270883807912 ], [ 213938.828950670897029, 541427.1967471789103 ], [ 213945.997517702082405, 541426.966692512738518 ], [ 213946.000298925646348, 541426.966697168536484 ], [ 213966.877335357537959, 541427.337094726855867 ], [ 213966.880116578744492, 541427.337099389638752 ], [ 213992.527199741452932, 541427.328150028013624 ], [ 213992.529903091752203, 541427.327205033157952 ], [ 214013.043210435047513, 541420.009996714070439 ], [ 214013.048459023237228, 541420.007631703861989 ], [ 214027.333267489797436, 541412.690580708556809 ], [ 214027.338516222167527, 541412.688136579585262 ], [ 214044.553180259943474, 541405.420670508407056 ], [ 214044.556839460419724, 541405.418381965020671 ], [ 214050.363507919624681, 541400.28152763901744 ], [ 214050.368439609912457, 541400.278608218533918 ], [ 214437.459116025856929, 541416.71413604891859 ], [ 214437.463645176932914, 541416.714302153210156 ], [ 214419.144633592310129, 541357.704132521292195 ], [ 214398.445975938549964, 541290.995124867069535 ], [ 214301.709064953378402, 541116.614479964948259 ], [ 214311.89639869084931, 541104.388143538613804 ], [ 214311.899820782447932, 541104.3852215744555 ], [ 214321.280060528835747, 541084.425601219758391 ], [ 214307.421472147863824, 541083.60541660990566 ], [ 214165.51267020002706, 541082.613091244595125 ], [ 214191.613833584618988, 540913.304818024742417 ], [ 214110.716447031183634, 540790.314516101614572 ], [ 214055.268143614375731, 540708.8142788837431 ], [ 214030.319009217520943, 540669.774153419653885 ], [ 214000.540016236598603, 540625.764100890839472 ], [ 213968.331017807708122, 540581.753967697033659 ], [ 213934.081792574637802, 540543.443581751897 ], [ 213930.991861677612178, 540540.243610783480108 ], [ 213765.034625210362719, 540541.680806627613492 ], [ 213634.976448916451773, 540575.757706523989327 ], [ 213634.973665986966807, 540575.758572463528253 ], [ 213565.345619997155154, 540580.897255497053266 ], [ 213480.855427367932862, 540549.926270162453875 ], [ 213376.487250920472434, 540475.225149111589417 ], [ 213159.72369787900243, 540192.063978900550865 ], [ 213069.966319673170801, 540080.703393906238489 ], [ 213042.806622358039021, 540068.183083355659619 ], [ 213012.938256696506869, 540057.79305320547428 ], [ 213012.938288989738794, 540057.793036917923018 ], [ 212999.697333708871156, 540053.192424866836518 ], [ 212981.947682234371314, 540028.260178867727518 ], [ 212981.927856304158922, 540028.232369525474496 ], [ 212981.92427553399466, 540028.235133878304623 ], [ 212944.033793114009313, 540054.685121501563117 ], [ 212935.830774929665495, 540060.411427296814509 ], [ 212893.339575282647274, 540090.073040744755417 ], [ 212868.737527306948323, 540107.246913333539851 ], [ 212864.603885940159671, 540110.132471207296476 ], [ 212862.913657053723, 540111.322425058111548 ], [ 212861.428713617700851, 540112.359164047171362 ], [ 212861.423860332346521, 540112.362559581757523 ], [ 212841.283780961704906, 540126.252080728067085 ], [ 212840.631064584973501, 540126.703122647479177 ], [ 212837.143760508188279, 540129.111994411796331 ], [ 212836.637345181021374, 540129.469401848036796 ], [ 212836.63376474645338, 540129.472007953096181 ], [ 212826.553757981950184, 540136.691776707186364 ], [ 212817.798556884023128, 540142.978235193877481 ], [ 212817.79370375603321, 540142.981551602017134 ], [ 212815.50370444211876, 540144.571589370607398 ], [ 212806.34328961969004, 540150.950578309246339 ], [ 212789.613651272375137, 540162.591029191156849 ], [ 212767.873580845422111, 540177.7205200829776 ], [ 212750.881111025024438, 540189.539305111393332 ], [ 212745.27952523791464, 540193.43578967161011 ], [ 212745.273478584742406, 540193.440053948201239 ], [ 212727.647594992711674, 540205.714449465391226 ], [ 212716.540009479882428, 540213.450048186117783 ], [ 212716.488216296944302, 540213.485977472155355 ], [ 212716.483363127452321, 540213.489373050513677 ], [ 212690.292664657754358, 540232.098018789314665 ], [ 212686.468084322375944, 540234.815288676414639 ], [ 212686.463310531980824, 540234.818763522314839 ], [ 212661.242005111678736, 540252.391814554343 ], [ 212630.133066268550465, 540274.067546634236351 ], [ 212599.353576480090851, 540295.516867227386683 ], [ 212571.276506919821259, 540315.083192824502476 ], [ 212565.71469893574249, 540318.959143875632435 ], [ 212565.307681538688485, 540319.242636158247478 ], [ 212565.302907847304596, 540319.24611104070209 ], [ 212556.803507831529714, 540325.386526920949109 ], [ 212555.397510357317515, 540326.402520100586116 ], [ 212555.39281638659304, 540326.405836828169413 ], [ 212506.017462035233621, 540360.77139030280523 ], [ 212506.01268839466502, 540360.774865202140063 ], [ 212462.899978178204037, 540390.911883878405206 ], [ 212447.462503510469105, 540401.703573174076155 ], [ 212446.232481091108639, 540402.563462820602581 ], [ 212441.542469271516893, 540405.84335014061071 ], [ 212432.353707379719708, 540412.271175751462579 ], [ 212432.327214970428031, 540412.289812623057514 ], [ 212432.322203442919999, 540412.292970637674443 ], [ 212421.087393998721382, 540418.30995749135036 ], [ 212421.082462185877375, 540418.312957355869003 ], [ 212379.687100052775349, 540448.418411332066171 ], [ 212379.682326515263412, 540448.421886265161447 ], [ 212346.852370730950497, 540470.413972669048235 ], [ 212346.667015230865218, 540470.538180102827027 ], [ 212346.662004122714279, 540470.541100737522356 ], [ 212326.050320461101364, 540482.491324532777071 ], [ 212325.987165144470055, 540482.527871367288753 ], [ 212325.981995222857222, 540482.530712637351826 ], [ 212319.86718322505476, 540485.937522013788112 ], [ 212319.862171901593683, 540485.940600932692178 ], [ 212318.782916244672379, 540486.490349920233712 ], [ 212283.934087141678901, 540504.243824179866351 ], [ 212283.927326985634863, 540504.247217080788687 ], [ 212283.921998376143165, 540504.249899862450548 ], [ 212263.455720443482278, 540515.041651282226667 ], [ 212240.441710363404127, 540527.176514871884137 ], [ 212239.797168979886919, 540527.516091117518954 ], [ 212239.791919876151951, 540527.518774039810523 ], [ 212238.57133251967025, 540528.150466395891272 ], [ 212225.320892358635319, 540535.005889425636269 ], [ 212224.548552569642197, 540535.405422476236708 ], [ 212224.542110581067391, 540535.408657606458291 ], [ 212224.268511773901992, 540535.555053716292605 ], [ 212224.26596658071503, 540535.556474431883544 ], [ 212224.261910263390746, 540535.558684293180704 ], [ 212206.797085214289837, 540544.805454360088333 ], [ 212206.79191571768024, 540544.808058276772499 ], [ 212130.800498380267527, 540584.849495996488258 ], [ 212103.617084063356742, 540599.173389221425168 ], [ 212103.611914745590184, 540599.175914048100822 ], [ 212091.44044458080316, 540605.374097338644788 ], [ 212086.318700820760569, 540607.982567633502185 ], [ 212086.316076433839044, 540607.983829993521795 ], [ 212086.312100001930958, 540607.985802609939128 ], [ 212079.357205206208164, 540611.463056546635926 ], [ 212079.352036022697575, 540611.465502247912809 ], [ 212075.82728176843375, 540613.192983336048201 ], [ 212075.822032884170767, 540613.195587196736597 ], [ 212074.532498078828212, 540613.876181875588372 ], [ 212054.427259381860495, 540624.492591928108595 ], [ 212054.422010511421831, 540624.495195798692293 ], [ 212044.318666888284497, 540629.061962404754013 ], [ 212044.316042626538547, 540629.063145638210699 ], [ 212044.311828030156903, 540629.06495965551585 ], [ 212043.545475505758077, 540629.457945351488888 ], [ 212022.048426521680085, 540640.48129304300528 ], [ 212022.045802268956322, 540640.482476282049902 ], [ 212022.745621000067331, 540641.751942366594449 ], [ 212022.74156478815712, 540641.754152298090048 ], [ 212005.510372988239396, 540650.712956723524258 ], [ 211984.357018708105898, 540661.710912144975737 ], [ 211984.351849353901343, 540661.713516163290478 ], [ 211971.486551279202104, 540668.513124976307154 ], [ 211971.038393153692596, 540668.749806504463777 ], [ 211971.035768573870882, 540668.751227157539688 ], [ 211971.008961034589447, 540668.713916141772643 ], [ 211971.005381446506362, 540668.716285043745302 ], [ 211969.868563101917971, 540669.316630608635023 ], [ 211969.400840165762929, 540669.563809024286456 ], [ 211969.328784966724925, 540669.601848510443233 ], [ 211951.097006427997258, 540679.230281384196132 ], [ 211951.091757740272442, 540679.232806168613024 ], [ 211894.566996997687966, 540708.919117126613855 ], [ 211894.561986415763386, 540708.921879680594429 ], [ 211887.225704094831599, 540712.799601871636696 ], [ 211887.221727873227792, 540712.80149542610161 ], [ 211867.046976567507954, 540723.458489407086745 ], [ 211867.041727707837708, 540723.461172496899962 ], [ 211846.737091984046856, 540734.008099470054731 ], [ 211846.731763777788728, 540734.010703325504437 ], [ 211831.076905257883482, 540742.367820283863693 ], [ 211831.071894607099239, 540742.370661998749711 ], [ 211822.489504130033311, 540746.750423884019256 ], [ 211770.706905874074437, 540773.176625842112117 ], [ 211770.7017364303465, 540773.179388224612921 ], [ 211746.456882530561415, 540787.415921582374722 ], [ 211746.45187171275029, 540787.418921598466113 ], [ 211715.507047540682834, 540802.825405580224469 ], [ 211715.501878026989289, 540802.828247119672596 ], [ 211690.206618687108858, 540819.274720178800635 ], [ 211690.20160790879163, 540819.277720218058676 ], [ 211669.176807561743772, 540831.524283908773214 ], [ 211669.171558390924474, 540831.527283622417599 ], [ 211664.626807091350202, 540834.354207745636813 ], [ 211664.621796661434928, 540834.356970397289842 ], [ 211639.868424119835254, 540844.183697855332866 ], [ 211639.86556157656014, 540844.184880852350034 ], [ 211639.861665387637913, 540844.186458070878871 ], [ 211627.258447100582998, 540848.663861470180564 ], [ 211627.255664254975272, 540848.664886317797936 ], [ 211627.251609684724826, 540848.666067657177337 ], [ 211617.478601541282842, 540852.013693561078981 ], [ 211617.475898495700676, 540852.014481123303995 ], [ 211617.471684215997811, 540852.016216176562011 ], [ 211603.385634260630468, 540859.263930707122199 ], [ 211603.38181689119665, 540859.265982851502486 ], [ 211597.597019106964581, 540862.24330085713882 ], [ 211597.591691168898251, 540862.245825697900727 ], [ 211585.987793441308895, 540869.332023722934537 ], [ 211589.608168381615542, 540873.152372486307286 ], [ 211589.605306628189282, 540873.153001570492052 ], [ 211589.601567966805305, 540873.155607754015364 ], [ 211579.655102224438451, 540879.263259448111057 ], [ 211579.652477558032842, 540879.264838458970189 ], [ 211579.648898499726783, 540879.266970071126707 ], [ 211576.007074707798893, 540881.388604232459329 ], [ 211576.000747139565647, 540881.392136901034974 ], [ 211576.000712378765456, 540881.392077236552723 ], [ 211559.985378215555102, 540890.722702344413847 ], [ 211559.981481183087453, 540890.724912654492073 ], [ 211547.44066659535747, 540898.02183654694818 ], [ 211545.756640340172453, 540899.001697279978544 ], [ 211545.751550412824145, 540899.004539001383819 ], [ 211532.178336793702329, 540905.991826669429429 ], [ 211532.175554086308694, 540905.992772408295423 ], [ 211532.171499336283887, 540905.994112051441334 ], [ 211509.498022541491082, 540912.890499331522733 ], [ 211509.495319525973173, 540912.891286923200823 ], [ 211506.628319447278045, 540913.420759383123368 ], [ 211506.625219308945816, 540913.421388163696975 ], [ 211502.928248716692906, 540914.470565821160562 ], [ 211502.925227940402692, 540914.471273844130337 ], [ 211493.078108958434314, 540916.850414220709354 ], [ 211493.075326695747208, 540916.851043440517969 ], [ 211483.148328716866672, 540918.840278217801824 ], [ 211483.145387407683302, 540918.840986356022768 ], [ 211473.148297534324229, 540920.430279760970734 ], [ 211473.14543602176127, 540920.430750616942532 ], [ 211445.65853022041847, 540924.059864547452889 ], [ 211445.655668712919578, 540924.060335411457345 ], [ 211439.778616559400689, 540925.890193304163404 ], [ 211439.775913446152117, 540925.891060049529187 ], [ 211439.771858288499061, 540925.89271625969559 ], [ 211435.507750160526484, 540928.089829019270837 ], [ 211433.708485533366911, 540928.279809712897986 ], [ 211433.705624353780877, 540928.280043183011003 ], [ 211433.701885872404091, 540928.282570287352428 ], [ 211431.47716357302852, 540929.329999763518572 ], [ 211431.471915090427501, 540929.332603929913603 ], [ 211428.116961601510411, 540931.099774857284501 ], [ 211428.111872057488654, 540931.102379243820906 ], [ 211424.707057698571589, 540932.779667596332729 ], [ 211424.701888686191523, 540932.782271875301376 ], [ 211404.436847823264543, 540943.80928739218507 ], [ 211404.431837548152544, 540943.812050160835497 ], [ 211376.098015852068784, 540961.157696408918127 ], [ 211376.095629764226032, 540961.159196659573354 ], [ 211376.091812281665625, 540961.161407144856639 ], [ 211368.957021102221915, 540964.768398289103061 ], [ 211368.951693195966072, 540964.771002377266996 ], [ 211346.848415394022595, 540974.907588836736977 ], [ 211346.845711870875675, 540974.908772135153413 ], [ 211346.841815904481336, 540974.910270334454253 ], [ 211312.348535619676113, 540984.166822800179943 ], [ 211312.345753071014769, 540984.167689473251812 ], [ 211300.575620402116328, 540986.863169183605351 ], [ 211270.25881584972376, 540993.806196912191808 ], [ 211270.255874587601284, 540993.806905120494775 ], [ 211259.568171172606526, 540995.993345941184089 ], [ 211250.608816355583258, 540997.8258825794328 ], [ 211250.606034138530958, 540997.826511874445714 ], [ 211218.529229940642836, 541001.666726789204404 ], [ 211219.851625578041421, 541025.054412456927821 ], [ 211219.852170340745943, 541025.062959383940324 ], [ 211227.696640639973339, 541031.250603560823947 ], [ 211245.109154899895657, 541028.107722397428006 ], [ 211324.766494487208547, 541013.396501024719328 ], [ 211480.659222044661874, 540983.952158335014246 ], [ 211324.766573739500018, 541013.396659396006726 ], [ 211245.109154793113703, 541028.107801529346034 ], [ 211227.696720000589266, 541031.250682799145579 ], [ 211219.852249703719281, 541025.06303862365894 ], [ 211220.448679951572558, 541035.605329858488403 ], [ 211221.846275704738218, 541059.364682998275384 ], [ 211221.846136694599409, 541059.364859645720571 ], [ 211221.846448383177631, 541059.369449671939947 ], [ 211223.737518802925479, 541091.524965321994387 ], [ 211224.327462937595556, 541094.604976839735173 ], [ 211231.302674872102216, 541213.726570462342352 ], [ 211231.308203200140269, 541213.869881733087823 ], [ 211231.308713437611004, 541213.875886750756763 ], [ 211231.488414482824737, 541216.947476651752368 ], [ 211231.501297673297813, 541217.117068821447901 ], [ 211231.855508518667193, 541223.163997537456453 ], [ 211235.244420318224002, 541277.533415562007576 ], [ 211237.923990139650414, 541304.683476667036302 ], [ 211240.003414152917685, 541335.553264934220351 ], [ 211240.981724866054719, 541357.797106596874073 ], [ 211245.511390201543691, 541460.782145451172255 ], [ 211248.395151697302936, 541523.133876220788807 ], [ 211248.395921749266563, 541523.152076413040049 ], [ 211248.403952505846974, 541523.324900075094774 ] ] ] } }
]
}
